0185720534001612025010100154+40017-105050FM-15+156499999V0200601N001512200059N016093199-00151-00941999999ADDGD12991+0243819GE19AGL   +99999+99999GF104995999999024381999999MA1102031999999REMMET076METAR KEIK 010015Z AUTO 06003KT 10SM SCT080 M01/M09 A3013 RMK AO2 T10151094=EQDD01      0ADE726
0166720534001612025010100354+40017-105050FM-15+156499999V0200801N002610259119N016093199-00151-00961999999ADDGD14991+0259199GE19AGL   +99999+99999GF199999999999025911999999MA1102071999999REMMET076METAR KEIK 010035Z AUTO 08005KT 10SM OVC085 M01/M10 A3014 RMK AO2 T10151096=
0166720534001612025010100554+40017-105050FM-15+156499999V0200901N002110259119N016093199-00131-00961999999ADDGD14991+0259199GE19AGL   +99999+99999GF199999999999025911999999MA1102101999999REMMET076METAR KEIK 010055Z AUTO 09004KT 10SM OVC085 M01/M10 A3015 RMK AO2 T10131096=
0210720534001612025010101154+40017-105050FM-15+156499999V0200901N002110259119N016093199-00181-00911999999ADDGD11991+0125019GD22991+0149419GD33991+0259119GE19AGL   +99999+99999GF199999999999012501999999MA1102131999999REMMET090METAR KEIK 010115Z AUTO 09004KT 10SM FEW041 SCT049 BKN085 M02/M09 A3016 RMK AO2 T10181091=
0188720534001612025010101354+40017-105050FM-15+156499999V0201201N002610149419N016093199-00171-00931999999ADDGD12991+0125019GD23991+0149419GE19AGL   +99999+99999GF199999999999012501999999MA1102131999999REMMET083METAR KEIK 010135Z AUTO 12005KT 10SM SCT041 BKN049 M02/M09 A3016 RMK AO2 T10171093=
0188720534001612025010101554+40017-105050FM-15+156499999V0201201N002610228619N016093199-00151-00931999999ADDGD11991+0125019GD23991+0228619GE19AGL   +99999+99999GF199999999999012501999999MA1102171999999REMMET083METAR KEIK 010155Z AUTO 12005KT 10SM FEW041 BKN075 M02/M09 A3017 RMK AO2 T10151093=
0188720534001612025010102154+40017-105050FM-15+156499999V0201401N002610134119N016093199-00141-00931999999ADDGD13991+0134119GD23991+0228619GE19AGL   +99999+99999GF199999999999013411999999MA1102201999999REMMET083METAR KEIK 010215Z AUTO 14005KT 10SM BKN044 BKN075 M01/M09 A3018 RMK AO2 T10141093=
0166720534001612025010102354+40017-105050FM-15+156499999V0201801N003110134119N016093199-00171-00661999999ADDGD14991+0134119GE19AGL   +99999+99999GF199999999999013411999999MA1102231999999REMMET076METAR KEIK 010235Z AUTO 18006KT 10SM OVC044 M02/M07 A3019 RMK AO2 T10171066=
0188720534001612025010102554+40017-105050FM-15+156499999V0209999C000010094519N016093199-00221-00461999999ADDGD13991+0094519GD24991+0128019GE19AGL   +99999+99999GF199999999999009451999999MA1102271999999REMMET083METAR KEIK 010255Z AUTO 00000KT 10SM BKN031 OVC042 M02/M05 A3020 RMK AO2 T10221046=
0220720534001612025010103154+40017-105050FM-15+156499999V0209999C000010100619N016093199-00221-00431999999ADDGD11991+0033519GD22991+0057919GD34991+0100619GE19AGL   +99999+99999GF199999999999003351999999MA1102271999999REMMET100METAR KEIK 010315Z AUTO 00000KT 10SM FEW011 SCT019 OVC033 M02/M04 A3020 RMK AO2 FEW V SCT T10221043=
0243720534001612025010103354+40017-105050FM-15+156499999V0201101N002110054919N004828199-00281-00491999999ADDAA101000021AW1101AW2711GD12991+0039619GD24991+0054919GE19AGL   +99999+99999GF199999999999003961999999MA1102271999999REMMET115METAR KEIK 010335Z AUTO 11004KT 3SM -SN BR SCT013 OVC018 M03/M05 A3020 RMK AO2 UPB0319E0322SNB0322 P0000 T10281049=
0204720534001612025010103554+40017-105050FM-15+156499999V0201501N002110042719N014484199-00301-00491999999ADDAA101000021AW1711GD14991+0061011GE19AGL   +99999+99999GF199999999999006101999999MA1102271999999REMMET097METAR KEIK 010355Z AUTO 15004KT 9SM -SN OVC020 M03/M05 A3020 RMK AO2 CIG 014V024 P0000 T10301049=
0250720534001612025010104154+40017-105050FM-15+156499999V0201301N003110061019N016093199-00351-00471999999ADDAA101000021AW1711GD13991+0061019GD23991+0106719GD34991+0149419GE19AGL   +99999+99999GF199999999999006101999999MA1102271999999REMMET113METAR KEIK 010415Z AUTO 13006KT 10SM -SN BKN020 BKN035 OVC049 M03/M05 A3020 RMK AO2 BKN020 V SCT P0000 T10351047=
0249720534001612025010104354+40017-105050FM-15+156499999V0201701N003610082319N014484199-00341-00441999999ADDAA101000021AW1711GD12991+0064019GD23991+0082319GD34991+0125019GE19AGL   +99999+99999GF199999999999006401999999MA1102301999999REMMET112METAR KEIK 010435Z AUTO 17007KT 9SM -SN SCT021 BKN027 OVC041 M03/M04 A3021 RMK AO2 SNE0417B0434 P0000 T10341044=
0224720534001612025010104554+40017-105050FM-15+156499999V0201201N002610088419N012875199-00411-00471999999ADDAA101000021AW1711GD11991+0067119GD24991+0088419GE19AGL   +99999+99999GF199999999999006711999999MA1102271999999REMMET102METAR KEIK 010455Z AUTO 12005KT 8SM -SN FEW022 OVC029 M04/M05 A3020 RMK AO2 OVC V BKN P0000 T10411047=
0210720534001612025010105154+40017-105050FM-15+156499999V0201401N002612200059N016093199-00441-00481999999ADDAA101000021GD12991+0067119GE19AGL   +99999+99999GF104995999999006711999999MA1102271999999REMMET090METAR KEIK 010515Z AUTO 14005KT 10SM SCT022 M04/M05 A3020 RMK AO2 SNE0504 P0000 T10441048=EQDD01      0ADE726
0151720534001612025010105354+40017-105050FM-15+156499999V0201501N001512200019N016093199-00561-00601999999ADDAA101000021GF100991999999999999999999MA1102301999999REMMET087METAR KEIK 010535Z AUTO 15003KT 10SM CLR M06/M06 A3021 RMK AO2 SNE0504 P0000 T10561060=
0185720534001612025010105554+40017-105050FM-15+156499999V0201701N003112200059N016093199-00531-00571999999ADDGD11991+0024419GE19AGL   +99999+99999GF102995999999002441999999MA1102301999999REMMET076METAR KEIK 010555Z AUTO 17006KT 10SM FEW008 M05/M06 A3021 RMK AO2 T10531057=EQDD01      0ADE726
0185720534001612025010106154+40017-105050FM-15+156499999V0201301N001512200059N016093199-00621-00651999999ADDGD11991+0067119GE19AGL   +99999+99999GF102995999999006711999999MA1102271999999REMMET076METAR KEIK 010615Z AUTO 13003KT 10SM FEW022 M06/M07 A3020 RMK AO2 T10621065=EQDD01      0ADE726
0185720534001612025010106354+40017-105050FM-15+156499999V0202001N002612200059N016093199-00711-00731999999ADDGD11991+0067119GE19AGL   +99999+99999GF102995999999006711999999MA1102231999999REMMET076METAR KEIK 010635Z AUTO 20005KT 10SM FEW022 M07/M07 A3019 RMK AO2 T10711073=EQDD01      0ADE726
0126720534001612025010106554+40017-105050FM-15+156499999V0201901N003112200019N016093199-00701-00731999999ADDGF100991999999999999999999MA1102231999999REMMET073METAR KEIK 010655Z AUTO 19006KT 10SM CLR M07/M07 A3019 RMK AO2 T10701073=
0169720534001612025010107157+40017-105050FM-15+1564KEIK V0201705N002152200059N0160935N5-00725-00755999999ADDGA1005+999999999GD10991+9999999GF100991999999999999999999MA1102205084645REMMET08501/01/25 00:15:02 METAR KEIK 010715Z 17004KT 10SM CLR M07/M07 A3018 RMK AO2 T10721075
0169720534001612025010107357+40017-105050FM-15+1564KEIK V0209999C000052200059N0160935N5-00905-00945999999ADDGA1005+999999999GD10991+9999999GF100991999999999999999999MA1102175084615REMMET08501/01/25 00:35:02 METAR KEIK 010735Z 00000KT 10SM CLR M09/M09 A3017 RMK AO2 T10901094
0169720534001612025010107557+40017-105050FM-15+1564KEIK V0201805N001552200059N0160935N5-00885-00905999999ADDGA1005+999999999GD10991+9999999GF100991999999999999999999MA1102175084615REMMET08501/01/25 00:55:02 METAR KEIK 010755Z 18003KT 10SM CLR M09/M09 A3017 RMK AO2 T10881090
0169720534001612025010108157+40017-105050FM-15+1564KEIK V0201605N001552200059N0160935N5-00885-00915999999ADDGA1005+999999999GD10991+9999999GF100991999999999999999999MA1102175084615REMMET08501/01/25 01:15:02 METAR KEIK 010815Z 16003KT 10SM CLR M09/M09 A3017 RMK AO2 T10881091
0169720534001612025010108357+40017-105050FM-15+1564KEIK V0209999C000052200059N0160935N5-00745-00795999999ADDGA1005+999999999GD10991+9999999GF100991999999999999999999MA1102175084615REMMET08501/01/25 01:35:02 METAR KEIK 010835Z 00000KT 10SM CLR M07/M08 A3017 RMK AO2 T10741079
0169720534001612025010108557+40017-105050FM-15+1564KEIK V0209999C000052200059N0160935N5-00955-01015999999ADDGA1005+999999999GD10991+9999999GF100991999999999999999999MA1102175084615REMMET08501/01/25 01:55:02 METAR KEIK 010855Z 00000KT 10SM CLR M10/M10 A3017 RMK AO2 T10951101
0169720534001612025010109157+40017-105050FM-15+1564KEIK V0209999C000052200059N0160935N5-00985-01035999999ADDGA1005+999999999GD10991+9999999GF100991999999999999999999MA1102175084615REMMET08501/01/25 02:15:02 METAR KEIK 010915Z 00000KT 10SM CLR M10/M10 A3017 RMK AO2 T10981103
0169720534001612025010109357+40017-105050FM-15+1564KEIK V0209999C000052200059N0160935N5-00825-00865999999ADDGA1005+999999999GD10991+9999999GF100991999999999999999999MA1102175084615REMMET08501/01/25 02:35:02 METAR KEIK 010935Z 00000KT 10SM CLR M08/M09 A3017 RMK AO2 T10821086
0169720534001612025010109557+40017-105050FM-15+1564KEIK V0209999C000052200059N0160935N5-01015-01075999999ADDGA1005+999999999GD10991+9999999GF100991999999999999999999MA1102175084615REMMET08501/01/25 02:55:02 METAR KEIK 010955Z 00000KT 10SM CLR M10/M11 A3017 RMK AO2 T11011107
0169720534001612025010110157+40017-105050FM-15+1564KEIK V0209999C000052200059N0160935N5-00995-01085999999ADDGA1005+999999999GD10991+9999999GF100991999999999999999999MA1102135084585REMMET08501/01/25 03:15:02 METAR KEIK 011015Z 00000KT 10SM CLR M10/M11 A3016 RMK AO2 T10991108
0169720534001612025010110357+40017-105050FM-15+1564KEIK V0209999C000052200059N0160935N5-01085-01145999999ADDGA1005+999999999GD10991+9999999GF100991999999999999999999MA1102135084585REMMET08501/01/25 03:35:02 METAR KEIK 011035Z 00000KT 10SM CLR M11/M11 A3016 RMK AO2 T11081114
0213720534001612025010110557+40017-105050FM-15+1564KEIK V0209999C000052200059N0160935N5-01035-01125999999ADDGA1025+051825999GD11991+0518259GE19AGL   +99999+99999GF102995999999051821999999MA1102105084555REMMET08801/01/25 03:55:02 METAR KEIK 011055Z 00000KT 10SM FEW170 M10/M11 A3015 RMK AO2 T11031112EQDD01      0ADE726
0169720534001612025010111157+40017-105050FM-15+1564KEIK V0201805N002652200059N0160935N5-00945-01125999999ADDGA1005+999999999GD10991+9999999GF100991999999999999999999MA1102035084495REMMET08501/01/25 04:15:02 METAR KEIK 011115Z 18005KT 10SM CLR M09/M11 A3013 RMK AO2 T10941112
0169720534001612025010111357+40017-105050FM-15+1564KEIK V0201405N001552200059N0160935N5-00995-01195999999ADDGA1005+999999999GD10991+9999999GF100991999999999999999999MA1102035084495REMMET08501/01/25 04:35:02 METAR KEIK 011135Z 14003KT 10SM CLR M10/M12 A3013 RMK AO2 T10991119
0169720534001612025010111557+40017-105050FM-15+1564KEIK V0203205N002152200059N0160935N5-00975-01205999999ADDGA1005+999999999GD10991+9999999GF100991999999999999999999MA1102075084525REMMET08501/01/25 04:55:02 METAR KEIK 011155Z 32004KT 10SM CLR M10/M12 A3014 RMK AO2 T10971120
0169720534001612025010112157+40017-105050FM-15+1564KEIK V0209999C000052200059N0160935N5-01045-01135999999ADDGA1005+999999999GD10991+9999999GF100991999999999999999999MA1102075084525REMMET08501/01/25 05:15:02 METAR KEIK 011215Z 00000KT 10SM CLR M10/M11 A3014 RMK AO2 T11041113
0169720534001612025010112357+40017-105050FM-15+1564KEIK V0201005N002152200059N0160935N5-01265-01345999999ADDGA1005+999999999GD10991+9999999GF100991999999999999999999MA1102035084495REMMET08501/01/25 05:35:02 METAR KEIK 011235Z 10004KT 10SM CLR M13/M13 A3013 RMK AO2 T11261134
0169720534001612025010112557+40017-105050FM-15+1564KEIK V0209999C000052200059N0160935N5-01295-01405999999ADDGA1005+999999999GD10991+9999999GF100991999999999999999999MA1102035084495REMMET08501/01/25 05:55:02 METAR KEIK 011255Z 00000KT 10SM CLR M13/M14 A3013 RMK AO2 T11291140
0169720534001612025010113157+40017-105050FM-15+1564KEIK V0209999C000052200059N0160935N5-01325-01435999999ADDGA1005+999999999GD10991+9999999GF100991999999999999999999MA1102035084495REMMET08501/01/25 06:15:02 METAR KEIK 011315Z 00000KT 10SM CLR M13/M14 A3013 RMK AO2 T11321143
0169720534001612025010113357+40017-105050FM-15+1564KEIK V0209999C000052200059N0160935N5-01355-01465999999ADDGA1005+999999999GD10991+9999999GF100991999999999999999999MA1102035084495REMMET08501/01/25 06:35:02 METAR KEIK 011335Z 00000KT 10SM CLR M14/M15 A3013 RMK AO2 T11351146
0169720534001612025010113557+40017-105050FM-15+1564KEIK V0209999C000052200059N0160935N5-01335-01455999999ADDGA1005+999999999GD10991+9999999GF100991999999999999999999MA1102005084465REMMET08501/01/25 06:55:02 METAR KEIK 011355Z 00000KT 10SM CLR M13/M14 A3012 RMK AO2 T11331145
0169720534001612025010114157+40017-105050FM-15+1564KEIK V0209999C000052200059N0160935N5-01345-01455999999ADDGA1005+999999999GD10991+9999999GF100991999999999999999999MA1101965084435REMMET08501/01/25 07:15:02 METAR KEIK 011415Z 00000KT 10SM CLR M13/M15 A3011 RMK AO2 T11341145
0168720534001612025010114357+40017-105050FM-15+1564KEIK V0209999C000052200059N0144845N5-01285-01425999999ADDGA1005+999999999GD10991+9999999GF100991999999999999999999MA1102005084465REMMET08401/01/25 07:35:02 METAR KEIK 011435Z 00000KT 9SM CLR M13/M14 A3012 RMK AO2 T11281142
0169720534001612025010114557+40017-105050FM-15+1564KEIK V0201405N002152200059N0160935N5-01285-01405999999ADDGA1005+999999999GD10991+9999999GF100991999999999999999999MA1101965084435REMMET08501/01/25 07:55:02 METAR KEIK 011455Z 14004KT 10SM CLR M13/M14 A3011 RMK AO2 T11281140
0169720534001612025010115157+40017-105050FM-15+1564KEIK V0209999C000052200059N0160935N5-01015-01185999999ADDGA1005+999999999GD10991+9999999GF100991999999999999999999MA1101965084435REMMET08501/01/25 08:15:02 METAR KEIK 011515Z 00000KT 10SM CLR M10/M12 A3011 RMK AO2 T11011118
0168720534001612025010115357+40017-105050FM-15+1564KEIK V0209999C000052200059N0144845N5-01005-01175999999ADDGA1005+999999999GD10991+9999999GF100991999999999999999999MA1102005084465REMMET08401/01/25 08:35:02 METAR KEIK 011535Z 00000KT 9SM CLR M10/M12 A3012 RMK AO2 T11001117
0169720534001612025010115557+40017-105050FM-15+1564KEIK V0209999C000052200059N0160935N5-00855-01065999999ADDGA1005+999999999GD10991+9999999GF100991999999999999999999MA1102005084465REMMET08501/01/25 08:55:02 METAR KEIK 011555Z 00000KT 10SM CLR M08/M11 A3012 RMK AO2 T10851106
0169720534001612025010116157+40017-105050FM-15+1564KEIK V0209999C000052200059N0160935N5-00615-00885999999ADDGA1005+999999999GD10991+9999999GF100991999999999999999999MA1102005084465REMMET08501/01/25 09:15:02 METAR KEIK 011615Z 00000KT 10SM CLR M06/M09 A3012 RMK AO2 T10611088
0169720534001612025010116357+40017-105050FM-15+1564KEIK V0209999C000052200059N0160935N5-00585-00845999999ADDGA1005+999999999GD10991+9999999GF100991999999999999999999MA1102005084465REMMET08501/01/25 09:35:02 METAR KEIK 011635Z 00000KT 10SM CLR M06/M08 A3012 RMK AO2 T10581084
0169720534001612025010116557+40017-105050FM-15+1564KEIK V0209999C000052200059N0160935N5-00515-00845999999ADDGA1005+999999999GD10991+9999999GF100991999999999999999999MA1101965084435REMMET08501/01/25 09:55:02 METAR KEIK 011655Z 00000KT 10SM CLR M05/M08 A3011 RMK AO2 T10511084
0169720534001612025010117157+40017-105050FM-15+1564KEIK V0209999C000052200059N0160935N5-00535-00905999999ADDGA1005+999999999GD10991+9999999GF100991999999999999999999MA1101965084435REMMET08501/01/25 10:15:02 METAR KEIK 011715Z 00000KT 10SM CLR M05/M09 A3011 RMK AO2 T10531090
0169720534001612025010117357+40017-105050FM-15+1564KEIK V0209999C000052200059N0160935N5-00445-00855999999ADDGA1005+999999999GD10991+9999999GF100991999999999999999999MA1101905084375REMMET08501/01/25 10:35:02 METAR KEIK 011735Z 00000KT 10SM CLR M04/M09 A3009 RMK AO2 T10441085
0169720534001612025010117557+40017-105050FM-15+1564KEIK V0209999V001552200059N0160935N5-00255-00825999999ADDGA1005+999999999GD10991+9999999GF100991999999999999999999MA1101865084345REMMET08501/01/25 10:55:02 METAR KEIK 011755Z VRB03KT 10SM CLR M02/M08 A3008 RMK AO2 T10251082
0169720534001612025010118157+40017-105050FM-15+1564KEIK V0201205N001552200059N0160935N5-00155-00845999999ADDGA1005+999999999GD10991+9999999GF100991999999999999999999MA1101765084265REMMET08501/01/25 11:15:02 METAR KEIK 011815Z 12003KT 10SM CLR M01/M08 A3005 RMK AO2 T10151084
0169720534001612025010118357+40017-105050FM-15+1564KEIK V0209999V001552200059N0160935N5-00045-00825999999ADDGA1005+999999999GD10991+9999999GF100991999999999999999999MA1101735084235REMMET08501/01/25 11:35:02 METAR KEIK 011835Z VRB03KT 10SM CLR M00/M08 A3004 RMK AO2 T10041082
0168720534001612025010118557+40017-105050FM-15+1564KEIK V0201505N003652200059N0160935N5+00105-00935999999ADDGA1005+999999999GD10991+9999999GF100991999999999999999999MA1101635084145REMMET08401/01/25 11:55:02 METAR KEIK 011855Z 15007KT 10SM CLR 01/M09 A3001 RMK AO2 T00101093
0168720534001612025010119157+40017-105050FM-15+1564KEIK V0200905N002652200059N0160935N5+00085-01115999999ADDGA1005+999999999GD10991+9999999GF100991999999999999999999MA1101595084115REMMET08401/01/25 12:15:02 METAR KEIK 011915Z 09005KT 10SM CLR 01/M11 A3000 RMK AO2 T00081111
0168720534001612025010119357+40017-105050FM-15+1564KEIK V0200805N003652200059N0160935N5+00215-00985999999ADDGA1005+999999999GD10991+9999999GF100991999999999999999999MA1101565084085REMMET08401/01/25 12:35:02 METAR KEIK 011935Z 08007KT 10SM CLR 02/M10 A2999 RMK AO2 T00211098
0212720534001612025010119557+40017-105050FM-15+1564KEIK V0200905N004152200059N0160935N5+00185-01075999999ADDGA1025+064015999GD11991+0640159GE19AGL   +99999+99999GF102995999999064011999999MA1101525084055REMMET08701/01/25 12:55:02 METAR KEIK 011955Z 09008KT 10SM FEW210 02/M11 A2998 RMK AO2 T00181107EQDD01      0ADE726
0168720534001612025010120157+40017-105050FM-15+1564KEIK V0201005N004652200059N0160935N5+00245-01065999999ADDGA1005+999999999GD10991+9999999GF100991999999999999999999MA1101525084055REMMET08401/01/25 13:15:02 METAR KEIK 012015Z 10009KT 10SM CLR 02/M11 A2998 RMK AO2 T00241106
0168720534001612025010120357+40017-105050FM-15+1564KEIK V0201005N003652200059N0160935N5+00435-01005999999ADDGA1005+999999999GD10991+9999999GF100991999999999999999999MA1101465084005REMMET08401/01/25 13:35:02 METAR KEIK 012035Z 10007KT 10SM CLR 04/M10 A2996 RMK AO2 T00431100
0212720534001612025010120557+40017-105050FM-15+1564KEIK V0200305N004152200059N0160935N5+00415-00875999999ADDGA1025+060965999GD11991+0609659GE19AGL   +99999+99999GF102995999999060961999999MA1101425083975REMMET08701/01/25 13:55:02 METAR KEIK 012055Z 03008KT 10SM FEW200 04/M09 A2995 RMK AO2 T00411087EQDD01      0ADE726
0168720534001612025010121157+40017-105050FM-15+1564KEIK V0209999V002652200059N0160935N5+00495-00995999999ADDGA1005+999999999GD10991+9999999GF100991999999999999999999MA1101395083945REMMET08401/01/25 14:15:02 METAR KEIK 012115Z VRB05KT 10SM CLR 05/M10 A2994 RMK AO2 T00491099
0179720534001612025010121357+40017-105050FM-15+1564KEIK V0202405N007252200059N0160935N5+00705-01245999999ADDGA1005+999999999GD10991+9999999GF100991999999999999999999MA1101355083915OC100985REMMET08701/01/25 14:35:02 METAR KEIK 012135Z 24014G19KT 10SM CLR 07/M12 A2993 RMK AO2 T00701124
0168720534001612025010121557+40017-105050FM-15+1564KEIK V0202705N005752200059N0160935N5+00725-01245999999ADDGA1005+999999999GD10991+9999999GF100991999999999999999999MA1101355083915REMMET08401/01/25 14:55:02 METAR KEIK 012155Z 27011KT 10SM CLR 07/M12 A2993 RMK AO2 T00721124
0168720534001612025010122157+40017-105050FM-15+1564KEIK V0202705N005152200059N0160935N5+00725-01265999999ADDGA1005+999999999GD10991+9999999GF100991999999999999999999MA1101395083945REMMET08401/01/25 15:15:02 METAR KEIK 012215Z 27010KT 10SM CLR 07/M13 A2994 RMK AO2 T00721126
0168720534001612025010122357+40017-105050FM-15+1564KEIK V0202605N004152200059N0160935N5+00725-01265999999ADDGA1005+999999999GD10991+9999999GF100991999999999999999999MA1101425083975REMMET08401/01/25 15:35:02 METAR KEIK 012235Z 26008KT 10SM CLR 07/M13 A2995 RMK AO2 T00721126
0168720534001612025010122557+40017-105050FM-15+1564KEIK V0209999V002152200059N0160935N5+00635-01325999999ADDGA1005+999999999GD10991+9999999GF100991999999999999999999MA1101465084005REMMET08401/01/25 15:55:02 METAR KEIK 012255Z VRB04KT 10SM CLR 06/M13 A2996 RMK AO2 T00631132
0179720534001612025010123157+40017-105050FM-15+1564KEIK V0202905N007752200059N0160935N5+00575-01265999999ADDGA1005+999999999GD10991+9999999GF100991999999999999999999MA1101465084005OC101245REMMET08701/01/25 16:15:02 METAR KEIK 012315Z 29015G24KT 10SM CLR 06/M13 A2996 RMK AO2 T00571126
0197720534001612025010123357+40017-105050FM-15+1564KEIK V0202805N011852200059N0160935N5+00555-01245999999ADDGA1005+999999999GD10991+9999999GF100991999999999999999999MA1101425083975OC101445REMMET10501/01/25 16:35:02 METAR KEIK 012335Z 28023G28KT 10SM CLR 06/M12 A2995 RMK AO2 PK WND 29034/2320 T00551124
0223720534001612025010123557+40017-105050FM-15+1564KEIK V0202705N007752200059N0160935N5+00545-01235999999ADDGA1025+082305999GD11991+0823059GE19AGL   +99999+99999GF102995999999082301999999MA1101465084005OC101545REMMET09001/01/25 16:55:02 METAR KEIK 012355Z 27015G30KT 10SM FEW270 05/M12 A2996 RMK AO2 T00541123EQDD01      0ADE726
0197720534001612025010200157+40017-105050FM-15+1564KEIK V0202705N008252200059N0160935N5+00545-01255999999ADDGA1005+999999999GD10991+9999999GF100991999999999999999999MA1101465084005OC101445REMMET10501/01/25 17:15:01 METAR KEIK 020015Z 27016G28KT 10SM CLR 05/M12 A2996 RMK AO2 PK WND 26028/0005 T00541125
0255720534001612025010200357+40017-105050FM-15+1564KEIK V0202805N004152200059N0160935N5+00505-01235999999ADDGA1025+060965999GD11991+0609659GE19AGL   +99999+99999GF102995999999060961999999MA1101425083975OC101085OD149901441260REMMET10801/01/25 17:35:01 METAR KEIK 020035Z 28008G21KT 10SM FEW200 05/M12 A2995 RMK AO2 PK WND 26028/0005 T00501123EQDD01      0ADE726
0223720534001612025010200557+40017-105050FM-15+1564KEIK V0202705N007252200059N0160935N5+00505-01195999999ADDGA1045+060965999GD12991+0609659GE19AGL   +99999+99999GF104995999999060961999999MA1101425083975OC101295REMMET09001/01/25 17:55:01 METAR KEIK 020055Z 27014G25KT 10SM SCT200 05/M12 A2995 RMK AO2 T00501119EQDD01      0ADE726
0234720534001612025010201157+40017-105050FM-15+1564KEIK V0202805N006752200059N0160935N5+00505-01165999999ADDGA1025+060965999GD11991+0609659GE19AGL   +99999+99999GF102995999999060961999999MA1101395083945OC101185REMMET10101/01/25 18:15:01 METAR KEIK 020115Z 28013G23KT 10SM FEW200 05/M12 A2994 RMK AO2 WSHFT 0059 T00501116EQDD01      0ADE726
0190720534001612025010201357+40017-105050FM-15+1564KEIK V0203105V005752200059N0160935N5+00385-01195999999ADDGA1005+999999999GD10991+9999999GF100991999999999999999999MA1101395083945OC101085REMMET09801/01/25 18:35:01 METAR KEIK 020135Z 31011G21KT 10SM CLR 04/M12 A2994 RMK AO2 WSHFT 0059 T00381119
0223720534001612025010201557+40017-105050FM-15+1564KEIK V0202705N004652200059N0160935N5+00475-01145999999ADDGA1025+091445999GD11991+0914459GE19AGL   +99999+99999GF102995999999091441999999MA1101395083945OC101085REMMET09001/01/25 18:55:01 METAR KEIK 020155Z 27009G21KT 10SM FEW300 05/M11 A2994 RMK AO2 T00471114EQDD01      0ADE726
0234720534001612025010202157+40017-105050FM-15+1564KEIK V0203305N004152200059N0160935N5+00375-01125999999ADDGA1025+091445999GD11991+0914459GE19AGL   +99999+99999GF102995999999091441999999MA1101425083975OC101085REMMET10101/01/25 19:15:01 METAR KEIK 020215Z 33008G21KT 10SM FEW300 04/M11 A2995 RMK AO2 WSHFT 0210 T00371112EQDD01      0ADE726
0205720534001612025010202357+40017-105050FM-15+1564KEIK V0203605N00315045725MN0160935N5-00225-00925999999ADDGA1075+045725999GD13991+0457259GE19AGL   +99999+99999GF199999999999045721999999MA1101495084035REMMET09901/01/25 19:35:01 METAR KEIK 020235Z 36006KT 10SM BKN150 M02/M09 A2997 RMK AO2 WSHFT 0210 T10221092
0194720534001612025010202557+40017-105050FM-15+1564KEIK V0203305N00265042675MN0160935N5-00275-00895999999ADDGA1085+042675999GD14991+0426759GE19AGL   +99999+99999GF199999999999042671999999MA1101525084055REMMET08801/01/25 19:55:01 METAR KEIK 020255Z 33005KT 10SM OVC140 M03/M09 A2998 RMK AO2 T10271089
0213720534001612025010203157+40017-105050FM-15+1564KEIK V0200605N001552200059N0160935N5-00325-00885999999ADDGA1045+045725999GD12991+0457259GE19AGL   +99999+99999GF104995999999045721999999MA1101565084085REMMET08801/01/25 20:15:02 METAR KEIK 020315Z 06003KT 10SM SCT150 M03/M09 A2999 RMK AO2 T10321088EQDD01      0ADE726
0169720534001612025010203357+40017-105050FM-15+1564KEIK V0203405N002152200059N0160935N5-00345-00885999999ADDGA1005+999999999GD10991+9999999GF100991999999999999999999MA1101565084085REMMET08501/01/25 20:35:02 METAR KEIK 020335Z 34004KT 10SM CLR M03/M09 A2999 RMK AO2 T10341088
0169720534001612025010203557+40017-105050FM-15+1564KEIK V0209999C000052200059N0160935N5-00345-00885999999ADDGA1005+999999999GD10991+9999999GF100991999999999999999999MA1101525084055REMMET08501/01/25 20:55:02 METAR KEIK 020355Z 00000KT 10SM CLR M03/M09 A2998 RMK AO2 T10341088
0169720534001612025010204157+40017-105050FM-15+1564KEIK V0200105N001552200059N0160935N5-00445-00925999999ADDGA1005+999999999GD10991+9999999GF100991999999999999999999MA1101525084055REMMET08501/01/25 21:15:02 METAR KEIK 020415Z 01003KT 10SM CLR M04/M09 A2998 RMK AO2 T10441092
0169720534001612025010204357+40017-105050FM-15+1564KEIK V0203405N003152200059N0160935N5-00085-00865999999ADDGA1005+999999999GD10991+9999999GF100991999999999999999999MA1101525084055REMMET08501/01/25 21:35:02 METAR KEIK 020435Z 34006KT 10SM CLR M01/M09 A2998 RMK AO2 T10081086
0169720534001612025010204557+40017-105050FM-15+1564KEIK V0209999C000052200059N0160935N5-00255-00905999999ADDGA1005+999999999GD10991+9999999GF100991999999999999999999MA1101525084055REMMET08501/01/25 21:55:02 METAR KEIK 020455Z 00000KT 10SM CLR M03/M09 A2998 RMK AO2 T10251090
0169720534001612025010205157+40017-105050FM-15+1564KEIK V0209999C000052200059N0160935N5-00375-00875999999ADDGA1005+999999999GD10991+9999999GF100991999999999999999999MA1101565084085REMMET08501/01/25 22:15:02 METAR KEIK 020515Z 00000KT 10SM CLR M04/M09 A2999 RMK AO2 T10371087
0169720534001612025010205357+40017-105050FM-15+1564KEIK V0201705N002152200059N0160935N5-00255-00835999999ADDGA1005+999999999GD10991+9999999GF100991999999999999999999MA1101595084115REMMET08501/01/25 22:35:02 METAR KEIK 020535Z 17004KT 10SM CLR M02/M08 A3000 RMK AO2 T10251083
0169720534001612025010205557+40017-105050FM-15+1564KEIK V0209999C000052200059N0160935N5-00215-00845999999ADDGA1005+999999999GD10991+9999999GF100991999999999999999999MA1101595084115REMMET08501/01/25 22:55:02 METAR KEIK 020555Z 00000KT 10SM CLR M02/M08 A3000 RMK AO2 T10211084
0169720534001612025010206157+40017-105050FM-15+1564KEIK V0209999C000052200059N0160935N5-00345-00855999999ADDGA1005+999999999GD10991+9999999GF100991999999999999999999MA1101635084145REMMET08501/01/25 23:15:02 METAR KEIK 020615Z 00000KT 10SM CLR M03/M09 A3001 RMK AO2 T10341085
0169720534001612025010206357+40017-105050FM-15+1564KEIK V0209999C000052200059N0160935N5-00335-00905999999ADDGA1005+999999999GD10991+9999999GF100991999999999999999999MA1101635084145REMMET08501/01/25 23:35:02 METAR KEIK 020635Z 00000KT 10SM CLR M03/M09 A3001 RMK AO2 T10331090
0169720534001612025010206557+40017-105050FM-15+1564KEIK V0209999C000052200059N0160935N5-00435-00945999999ADDGA1005+999999999GD10991+9999999GF100991999999999999999999MA1101595084115REMMET08501/01/25 23:55:02 METAR KEIK 020655Z 00000KT 10SM CLR M04/M09 A3000 RMK AO2 T10431094
0169720534001612025010207157+40017-105050FM-15+1564KEIK V0209999V001552200059N0160935N5-00305-00915999999ADDGA1005+999999999GD10991+9999999GF100991999999999999999999MA1101595084115REMMET08501/02/25 00:15:02 METAR KEIK 020715Z VRB03KT 10SM CLR M03/M09 A3000 RMK AO2 T10301091
0169720534001612025010207357+40017-105050FM-15+1564KEIK V0209999C000052200059N0160935N5-00485-00955999999ADDGA1005+999999999GD10991+9999999GF100991999999999999999999MA1101595084115REMMET08501/02/25 00:35:02 METAR KEIK 020735Z 00000KT 10SM CLR M05/M10 A3000 RMK AO2 T10481095
0169720534001612025010207557+40017-105050FM-15+1564KEIK V0209999C000052200059N0160935N5-00525-00915999999ADDGA1005+999999999GD10991+9999999GF100991999999999999999999MA1101595084115REMMET08501/02/25 00:55:02 METAR KEIK 020755Z 00000KT 10SM CLR M05/M09 A3000 RMK AO2 T10521091
0169720534001612025010208157+40017-105050FM-15+1564KEIK V0209999C000052200059N0160935N5-00565-00925999999ADDGA1005+999999999GD10991+9999999GF100991999999999999999999MA1101635084145REMMET08501/02/25 01:15:02 METAR KEIK 020815Z 00000KT 10SM CLR M06/M09 A3001 RMK AO2 T10561092
0169720534001612025010208357+40017-105050FM-15+1564KEIK V0209999C000052200059N0160935N5-00595-00915999999ADDGA1005+999999999GD10991+9999999GF100991999999999999999999MA1101695084205REMMET08501/02/25 01:35:02 METAR KEIK 020835Z 00000KT 10SM CLR M06/M09 A3003 RMK AO2 T10591091
0169720534001612025010208557+40017-105050FM-15+1564KEIK V0209999C000052200059N0160935N5-00575-00925999999ADDGA1005+999999999GD10991+9999999GF100991999999999999999999MA1101735084235REMMET08501/02/25 01:55:02 METAR KEIK 020855Z 00000KT 10SM CLR M06/M09 A3004 RMK AO2 T10571092
0169720534001612025010209157+40017-105050FM-15+1564KEIK V0209999C000052200059N0160935N5-00765-00995999999ADDGA1005+999999999GD10991+9999999GF100991999999999999999999MA1101765084265REMMET08501/02/25 02:15:02 METAR KEIK 020915Z 00000KT 10SM CLR M08/M10 A3005 RMK AO2 T10761099
0169720534001612025010209357+40017-105050FM-15+1564KEIK V0209999C000052200059N0160935N5-00715-00955999999ADDGA1005+999999999GD10991+9999999GF100991999999999999999999MA1101795084295REMMET08501/02/25 02:35:02 METAR KEIK 020935Z 00000KT 10SM CLR M07/M09 A3006 RMK AO2 T10711095
0169720534001612025010209557+40017-105050FM-15+1564KEIK V0209999C000052200059N0160935N5-00785-00985999999ADDGA1005+999999999GD10991+9999999GF100991999999999999999999MA1101795084295REMMET08501/02/25 02:55:02 METAR KEIK 020955Z 00000KT 10SM CLR M08/M10 A3006 RMK AO2 T10781098
0168720534001612025010210157+40017-105050FM-15+1564KEIK V0209999C000052200059N0144845N5-00815-00965999999ADDGA1005+999999999GD10991+9999999GF100991999999999999999999MA1101795084295REMMET08401/02/25 03:15:02 METAR KEIK 021015Z 00000KT 9SM CLR M08/M10 A3006 RMK AO2 T10811096
0168720534001612025010210357+40017-105050FM-15+1564KEIK V0201805N002152200059N0144845N5-00755-00935999999ADDGA1005+999999999GD10991+9999999GF100991999999999999999999MA1101795084295REMMET08401/02/25 03:35:02 METAR KEIK 021035Z 18004KT 9SM CLR M08/M09 A3006 RMK AO2 T10751093
0169720534001612025010210557+40017-105050FM-15+1564KEIK V0201705N003152200059N0160935N5-00575-00875999999ADDGA1005+999999999GD10991+9999999GF100991999999999999999999MA1101735084235REMMET08501/02/25 03:55:02 METAR KEIK 021055Z 17006KT 10SM CLR M06/M09 A3004 RMK AO2 T10571087
0213720534001612025010211157+40017-105050FM-15+1564KEIK V0209999C000052200059N0160935N5-00625-00905999999ADDGA1025+054865999GD11991+0548659GE19AGL   +99999+99999GF102995999999054861999999MA1101735084235REMMET08801/02/25 04:15:02 METAR KEIK 021115Z 00000KT 10SM FEW180 M06/M09 A3004 RMK AO2 T10621090EQDD01      0ADE726
0213720534001612025010211357+40017-105050FM-15+1564KEIK V0201005N001552200059N0160935N5-00615-00885999999ADDGA1025+054865999GD11991+0548659GE19AGL   +99999+99999GF102995999999054861999999MA1101765084265REMMET08801/02/25 04:35:02 METAR KEIK 021135Z 10003KT 10SM FEW180 M06/M09 A3005 RMK AO2 T10611088EQDD01      0ADE726
0250720534001612025010211557+40017-105050FM-15+1564KEIK V0209999C000052200059N0144845N5-00665-00895999999ADDGA1025+042675999GA2045+051825999GD11991+0426759GD22991+0518259GE19AGL   +99999+99999GF104995999999042671999999MA1101765084265REMMET09401/02/25 04:55:02 METAR KEIK 021155Z 00000KT 9SM FEW140 SCT170 M07/M09 A3005 RMK AO2 T10661089EQDD01      0ADE726
0212720534001612025010212157+40017-105050FM-15+1564KEIK V0200305N001552200059N0144845N5-00625-00885999999ADDGA1025+051825999GD11991+0518259GE19AGL   +99999+99999GF102995999999051821999999MA1101795084295REMMET08701/02/25 05:15:02 METAR KEIK 021215Z 03003KT 9SM FEW170 M06/M09 A3006 RMK AO2 T10621088EQDD01      0ADE726
0169720534001612025010212357+40017-105050FM-15+1564KEIK V0202305N001552200059N0160935N5-00685-00865999999ADDGA1005+999999999GD10991+9999999GF100991999999999999999999MA1101835084325REMMET08501/02/25 05:35:02 METAR KEIK 021235Z 23003KT 10SM CLR M07/M09 A3007 RMK AO2 T10681086
0168720534001612025010212557+40017-105050FM-15+1564KEIK V0209999C000052200059N0144845N5-00665-00865999999ADDGA1005+999999999GD10991+9999999GF100991999999999999999999MA1101835084325REMMET08401/02/25 05:55:02 METAR KEIK 021255Z 00000KT 9SM CLR M07/M09 A3007 RMK AO2 T10661086
0168720534001612025010213157+40017-105050FM-15+1564KEIK V0202005N002152200059N0144845N5-00645-00855999999ADDGA1005+999999999GD10991+9999999GF100991999999999999999999MA1101835084325REMMET08401/02/25 06:15:02 METAR KEIK 021315Z 20004KT 9SM CLR M06/M08 A3007 RMK AO2 T10641085
0168720534001612025010213357+40017-105050FM-15+1564KEIK V0202205N002652200059N0144845N5-00645-00845999999ADDGA1005+999999999GD10991+9999999GF100991999999999999999999MA1101865084345REMMET08401/02/25 06:35:02 METAR KEIK 021335Z 22005KT 9SM CLR M06/M08 A3008 RMK AO2 T10641084
0169720534001612025010213557+40017-105050FM-15+1564KEIK V0209999C000052200059N0160935N5-00585-00855999999ADDGA1005+999999999GD10991+9999999GF100991999999999999999999MA1101905084375REMMET08501/02/25 06:55:02 METAR KEIK 021355Z 00000KT 10SM CLR M06/M08 A3009 RMK AO2 T10581085
0168720534001612025010214157+40017-105050FM-15+1564KEIK V0209999C000052200059N0144845N5-00645-00875999999ADDGA1005+999999999GD10991+9999999GF100991999999999999999999MA1101865084345REMMET08401/02/25 07:15:02 METAR KEIK 021415Z 00000KT 9SM CLR M06/M09 A3008 RMK AO2 T10641087
0168720534001612025010214357+40017-105050FM-15+1564KEIK V0200805N001552200059N0128755N5-00635-00845999999ADDGA1005+999999999GD10991+9999999GF100991999999999999999999MA1101865084345REMMET08401/02/25 07:35:02 METAR KEIK 021435Z 08003KT 8SM CLR M06/M08 A3008 RMK AO2 T10631084
0212720534001612025010214557+40017-105050FM-15+1564KEIK V0209999C000052200059N0128755N5-00665-00855999999ADDGA1025+051825999GD11991+0518259GE19AGL   +99999+99999GF102995999999051821999999MA1101865084345REMMET08701/02/25 07:55:02 METAR KEIK 021455Z 00000KT 8SM FEW170 M07/M09 A3008 RMK AO2 T10661085EQDD01      0ADE726
0168720534001612025010215157+40017-105050FM-15+1564KEIK V0209999C000052200059N0128755N5-00695-00875999999ADDGA1005+999999999GD10991+9999999GF100991999999999999999999MA1101905084375REMMET08401/02/25 08:15:02 METAR KEIK 021515Z 00000KT 8SM CLR M07/M09 A3009 RMK AO2 T10691087
0169720534001612025010215357+40017-105050FM-15+1564KEIK V0209999C000052200059N0160935N5-00415-00755999999ADDGA1005+999999999GD10991+9999999GF100991999999999999999999MA1101965084435REMMET08501/02/25 08:35:02 METAR KEIK 021535Z 00000KT 10SM CLR M04/M07 A3011 RMK AO2 T10411075
0169720534001612025010215557+40017-105050FM-15+1564KEIK V0202705N002152200059N0160935N5-00255-00695999999ADDGA1005+999999999GD10991+9999999GF100991999999999999999999MA1102005084465REMMET08501/02/25 08:55:02 METAR KEIK 021555Z 27004KT 10SM CLR M02/M07 A3012 RMK AO2 T10251069
0169720534001612025010216157+40017-105050FM-15+1564KEIK V0202705N002152200059N0160935N5-00195-00645999999ADDGA1005+999999999GD10991+9999999GF100991999999999999999999MA1102005084465REMMET08501/02/25 09:15:02 METAR KEIK 021615Z 27004KT 10SM CLR M02/M06 A3012 RMK AO2 T10191064
0169720534001612025010216357+40017-105050FM-15+1564KEIK V0203105N002152200059N0160935N5-00115-00605999999ADDGA1005+999999999GD10991+9999999GF100991999999999999999999MA1102035084495REMMET08501/02/25 09:35:02 METAR KEIK 021635Z 31004KT 10SM CLR M01/M06 A3013 RMK AO2 T10111060
0169720534001612025010216557+40017-105050FM-15+1564KEIK V0209999C000052200059N0160935N5-00055-00625999999ADDGA1005+999999999GD10991+9999999GF100991999999999999999999MA1102035084495REMMET08501/02/25 09:55:02 METAR KEIK 021655Z 00000KT 10SM CLR M00/M06 A3013 RMK AO2 T10051062
0168720534001612025010217157+40017-105050FM-15+1564KEIK V0203305N002152200059N0160935N5+00065-00625999999ADDGA1005+999999999GD10991+9999999GF100991999999999999999999MA1102005084465REMMET08401/02/25 10:15:02 METAR KEIK 021715Z 33004KT 10SM CLR 01/M06 A3012 RMK AO2 T00061062
0168720534001612025010217357+40017-105050FM-15+1564KEIK V0209999C000052200059N0160935N5+00085-00635999999ADDGA1005+999999999GD10991+9999999GF100991999999999999999999MA1102005084465REMMET08401/02/25 10:35:02 METAR KEIK 021735Z 00000KT 10SM CLR 01/M06 A3012 RMK AO2 T00081063
0168720534001612025010217557+40017-105050FM-15+1564KEIK V0209999C000052200059N0160935N5+00235-00615999999ADDGA1005+999999999GD10991+9999999GF100991999999999999999999MA1101965084435REMMET08401/02/25 10:55:02 METAR KEIK 021755Z 00000KT 10SM CLR 02/M06 A3011 RMK AO2 T00231061
0212720534001612025010218157+40017-105050FM-15+1564KEIK V0209999V001552200059N0160935N5+00275-00615999999ADDGA1025+025915999GD11991+0259159GE19AGL   +99999+99999GF102995999999025911999999MA1101965084435REMMET08701/02/25 11:15:02 METAR KEIK 021815Z VRB03KT 10SM FEW085 03/M06 A3011 RMK AO2 T00271061EQDD01      0ADE726
0212720534001612025010218357+40017-105050FM-15+1564KEIK V0209999C000052200059N0160935N5+00425-00615999999ADDGA1025+027435999GD11991+0274359GE19AGL   +99999+99999GF102995999999027431999999MA1101905084375REMMET08701/02/25 11:35:02 METAR KEIK 021835Z 00000KT 10SM FEW090 04/M06 A3009 RMK AO2 T00421061EQDD01      0ADE726
0212720534001612025010218557+40017-105050FM-15+1564KEIK V0209999V002152200059N0160935N5+00505-00615999999ADDGA1025+027435999GD11991+0274359GE19AGL   +99999+99999GF102995999999027431999999MA1101935084405REMMET08701/02/25 11:55:02 METAR KEIK 021855Z VRB04KT 10SM FEW090 05/M06 A3010 RMK AO2 T00501061EQDD01      0ADE726
0212720534001612025010219157+40017-105050FM-15+1564KEIK V0200105N003152200059N0160935N5+00585-00605999999ADDGA1025+027435999GD11991+0274359GE19AGL   +99999+99999GF102995999999027431999999MA1101905084375REMMET08701/02/25 12:15:02 METAR KEIK 021915Z 01006KT 10SM FEW090 06/M06 A3009 RMK AO2 T00581060EQDD01      0ADE726
0212720534001612025010219357+40017-105050FM-15+1564KEIK V0200505V003652200059N0160935N5+00625-00635999999ADDGA1025+027435999GD11991+0274359GE19AGL   +99999+99999GF102995999999027431999999MA1101905084375REMMET08701/02/25 12:35:02 METAR KEIK 021935Z 05007KT 10SM FEW090 06/M06 A3009 RMK AO2 T00621063EQDD01      0ADE726
0212720534001612025010219557+40017-105050FM-15+1564KEIK V0209999V002152200059N0160935N5+00655-00625999999ADDGA1045+027435999GD12991+0274359GE19AGL   +99999+99999GF104995999999027431999999MA1101905084375REMMET08701/02/25 12:55:02 METAR KEIK 021955Z VRB04KT 10SM SCT090 07/M06 A3009 RMK AO2 T00651062EQDD01      0ADE726
0193720534001612025010220157+40017-105050FM-15+1564KEIK V0200505N00215025915MN0160935N5+00635-00665999999ADDGA1075+025915999GD13991+0259159GE19AGL   +99999+99999GF199999999999025911999999MA1101935084405REMMET08701/02/25 13:15:02 METAR KEIK 022015Z 05004KT 10SM BKN085 06/M07 A3010 RMK AO2 T00631066
0212720534001612025010220357+40017-105050FM-15+1564KEIK V0209999V002652200059N0160935N5+00785-00685999999ADDGA1025+025915999GD11991+0259159GE19AGL   +99999+99999GF102995999999025911999999MA1101905084375REMMET08701/02/25 13:35:02 METAR KEIK 022035Z VRB05KT 10SM FEW085 08/M07 A3009 RMK AO2 T00781068EQDD01      0ADE726
0179720534001612025010220557+40017-105050FM-15+1564KEIK V0203105N007252200059N0160935N5+00965-00745999999ADDGA1005+999999999GD10991+9999999GF100991999999999999999999MA1101905084375OC100985REMMET08701/02/25 13:55:02 METAR KEIK 022055Z 31014G19KT 10SM CLR 10/M07 A3009 RMK AO2 T00961074
0168720534001612025010221157+40017-105050FM-15+1564KEIK V0203205V003652200059N0160935N5+00985-00735999999ADDGA1005+999999999GD10991+9999999GF100991999999999999999999MA1101935084405REMMET08401/02/25 14:15:02 METAR KEIK 022115Z 32007KT 10SM CLR 10/M07 A3010 RMK AO2 T00981073
0168720534001612025010221357+40017-105050FM-15+1564KEIK V0209999V003152200059N0160935N5+00965-00735999999ADDGA1005+999999999GD10991+9999999GF100991999999999999999999MA1101965084435REMMET08401/02/25 14:35:02 METAR KEIK 022135Z VRB06KT 10SM CLR 10/M07 A3011 RMK AO2 T00961073
0168720534001612025010221557+40017-105050FM-15+1564KEIK V0200505N004652200059N0160935N5+00955-00745999999ADDGA1005+999999999GD10991+9999999GF100991999999999999999999MA1102005084465REMMET08401/02/25 14:55:02 METAR KEIK 022155Z 05009KT 10SM CLR 10/M07 A3012 RMK AO2 T00951074
0168720534001612025010222157+40017-105050FM-15+1564KEIK V0200605N004152200059N0160935N5+00925-00725999999ADDGA1005+999999999GD10991+9999999GF100991999999999999999999MA1102035084495REMMET08401/02/25 15:15:02 METAR KEIK 022215Z 06008KT 10SM CLR 09/M07 A3013 RMK AO2 T00921072
0168720534001612025010222357+40017-105050FM-15+1564KEIK V0200805N004152200059N0160935N5+00915-00705999999ADDGA1005+999999999GD10991+9999999GF100991999999999999999999MA1102035084495REMMET08401/02/25 15:35:02 METAR KEIK 022235Z 08008KT 10SM CLR 09/M07 A3013 RMK AO2 T00911070
0168720534001612025010222557+40017-105050FM-15+1564KEIK V0200805N004152200059N0160935N5+00795-00685999999ADDGA1005+999999999GD10991+9999999GF100991999999999999999999MA1102075084525REMMET08401/02/25 15:55:02 METAR KEIK 022255Z 08008KT 10SM CLR 08/M07 A3014 RMK AO2 T00791068
0168720534001612025010223157+40017-105050FM-15+1564KEIK V0200905N002652200059N0160935N5+00695-00685999999ADDGA1005+999999999GD10991+9999999GF100991999999999999999999MA1102075084525REMMET08401/02/25 16:15:02 METAR KEIK 022315Z 09005KT 10SM CLR 07/M07 A3014 RMK AO2 T00691068
0168720534001612025010223357+40017-105050FM-15+1564KEIK V0201005N002152200059N0160935N5+00525-00685999999ADDGA1005+999999999GD10991+9999999GF100991999999999999999999MA1102105084555REMMET08401/02/25 16:35:02 METAR KEIK 022335Z 10004KT 10SM CLR 05/M07 A3015 RMK AO2 T00521068
0168720534001612025010223557+40017-105050FM-15+1564KEIK V0200805N002652200059N0160935N5+00515-00685999999ADDGA1005+999999999GD10991+9999999GF100991999999999999999999MA1102135084585REMMET08401/02/25 16:55:02 METAR KEIK 022355Z 08005KT 10SM CLR 05/M07 A3016 RMK AO2 T00511068
0168720534001612025010300157+40017-105050FM-15+1564KEIK V0201705N002152200059N0160935N5+00215-00715999999ADDGA1005+999999999GD10991+9999999GF100991999999999999999999MA1102205084645REMMET08401/02/25 17:15:01 METAR KEIK 030015Z 17004KT 10SM CLR 02/M07 A3018 RMK AO2 T00211071
0168720534001612025010300357+40017-105050FM-15+1564KEIK V0201405N003152200059N0160935N5+00405-00645999999ADDGA1005+999999999GD10991+9999999GF100991999999999999999999MA1102205084645REMMET08401/02/25 17:35:01 METAR KEIK 030035Z 14006KT 10SM CLR 04/M06 A3018 RMK AO2 T00401064
0168720534001612025010300557+40017-105050FM-15+1564KEIK V0201205N004652200059N0160935N5+00555-00645999999ADDGA1005+999999999GD10991+9999999GF100991999999999999999999MA1102205084645REMMET08401/02/25 17:55:01 METAR KEIK 030055Z 12009KT 10SM CLR 05/M06 A3018 RMK AO2 T00551064
0168720534001612025010301157+40017-105050FM-15+1564KEIK V0201105N004152200059N0160935N5+00305-00655999999ADDGA1005+999999999GD10991+9999999GF100991999999999999999999MA1102245084665REMMET08401/02/25 18:15:01 METAR KEIK 030115Z 11008KT 10SM CLR 03/M06 A3019 RMK AO2 T00301065
0168720534001612025010301357+40017-105050FM-15+1564KEIK V0201105N003652200059N0160935N5+00255-00635999999ADDGA1005+999999999GD10991+9999999GF100991999999999999999999MA1102275084695REMMET08401/02/25 18:35:01 METAR KEIK 030135Z 11007KT 10SM CLR 02/M06 A3020 RMK AO2 T00251063
0168720534001612025010301557+40017-105050FM-15+1564KEIK V0209999V002152200059N0160935N5+00145-00655999999ADDGA1005+999999999GD10991+9999999GF100991999999999999999999MA1102305084725REMMET08401/02/25 18:55:01 METAR KEIK 030155Z VRB04KT 10SM CLR 01/M06 A3021 RMK AO2 T00141065
0168720534001612025010302157+40017-105050FM-15+1564KEIK V0209999C000052200059N0160935N5+00225-00645999999ADDGA1005+999999999GD10991+9999999GF100991999999999999999999MA1102375084785REMMET08401/02/25 19:15:01 METAR KEIK 030215Z 00000KT 10SM CLR 02/M06 A3023 RMK AO2 T00221064
0168720534001612025010302357+40017-105050FM-15+1564KEIK V0200205N002652200059N0160935N5+00115-00655999999ADDGA1005+999999999GD10991+9999999GF100991999999999999999999MA1102445084845REMMET08401/02/25 19:35:01 METAR KEIK 030235Z 02005KT 10SM CLR 01/M06 A3025 RMK AO2 T00111065
0168720534001612025010302557+40017-105050FM-15+1564KEIK V0200505N002652200059N0160935N5+00015-00635999999ADDGA1005+999999999GD10991+9999999GF100991999999999999999999MA1102405084815REMMET08401/02/25 19:55:01 METAR KEIK 030255Z 05005KT 10SM CLR 00/M06 A3024 RMK AO2 T00011063
0169720534001612025010303157+40017-105050FM-15+1564KEIK V0200105N003152200059N0160935N5-00125-00565999999ADDGA1005+999999999GD10991+9999999GF100991999999999999999999MA1102445084845REMMET08501/02/25 20:15:02 METAR KEIK 030315Z 01006KT 10SM CLR M01/M06 A3025 RMK AO2 T10121056
0169720534001612025010303357+40017-105050FM-15+1564KEIK V0203605N002152200059N0160935N5-00205-00475999999ADDGA1005+999999999GD10991+9999999GF100991999999999999999999MA1102445084845REMMET08501/02/25 20:35:02 METAR KEIK 030335Z 36004KT 10SM CLR M02/M05 A3025 RMK AO2 T10201047
0169720534001612025010303557+40017-105050FM-15+1564KEIK V0203605N002152200059N0160935N5-00275-00425999999ADDGA1005+999999999GD10991+9999999GF100991999999999999999999MA1102475084875REMMET08501/02/25 20:55:02 METAR KEIK 030355Z 36004KT 10SM CLR M03/M04 A3026 RMK AO2 T10271042
0168720534001612025010304157+40017-105050FM-15+1564KEIK V0203305N001552200059N0144845N5-00395-00455999999ADDGA1005+999999999GD10991+9999999GF100991999999999999999999MA1102515084905REMMET08401/02/25 21:15:02 METAR KEIK 030415Z 33003KT 9SM CLR M04/M04 A3027 RMK AO2 T10391045
0205720534001612025010304357+40017-105050FM-15+1564KEIK V0203505N00155001525MN0144845N5-00355-00375999999ADDGA1075+001525999GD13991+0015251GE19AGL   +99999+99999GF199999999999001521999999MA1102515084905REMMET09901/02/25 21:35:02 METAR KEIK 030435Z 35003KT 9SM BKN005 M03/M04 A3027 RMK AO2 CIG 004V006 T10351037
0193720534001612025010304557+40017-105050FM-15+1564KEIK V0209999C00005001525MN0144845N5-00465-00485999999ADDGA1085+001525999GD14991+0015259GE19AGL   +99999+99999GF199999999999001521999999MA1102515084905REMMET08701/02/25 21:55:02 METAR KEIK 030455Z 00000KT 9SM OVC005 M05/M05 A3027 RMK AO2 T10461048
0205720534001612025010305157+40017-105050FM-15+1564KEIK V0209999C00005000915MN0128755N5-00345-00355999999ADDGA1085+000915999GD14991+0009151GE19AGL   +99999+99999GF199999999999000911999999MA1102515084905REMMET09901/02/25 22:15:02 METAR KEIK 030515Z 00000KT 8SM OVC003 M03/M03 A3027 RMK AO2 CIG 002V006 T10341035
0205720534001612025010305357+40017-105050FM-15+1564KEIK V0203405N00155000915MN0112655N5-00305-00305999999ADDGA1085+000915999GD14991+0009151GE19AGL   +99999+99999GF199999999999000911999999MA1102515084905REMMET09901/02/25 22:35:02 METAR KEIK 030535Z 34003KT 7SM OVC003 M03/M03 A3027 RMK AO2 CIG 002V004 T10301030
0213720534001612025010305557+40017-105050FM-15+1564KEIK V0203205N00265000915MN0096565N5-00285-00285999999ADDAU100001015AW1105GA1085+000915999GD14991+0009159GE19AGL   +99999+99999GF199999999999000911999999MA1102545084935REMMET09001/02/25 22:55:02 METAR KEIK 030555Z 32005KT 6SM BR OVC003 M03/M03 A3028 RMK AO2 T10281028
0213720534001612025010306157+40017-105050FM-15+1564KEIK V0209999V00215000915MN0096565N5-00295-00295999999ADDAU100001015AW1105GA1085+000915999GD14991+0009159GE19AGL   +99999+99999GF199999999999000911999999MA1102515084905REMMET09001/02/25 23:15:02 METAR KEIK 030615Z VRB04KT 6SM BR OVC003 M03/M03 A3027 RMK AO2 T10291029
0213720534001612025010306357+40017-105050FM-15+1564KEIK V0200105N00265000615MN0080475N5-00295-00295999999ADDAU100001015AW1105GA1085+000615999GD14991+0006159GE19AGL   +99999+99999GF199999999999000611999999MA1102475084875REMMET09001/02/25 23:35:02 METAR KEIK 030635Z 01005KT 5SM BR OVC002 M03/M03 A3026 RMK AO2 T10291029
0213720534001612025010306557+40017-105050FM-15+1564KEIK V0200205N00215000615MN0064375N5-00305-00305999999ADDAU100001015AW1105GA1085+000615999GD14991+0006159GE19AGL   +99999+99999GF199999999999000611999999MA1102445084845REMMET09001/02/25 23:55:02 METAR KEIK 030655Z 02004KT 4SM BR OVC002 M03/M03 A3025 RMK AO2 T10301030
001572053400161202501030659O+40017-105050SOD  +1564KEIK V020999999999999999999999999999+99999+99999999999ADDAT1AU13BR  5
0213720534001612025010307157+40017-105050FM-15+1564KEIK V0209999C00005000615MN0064375N5-00325-00325999999ADDAU100001015AW1105GA1085+000615999GD14991+0006159GE19AGL   +99999+99999GF199999999999000611999999MA1102405084815REMMET09001/03/25 00:15:02 METAR KEIK 030715Z 00000KT 4SM BR OVC002 M03/M03 A3024 RMK AO2 T10321032
0213720534001612025010307357+40017-105050FM-15+1564KEIK V0200405N00155000615MN0096565N5-00325-00325999999ADDAU100001015AW1105GA1085+000615999GD14991+0006159GE19AGL   +99999+99999GF199999999999000611999999MA1102405084815REMMET09001/03/25 00:35:02 METAR KEIK 030735Z 04003KT 6SM BR OVC002 M03/M03 A3024 RMK AO2 T10321032
0213720534001612025010307557+40017-105050FM-15+1564KEIK V0209999C00005000615MN0080475N5-00345-00345999999ADDAU100001015AW1105GA1085+000615999GD14991+0006159GE19AGL   +99999+99999GF199999999999000611999999MA1102345084755REMMET09001/03/25 00:55:02 METAR KEIK 030755Z 00000KT 5SM BR OVC002 M03/M03 A3022 RMK AO2 T10341034
0213720534001612025010308157+40017-105050FM-15+1564KEIK V0209999C00005000615MN0064375N5-00335-00335999999ADDAU100001015AW1105GA1085+000615999GD14991+0006159GE19AGL   +99999+99999GF199999999999000611999999MA1102345084755REMMET09001/03/25 01:15:02 METAR KEIK 030815Z 00000KT 4SM BR OVC002 M03/M03 A3022 RMK AO2 T10331033
0213720534001612025010308357+40017-105050FM-15+1564KEIK V0203205N00215000615MN0064375N5-00345-00345999999ADDAU100001015AW1105GA1085+000615999GD14991+0006159GE19AGL   +99999+99999GF199999999999000611999999MA1102305084725REMMET09001/03/25 01:35:02 METAR KEIK 030835Z 32004KT 4SM BR OVC002 M03/M03 A3021 RMK AO2 T10341034
0213720534001612025010308557+40017-105050FM-15+1564KEIK V0209999C00005000615MN0080475N5-00355-00355999999ADDAU100001015AW1105GA1085+000615999GD14991+0006159GE19AGL   +99999+99999GF199999999999000611999999MA1102305084725REMMET09001/03/25 01:55:02 METAR KEIK 030855Z 00000KT 5SM BR OVC002 M04/M04 A3021 RMK AO2 T10351035
0217720534001612025010309157+40017-105050FM-15+1564KEIK V0209999C00005000615MN0040235N5-00365-00365999999ADDAU100001015AW1105GA1085+000615999GD14991+0006159GE19AGL   +99999+99999GF199999999999000611999999MA1102305084725REMMET09401/03/25 02:15:02 METAR KEIK 030915Z 00000KT 2 1/2SM BR OVC002 M04/M04 A3021 RMK AO2 T10361036
0213720534001612025010309357+40017-105050FM-15+1564KEIK V0202105N00155000615MN0064375N5-00345-00345999999ADDAU100001015AW1105GA1085+000615999GD14991+0006159GE19AGL   +99999+99999GF199999999999000611999999MA1102275084695REMMET09001/03/25 02:35:02 METAR KEIK 030935Z 21003KT 4SM BR OVC002 M03/M03 A3020 RMK AO2 T10341034
0217720534001612025010309557+40017-105050FM-15+1564KEIK V0209999C00005000615MN0024145N5-00375-00375999999ADDAU100001015AW1105GA1085+000615999GD14991+0006159GE19AGL   +99999+99999GF199999999999000611999999MA1102245084665REMMET09401/03/25 02:55:02 METAR KEIK 030955Z 00000KT 1 1/2SM BR OVC002 M04/M04 A3019 RMK AO2 T10371037
0213720534001612025010310157+40017-105050FM-15+1564KEIK V0202505N00155000615MN0016095N5-00365-00365999999ADDAU100001015AW1105GA1085+000615999GD14991+0006159GE19AGL   +99999+99999GF199999999999000611999999MA1102245084665REMMET09001/03/25 03:15:02 METAR KEIK 031015Z 25003KT 1SM BR OVC002 M04/M04 A3019 RMK AO2 T10361036
0217720534001612025010310357+40017-105050FM-15+1564KEIK V0201905N00155000615MN0020125N5-00395-00395999999ADDAU100001015AW1105GA1085+000615999GD14991+0006159GE19AGL   +99999+99999GF199999999999000611999999MA1102175084615REMMET09401/03/25 03:35:02 METAR KEIK 031035Z 19003KT 1 1/4SM BR OVC002 M04/M04 A3017 RMK AO2 T10391039
0216720534001612025010310557+40017-105050FM-15+1564KEIK V0209999C00005000615WN0008055N5-00405-00405999999ADDAU108002015AW1355GA1095+000615999GD15991+0006159GE19AGL   +99999+99999GF109991999999000611999999MA1102135084585REMMET09301/03/25 03:55:02 METAR KEIK 031055Z 00000KT 1/2SM FZFG VV002 M04/M04 A3016 RMK AO2 T10401040
0216720534001612025010311157+40017-105050FM-15+1564KEIK V0209999C00005000615WN0008055N5-00405-00405999999ADDAU108002015AW1355GA1095+000615999GD15991+0006159GE19AGL   +99999+99999GF109991999999000611999999MA1102105084555REMMET09301/03/25 04:15:02 METAR KEIK 031115Z 00000KT 1/2SM FZFG VV002 M04/M04 A3015 RMK AO2 T10401040
0214720534001612025010311357+40017-105050FM-15+1564KEIK V0202405N00155000615WN0012075N5-00405-00405999999ADDAU100001015AW1105GA1095+000615999GD15991+0006159GE19AGL   +99999+99999GF109991999999000611999999MA1102105084555REMMET09101/03/25 04:35:02 METAR KEIK 031135Z 24003KT 3/4SM BR VV002 M04/M04 A3015 RMK AO2 T10401040
0216720534001612025010311557+40017-105050FM-15+1564KEIK V0209999C00005000615WN0008055N5-00435-00435999999ADDAU108002015AW1355GA1095+000615999GD15991+0006159GE19AGL   +99999+99999GF109991999999000611999999MA1102075084525REMMET09301/03/25 04:55:02 METAR KEIK 031155Z 00000KT 1/2SM FZFG VV002 M04/M04 A3014 RMK AO2 T10431043
0216720534001612025010312157+40017-105050FM-15+1564KEIK V0209999C00005000615WN0008055N5-00435-00435999999ADDAU108002015AW1355GA1095+000615999GD15991+0006159GE19AGL   +99999+99999GF109991999999000611999999MA1102075084525REMMET09301/03/25 05:15:02 METAR KEIK 031215Z 00000KT 1/2SM FZFG VV002 M04/M04 A3014 RMK AO2 T10431043
0216720534001612025010312357+40017-105050FM-15+1564KEIK V0209999C00005000615WN0008055N5-00435-00435999999ADDAU108002015AW1355GA1095+000615999GD15991+0006159GE19AGL   +99999+99999GF109991999999000611999999MA1102075084525REMMET09301/03/25 05:35:02 METAR KEIK 031235Z 00000KT 1/2SM FZFG VV002 M04/M04 A3014 RMK AO2 T10431043
0216720534001612025010312557+40017-105050FM-15+1564KEIK V0200405N00155000615WN0008055N5-00455-00455999999ADDAU108002015AW1355GA1095+000615999GD15991+0006159GE19AGL   +99999+99999GF109991999999000611999999MA1102005084465REMMET09301/03/25 05:55:02 METAR KEIK 031255Z 04003KT 1/2SM FZFG VV002 M05/M05 A3012 RMK AO2 T10451045
0216720534001612025010313157+40017-105050FM-15+1564KEIK V0209999V00155000615WN0008055N5-00465-00465999999ADDAU108002015AW1355GA1095+000615999GD15991+0006159GE19AGL   +99999+99999GF109991999999000611999999MA1102005084465REMMET09301/03/25 06:15:02 METAR KEIK 031315Z VRB03KT 1/2SM FZFG VV002 M05/M05 A3012 RMK AO2 T10461046
0216720534001612025010313357+40017-105050FM-15+1564KEIK V0209999V00215000615WN0008055N5-00495-00495999999ADDAU108002015AW1355GA1095+000615999GD15991+0006159GE19AGL   +99999+99999GF109991999999000611999999MA1102005084465REMMET09301/03/25 06:35:02 METAR KEIK 031335Z VRB04KT 1/2SM FZFG VV002 M05/M05 A3012 RMK AO2 T10491049
0216720534001612025010313557+40017-105050FM-15+1564KEIK V0209999V00155000615WN0008055N5-00465-00465999999ADDAU108002015AW1355GA1095+000615999GD15991+0006159GE19AGL   +99999+99999GF109991999999000611999999MA1102035084495REMMET09301/03/25 06:55:02 METAR KEIK 031355Z VRB03KT 1/2SM FZFG VV002 M05/M05 A3013 RMK AO2 T10461046
0216720534001612025010314157+40017-105050FM-15+1564KEIK V0202705N00155000615WN0004025N5-00455-00455999999ADDAU108002015AW1355GA1095+000615999GD15991+0006159GE19AGL   +99999+99999GF109991999999000611999999MA1102005084465REMMET09301/03/25 07:15:02 METAR KEIK 031415Z 27003KT 1/4SM FZFG VV002 M05/M05 A3012 RMK AO2 T10451045
0217720534001612025010314357+40017-105050FM-15+1564KEIK V0209999V00155000615WN0000005N5-00465-00465999999ADDAU108002015AW1355GA1095+000615999GD15991+0006159GE19AGL   +99999+99999GF109991999999000611999999MA1102005084465REMMET09401/03/25 07:35:02 METAR KEIK 031435Z VRB03KT M1/4SM FZFG VV002 M05/M05 A3012 RMK AO2 T10461046
0217720534001612025010314557+40017-105050FM-15+1564KEIK V0202505N00315000615WN0000005N5-00495-00495999999ADDAU108002015AW1355GA1095+000615999GD15991+0006159GE19AGL   +99999+99999GF109991999999000611999999MA1102035084495REMMET09401/03/25 07:55:02 METAR KEIK 031455Z 25006KT M1/4SM FZFG VV002 M05/M05 A3013 RMK AO2 T10491049
0217720534001612025010315157+40017-105050FM-15+1564KEIK V0202605N00155000615WN0000005N5-00495-00495999999ADDAU108002015AW1355GA1095+000615999GD15991+0006159GE19AGL   +99999+99999GF109991999999000611999999MA1102035084495REMMET09401/03/25 08:15:02 METAR KEIK 031515Z 26003KT M1/4SM FZFG VV002 M05/M05 A3013 RMK AO2 T10491049
0216720534001612025010315357+40017-105050FM-15+1564KEIK V0209999C00005000615WN0004025N5-00495-00495999999ADDAU108002015AW1355GA1095+000615999GD15991+0006159GE19AGL   +99999+99999GF109991999999000611999999MA1102075084525REMMET09301/03/25 08:35:02 METAR KEIK 031535Z 00000KT 1/4SM FZFG VV002 M05/M05 A3014 RMK AO2 T10491049
0216720534001612025010315557+40017-105050FM-15+1564KEIK V0201705N00215000615WN0004025N5-00495-00495999999ADDAU108002015AW1355GA1095+000615999GD15991+0006159GE19AGL   +99999+99999GF109991999999000611999999MA1102075084525REMMET09301/03/25 08:55:02 METAR KEIK 031555Z 17004KT 1/4SM FZFG VV002 M05/M05 A3014 RMK AO2 T10491049
0214720534001612025010316157+40017-105050FM-15+1564KEIK V0209999V00215000915WN0012075N5-00455-00455999999ADDAU100001015AW1105GA1095+000915999GD15991+0009159GE19AGL   +99999+99999GF109991999999000911999999MA1102135084585REMMET09101/03/25 09:15:02 METAR KEIK 031615Z VRB04KT 3/4SM BR VV003 M04/M04 A3016 RMK AO2 T10451045
0213720534001612025010316357+40017-105050FM-15+1564KEIK V0209999C00005000615MN0016095N5-00435-00435999999ADDAU100001015AW1105GA1085+000615999GD14991+0006159GE19AGL   +99999+99999GF199999999999000611999999MA1102105084555REMMET09001/03/25 09:35:02 METAR KEIK 031635Z 00000KT 1SM BR OVC002 M04/M04 A3015 RMK AO2 T10431043
0217720534001612025010316557+40017-105050FM-15+1564KEIK V0209999V00155000615MN0028165N5-00415-00415999999ADDAU100001015AW1105GA1085+000615999GD14991+0006159GE19AGL   +99999+99999GF199999999999000611999999MA1102175084615REMMET09401/03/25 09:55:02 METAR KEIK 031655Z VRB03KT 1 3/4SM BR OVC002 M04/M04 A3017 RMK AO2 T10411041
0213720534001612025010317157+40017-105050FM-15+1564KEIK V0202805N00155000615MN0032195N5-00405-00405999999ADDAU100001015AW1105GA1085+000615999GD14991+0006159GE19AGL   +99999+99999GF199999999999000611999999MA1102175084615REMMET09001/03/25 10:15:02 METAR KEIK 031715Z 28003KT 2SM BR OVC002 M04/M04 A3017 RMK AO2 T10401040
0213720534001612025010317357+40017-105050FM-15+1564KEIK V0209999C00005000615MN0096565N5-00365-00365999999ADDAU100001015AW1105GA1085+000615999GD14991+0006159GE19AGL   +99999+99999GF199999999999000611999999MA1102105084555REMMET09001/03/25 10:35:02 METAR KEIK 031735Z 00000KT 6SM BR OVC002 M04/M04 A3015 RMK AO2 T10361036
0193720534001612025010317557+40017-105050FM-15+1564KEIK V0209999C00005001225MN0128755N5-00275-00275999999ADDGA1075+001225999GD13991+0012259GE19AGL   +99999+99999GF199999999999001221999999MA1102075084525REMMET08701/03/25 10:55:02 METAR KEIK 031755Z 00000KT 8SM BKN004 M03/M03 A3014 RMK AO2 T10271027
0212720534001612025010318157+40017-105050FM-15+1564KEIK V0209999V001552200059N0144845N5-00175-00175999999ADDGA1045+001525999GD12991+0015259GE19AGL   +99999+99999GF104995999999001521999999MA1102075084525REMMET08701/03/25 11:15:02 METAR KEIK 031815Z VRB03KT 9SM SCT005 M02/M02 A3014 RMK AO2 T10171017EQDD01      0ADE726
0168720534001612025010318357+40017-105050FM-15+1564KEIK V0209999C000052200059N0144845N5-00075-00075999999ADDGA1005+999999999GD10991+9999999GF100991999999999999999999MA1102035084495REMMET08401/03/25 11:35:02 METAR KEIK 031835Z 00000KT 9SM CLR M01/M01 A3013 RMK AO2 T10071007
0168720534001612025010318557+40017-105050FM-15+1564KEIK V0209999V001552200059N0160935N5+00105-00185999999ADDGA1005+999999999GD10991+9999999GF100991999999999999999999MA1101965084435REMMET08401/03/25 11:55:02 METAR KEIK 031855Z VRB03KT 10SM CLR 01/M02 A3011 RMK AO2 T00101018
0167720534001612025010319157+40017-105050FM-15+1564KEIK V0209999C000052200059N0144845N5+00245-00185999999ADDGA1005+999999999GD10991+9999999GF100991999999999999999999MA1101935084405REMMET08301/03/25 12:15:02 METAR KEIK 031915Z 00000KT 9SM CLR 02/M02 A3010 RMK AO2 T00241018
0168720534001612025010319357+40017-105050FM-15+1564KEIK V0209999C000052200059N0160935N5+00395-00245999999ADDGA1005+999999999GD10991+9999999GF100991999999999999999999MA1101865084345REMMET08401/03/25 12:35:02 METAR KEIK 031935Z 00000KT 10SM CLR 04/M02 A3008 RMK AO2 T00391024
0168720534001612025010319557+40017-105050FM-15+1564KEIK V0209999V001552200059N0160935N5+00495-00325999999ADDGA1005+999999999GD10991+9999999GF100991999999999999999999MA1101835084325REMMET08401/03/25 12:55:02 METAR KEIK 031955Z VRB03KT 10SM CLR 05/M03 A3007 RMK AO2 T00491032
0168720534001612025010320157+40017-105050FM-15+1564KEIK V0209999V001552200059N0160935N5+00575-00365999999ADDGA1005+999999999GD10991+9999999GF100991999999999999999999MA1101835084325REMMET08401/03/25 13:15:02 METAR KEIK 032015Z VRB03KT 10SM CLR 06/M04 A3007 RMK AO2 T00571036
0168720534001612025010320357+40017-105050FM-15+1564KEIK V0203105N002152200059N0160935N5+00635-00455999999ADDGA1005+999999999GD10991+9999999GF100991999999999999999999MA1101835084325REMMET08401/03/25 13:35:02 METAR KEIK 032035Z 31004KT 10SM CLR 06/M05 A3007 RMK AO2 T00631045
0168720534001612025010320557+40017-105050FM-15+1564KEIK V0209999V001552200059N0160935N5+00695-00445999999ADDGA1005+999999999GD10991+9999999GF100991999999999999999999MA1101835084325REMMET08401/03/25 13:55:02 METAR KEIK 032055Z VRB03KT 10SM CLR 07/M04 A3007 RMK AO2 T00691044
0168720534001612025010321157+40017-105050FM-15+1564KEIK V0209999V002652200059N0160935N5+00675-00545999999ADDGA1005+999999999GD10991+9999999GF100991999999999999999999MA1101795084295REMMET08401/03/25 14:15:02 METAR KEIK 032115Z VRB05KT 10SM CLR 07/M05 A3006 RMK AO2 T00671054
0168720534001612025010321357+40017-105050FM-15+1564KEIK V0203005N002152200059N0160935N5+00705-00625999999ADDGA1005+999999999GD10991+9999999GF100991999999999999999999MA1101835084325REMMET08401/03/25 14:35:02 METAR KEIK 032135Z 30004KT 10SM CLR 07/M06 A3007 RMK AO2 T00701062
0212720534001612025010321557+40017-105050FM-15+1564KEIK V0202905N002152200059N0160935N5+00735-00645999999ADDGA1025+079255999GD11991+0792559GE19AGL   +99999+99999GF102995999999079251999999MA1101835084325REMMET08701/03/25 14:55:02 METAR KEIK 032155Z 29004KT 10SM FEW260 07/M06 A3007 RMK AO2 T00731064EQDD01      0ADE726
0212720534001612025010322157+40017-105050FM-15+1564KEIK V0203005N002152200059N0160935N5+00755-00565999999ADDGA1025+079255999GD11991+0792559GE19AGL   +99999+99999GF102995999999079251999999MA1101865084345REMMET08701/03/25 15:15:02 METAR KEIK 032215Z 30004KT 10SM FEW260 08/M06 A3008 RMK AO2 T00751056EQDD01      0ADE726
0168720534001612025010322357+40017-105050FM-15+1564KEIK V0202705N001552200059N0160935N5+00835-00615999999ADDGA1005+999999999GD10991+9999999GF100991999999999999999999MA1101865084345REMMET08401/03/25 15:35:02 METAR KEIK 032235Z 27003KT 10SM CLR 08/M06 A3008 RMK AO2 T00831061
0168720534001612025010322557+40017-105050FM-15+1564KEIK V0209999C000052200059N0160935N5+00795-00625999999ADDGA1005+999999999GD10991+9999999GF100991999999999999999999MA1101865084345REMMET08401/03/25 15:55:02 METAR KEIK 032255Z 00000KT 10SM CLR 08/M06 A3008 RMK AO2 T00791062
0167720534001612025010323157+40017-105050FM-15+1564KEIK V0203305N001552200059N0144845N5+00805-00645999999ADDGA1005+999999999GD10991+9999999GF100991999999999999999999MA1101865084345REMMET08301/03/25 16:15:02 METAR KEIK 032315Z 33003KT 9SM CLR 08/M06 A3008 RMK AO2 T00801064
0167720534001612025010323357+40017-105050FM-15+1564KEIK V0209999C000052200059N0144845N5+00675-00655999999ADDGA1005+999999999GD10991+9999999GF100991999999999999999999MA1101865084345REMMET08301/03/25 16:35:02 METAR KEIK 032335Z 00000KT 9SM CLR 07/M06 A3008 RMK AO2 T00671065
0211720534001612025010323557+40017-105050FM-15+1564KEIK V0209999C000052200059N0144845N5+00285-00705999999ADDGA1025+091445999GD11991+0914459GE19AGL   +99999+99999GF102995999999091441999999MA1101905084375REMMET08601/03/25 16:55:02 METAR KEIK 032355Z 00000KT 9SM FEW300 03/M07 A3009 RMK AO2 T00281070EQDD01      0ADE726
0168720534001612025010400157+40017-105050FM-15+1564KEIK V0209999C000052200059N0160935N5+00085-00695999999ADDGA1005+999999999GD10991+9999999GF100991999999999999999999MA1101865084345REMMET08401/03/25 17:15:01 METAR KEIK 040015Z 00000KT 10SM CLR 01/M07 A3008 RMK AO2 T00081069
0167720534001612025010400357+40017-105050FM-15+1564KEIK V0209999C000052200059N0144845N5+00115-00655999999ADDGA1005+999999999GD10991+9999999GF100991999999999999999999MA1101865084345REMMET08301/03/25 17:35:01 METAR KEIK 040035Z 00000KT 9SM CLR 01/M07 A3008 RMK AO2 T00111065
0168720534001612025010400557+40017-105050FM-15+1564KEIK V0200805N002152200059N0160935N5+00125-00635999999ADDGA1005+999999999GD10991+9999999GF100991999999999999999999MA1101865084345REMMET08401/03/25 17:55:01 METAR KEIK 040055Z 08004KT 10SM CLR 01/M06 A3008 RMK AO2 T00121063
0167720534001612025010401157+40017-105050FM-15+1564KEIK V0200705N002152200059N0144845N5+00145-00425999999ADDGA1005+999999999GD10991+9999999GF100991999999999999999999MA1101865084345REMMET08301/03/25 18:15:01 METAR KEIK 040115Z 07004KT 9SM CLR 01/M04 A3008 RMK AO2 T00141042
0168720534001612025010401357+40017-105050FM-15+1564KEIK V0201005N002652200059N0160935N5+00075-00445999999ADDGA1005+999999999GD10991+9999999GF100991999999999999999999MA1101865084345REMMET08401/03/25 18:35:01 METAR KEIK 040135Z 10005KT 10SM CLR 01/M04 A3008 RMK AO2 T00071044
0212720534001612025010401557+40017-105050FM-15+1564KEIK V0209999C000052200059N0160935N5+00095-00445999999ADDGA1025+100585999GD11991+1005859GE19AGL   +99999+99999GF102995999999100581999999MA1101795084295REMMET08701/03/25 18:55:01 METAR KEIK 040155Z 00000KT 10SM FEW330 01/M04 A3006 RMK AO2 T00091044EQDD01      0ADE726
0168720534001612025010402157+40017-105050FM-15+1564KEIK V0209999C000052200059N0160935N5+00165-00425999999ADDGA1005+999999999GD10991+9999999GF100991999999999999999999MA1101865084345REMMET08401/03/25 19:15:01 METAR KEIK 040215Z 00000KT 10SM CLR 02/M04 A3008 RMK AO2 T00161042
0169720534001612025010402357+40017-105050FM-15+1564KEIK V0202205N002152200059N0160935N5-00085-00515999999ADDGA1005+999999999GD10991+9999999GF100991999999999999999999MA1101865084345REMMET08501/03/25 19:35:01 METAR KEIK 040235Z 22004KT 10SM CLR M01/M05 A3008 RMK AO2 T10081051
0169720534001612025010402557+40017-105050FM-15+1564KEIK V0209999V002152200059N0160935N5-00135-00495999999ADDGA1005+999999999GD10991+9999999GF100991999999999999999999MA1101835084325REMMET08501/03/25 19:55:01 METAR KEIK 040255Z VRB04KT 10SM CLR M01/M05 A3007 RMK AO2 T10131049
0168720534001612025010403157+40017-105050FM-15+1564KEIK V0209999C000052200059N0160935N5+00025-00435999999ADDGA1005+999999999GD10991+9999999GF100991999999999999999999MA1101835084325REMMET08401/03/25 20:15:02 METAR KEIK 040315Z 00000KT 10SM CLR 00/M04 A3007 RMK AO2 T00021043
0169720534001612025010403357+40017-105050FM-15+1564KEIK V0200205N002152200059N0160935N5+00005-00415999999ADDGA1005+999999999GD10991+9999999GF100991999999999999999999MA1101865084345REMMET08501/03/25 20:35:02 METAR KEIK 040335Z 02004KT 10SM CLR M00/M04 A3008 RMK AO2 T10001041
0169720534001612025010403557+40017-105050FM-15+1564KEIK V0209999C000052200059N0160935N5-00185-00515999999ADDGA1005+999999999GD10991+9999999GF100991999999999999999999MA1101905084375REMMET08501/03/25 20:55:02 METAR KEIK 040355Z 00000KT 10SM CLR M02/M05 A3009 RMK AO2 T10181051
0169720534001612025010404157+40017-105050FM-15+1564KEIK V0200405N001552200059N0160935N5-00225-00465999999ADDGA1005+999999999GD10991+9999999GF100991999999999999999999MA1101835084325REMMET08501/03/25 21:15:02 METAR KEIK 040415Z 04003KT 10SM CLR M02/M05 A3007 RMK AO2 T10221046
0168720534001612025010404357+40017-105050FM-15+1564KEIK V0209999C000052200059N0144845N5-00395-00555999999ADDGA1005+999999999GD10991+9999999GF100991999999999999999999MA1101795084295REMMET08401/03/25 21:35:02 METAR KEIK 040435Z 00000KT 9SM CLR M04/M06 A3006 RMK AO2 T10391055
0168720534001612025010404557+40017-105050FM-15+1564KEIK V0200105N001552200059N0128755N5-00415-00525999999ADDGA1005+999999999GD10991+9999999GF100991999999999999999999MA1101835084325REMMET08401/03/25 21:55:02 METAR KEIK 040455Z 01003KT 8SM CLR M04/M05 A3007 RMK AO2 T10411052
0168720534001612025010405157+40017-105050FM-15+1564KEIK V0203405N002152200059N0128755N5-00405-00545999999ADDGA1005+999999999GD10991+9999999GF100991999999999999999999MA1101795084295REMMET08401/03/25 22:15:02 METAR KEIK 040515Z 34004KT 8SM CLR M04/M05 A3006 RMK AO2 T10401054
0169720534001612025010405357+40017-105050FM-15+1564KEIK V0209999C000052200059N0160935N5-00415-00525999999ADDGA1005+999999999GD10991+9999999GF100991999999999999999999MA1101765084265REMMET08501/03/25 22:35:02 METAR KEIK 040535Z 00000KT 10SM CLR M04/M05 A3005 RMK AO2 T10411052
0169720534001612025010405557+40017-105050FM-15+1564KEIK V0209999C000052200059N0160935N5-00535-00615999999ADDGA1005+999999999GD10991+9999999GF100991999999999999999999MA1101735084235REMMET08501/03/25 22:55:02 METAR KEIK 040555Z 00000KT 10SM CLR M05/M06 A3004 RMK AO2 T10531061
0169720534001612025010406157+40017-105050FM-15+1564KEIK V0209999V001552200059N0160935N5-00655-00705999999ADDGA1005+999999999GD10991+9999999GF100991999999999999999999MA1101695084205REMMET08501/03/25 23:15:02 METAR KEIK 040615Z VRB03KT 10SM CLR M06/M07 A3003 RMK AO2 T10651070
0169720534001612025010406357+40017-105050FM-15+1564KEIK V0203005N002152200059N0160935N5-00615-00705999999ADDGA1005+999999999GD10991+9999999GF100991999999999999999999MA1101695084205REMMET08501/03/25 23:35:02 METAR KEIK 040635Z 30004KT 10SM CLR M06/M07 A3003 RMK AO2 T10611070
0169720534001612025010406557+40017-105050FM-15+1564KEIK V0203305N002152200059N0160935N5-00575-00645999999ADDGA1005+999999999GD10991+9999999GF100991999999999999999999MA1101695084205REMMET08501/03/25 23:55:02 METAR KEIK 040655Z 33004KT 10SM CLR M06/M06 A3003 RMK AO2 T10571064
003972053400161202501040659O+40017-105050SOD  +1564KEIK V020999999999999999999999999999+99999+99999999999ADDAT1AU22FZFG5AT2AU13BR  5AT3AW01FG  5
0169720534001612025010407157+40017-105050FM-15+1564KEIK V0203605N002152200059N0160935N5-00595-00645999999ADDGA1005+999999999GD10991+9999999GF100991999999999999999999MA1101665084175REMMET08501/04/25 00:15:02 METAR KEIK 040715Z 36004KT 10SM CLR M06/M06 A3002 RMK AO2 T10591064
0194720534001612025010407357+40017-105050FM-15+1564KEIK V0209999C00005001525MN0160935N5-00645-00675999999ADDGA1075+001525999GD13991+0015259GE19AGL   +99999+99999GF199999999999001521999999MA1101635084145REMMET08801/04/25 00:35:02 METAR KEIK 040735Z 00000KT 10SM BKN005 M06/M07 A3001 RMK AO2 T10641067
0205720534001612025010407557+40017-105050FM-15+1564KEIK V0200205N00155001225MN0144845N5-00555-00595999999ADDGA1085+001225999GD14991+0012251GE19AGL   +99999+99999GF199999999999001221999999MA1101565084085REMMET09901/04/25 00:55:02 METAR KEIK 040755Z 02003KT 9SM OVC004 M06/M06 A2999 RMK AO2 CIG 004V006 T10551059
0193720534001612025010408157+40017-105050FM-15+1564KEIK V0209999V00155000915MN0112655N5-00565-00565999999ADDGA1085+000915999GD14991+0009159GE19AGL   +99999+99999GF199999999999000911999999MA1101595084115REMMET08701/04/25 01:15:02 METAR KEIK 040815Z VRB03KT 7SM OVC003 M06/M06 A3000 RMK AO2 T10561056
0193720534001612025010408357+40017-105050FM-15+1564KEIK V0200305N00215000915MN0112655N5-00545-00545999999ADDGA1085+000915999GD14991+0009159GE19AGL   +99999+99999GF199999999999000911999999MA1101525084055REMMET08701/04/25 01:35:02 METAR KEIK 040835Z 03004KT 7SM OVC003 M05/M05 A2998 RMK AO2 T10541054
0217720534001612025010408557+40017-105050FM-15+1564KEIK V0200305N00265000615MN0040235N5-00545-00545999999ADDAU100001015AW1105GA1085+000615999GD14991+0006159GE19AGL   +99999+99999GF199999999999000611999999MA1101525084055REMMET09401/04/25 01:55:02 METAR KEIK 040855Z 03005KT 2 1/2SM BR OVC002 M05/M05 A2998 RMK AO2 T10541054
0217720534001612025010409157+40017-105050FM-15+1564KEIK V0209999V00155000615MN0040235N5-00535-00535999999ADDAU100001015AW1105GA1085+000615999GD14991+0006159GE19AGL   +99999+99999GF199999999999000611999999MA1101525084055REMMET09401/04/25 02:15:02 METAR KEIK 040915Z VRB03KT 2 1/2SM BR OVC002 M05/M05 A2998 RMK AO2 T10531053
0217720534001612025010409357+40017-105050FM-15+1564KEIK V0200305N00265000615MN0020125N5-00545-00545999999ADDAU100001015AW1105GA1085+000615999GD14991+0006159GE19AGL   +99999+99999GF199999999999000611999999MA1101525084055REMMET09401/04/25 02:35:02 METAR KEIK 040935Z 03005KT 1 1/4SM BR OVC002 M05/M05 A2998 RMK AO2 T10541054
0215720534001612025010409557+40017-105050FM-15+1564KEIK V0200205N00155000615MN0012075N5-00545-00545999999ADDAU100001015AW1105GA1085+000615999GD14991+0006159GE19AGL   +99999+99999GF199999999999000611999999MA1101495084035REMMET09201/04/25 02:55:02 METAR KEIK 040955Z 02003KT 3/4SM BR OVC002 M05/M05 A2997 RMK AO2 T10541054
0217720534001612025010410157+40017-105050FM-15+1564KEIK V0209999C00005000615MN0024145N5-00545-00545999999ADDAU100001015AW1105GA1085+000615999GD14991+0006159GE19AGL   +99999+99999GF199999999999000611999999MA1101495084035REMMET09401/04/25 03:15:02 METAR KEIK 041015Z 00000KT 1 1/2SM BR OVC002 M05/M05 A2997 RMK AO2 T10541054
0214720534001612025010410357+40017-105050FM-15+1564KEIK V0209999C00005000615WN0012075N5-00555-00555999999ADDAU100001015AW1105GA1095+000615999GD15991+0006159GE19AGL   +99999+99999GF109991999999000611999999MA1101425083975REMMET09101/04/25 03:35:02 METAR KEIK 041035Z 00000KT 3/4SM BR VV002 M05/M05 A2995 RMK AO2 T10551055
0217720534001612025010410557+40017-105050FM-15+1564KEIK V0203105N00215000615MN0024145N5-00545-00545999999ADDAU100001015AW1105GA1085+000615999GD14991+0006159GE19AGL   +99999+99999GF199999999999000611999999MA1101425083975REMMET09401/04/25 03:55:02 METAR KEIK 041055Z 31004KT 1 1/2SM BR OVC002 M05/M05 A2995 RMK AO2 T10541054
0217720534001612025010411157+40017-105050FM-15+1564KEIK V0203205N00155000615MN0024145N5-00545-00545999999ADDAU100001015AW1105GA1085+000615999GD14991+0006159GE19AGL   +99999+99999GF199999999999000611999999MA1101395083945REMMET09401/04/25 04:15:02 METAR KEIK 041115Z 32003KT 1 1/2SM BR OVC002 M05/M05 A2994 RMK AO2 T10541054
0214720534001612025010411357+40017-105050FM-15+1564KEIK V0203105N00215000615WN0012075N5-00555-00555999999ADDAU100001015AW1105GA1095+000615999GD15991+0006159GE19AGL   +99999+99999GF109991999999000611999999MA1101325083885REMMET09101/04/25 04:35:02 METAR KEIK 041135Z 31004KT 3/4SM BR VV002 M06/M06 A2992 RMK AO2 T10551055
0212720534001612025010411557+40017-105050FM-15+1564KEIK V0203405N00215000915WN0016095N5-00555-00555999999ADDAU100001015AW1105GA1095+000915999GD15991+0009159GE19AGL   +99999+99999GF109991999999000911999999MA1101295083855REMMET08901/04/25 04:55:02 METAR KEIK 041155Z 34004KT 1SM BR VV003 M06/M06 A2991 RMK AO2 T10551055
0214720534001612025010412157+40017-105050FM-15+1564KEIK V0209999C00005000915WN0012075N5-00565-00565999999ADDAU100001015AW1105GA1095+000915999GD15991+0009159GE19AGL   +99999+99999GF109991999999000911999999MA1101295083855REMMET09101/04/25 05:15:02 METAR KEIK 041215Z 00000KT 3/4SM BR VV003 M06/M06 A2991 RMK AO2 T10561056
0216720534001612025010412357+40017-105050FM-15+1564KEIK V0209999C00005000615WN0008055N5-00565-00565999999ADDAU108002015AW1355GA1095+000615999GD15991+0006159GE19AGL   +99999+99999GF109991999999000611999999MA1101225083795REMMET09301/04/25 05:35:02 METAR KEIK 041235Z 00000KT 1/2SM FZFG VV002 M06/M06 A2989 RMK AO2 T10561056
0216720534001612025010412557+40017-105050FM-15+1564KEIK V0200605N00215000615WN0004025N5-00585-00585999999ADDAU108002015AW1355GA1095+000615999GD15991+0006159GE19AGL   +99999+99999GF109991999999000611999999MA1101225083795REMMET09301/04/25 05:55:02 METAR KEIK 041255Z 06004KT 1/4SM FZFG VV002 M06/M06 A2989 RMK AO2 T10581058
0216720534001612025010413157+40017-105050FM-15+1564KEIK V0209999C00005000615WN0008055N5-00585-00585999999ADDAU108002015AW1355GA1095+000615999GD15991+0006159GE19AGL   +99999+99999GF109991999999000611999999MA1101225083795REMMET09301/04/25 06:15:02 METAR KEIK 041315Z 00000KT 1/2SM FZFG VV002 M06/M06 A2989 RMK AO2 T10581058
0216720534001612025010413357+40017-105050FM-15+1564KEIK V0200505N00155000615WN0008055N5-00585-00585999999ADDAU108002015AW1355GA1095+000615999GD15991+0006159GE19AGL   +99999+99999GF109991999999000611999999MA1101225083795REMMET09301/04/25 06:35:02 METAR KEIK 041335Z 05003KT 1/2SM FZFG VV002 M06/M06 A2989 RMK AO2 T10581058
0216720534001612025010413557+40017-105050FM-15+1564KEIK V0209999C00005000615WN0004025N5-00575-00575999999ADDAU108002015AW1355GA1095+000615999GD15991+0006159GE19AGL   +99999+99999GF109991999999000611999999MA1101195083765REMMET09301/04/25 06:55:02 METAR KEIK 041355Z 00000KT 1/4SM FZFG VV002 M06/M06 A2988 RMK AO2 T10571057
0216720534001612025010414157+40017-105050FM-15+1564KEIK V0203405N00315000615WN0008055N5-00565-00565999999ADDAU108002015AW1355GA1095+000615999GD15991+0006159GE19AGL   +99999+99999GF109991999999000611999999MA1101195083765REMMET09301/04/25 07:15:02 METAR KEIK 041415Z 34006KT 1/2SM FZFG VV002 M06/M06 A2988 RMK AO2 T10561056
0213720534001612025010414357+40017-105050FM-15+1564KEIK V0203105N00215000615MN0016095N5-00575-00575999999ADDAU100001015AW1105GA1085+000615999GD14991+0006159GE19AGL   +99999+99999GF199999999999000611999999MA1101155083735REMMET09001/04/25 07:35:02 METAR KEIK 041435Z 31004KT 1SM BR OVC002 M06/M06 A2987 RMK AO2 T10571057
0215720534001612025010414557+40017-105050FM-15+1564KEIK V0209999C00005000615MN0012075N5-00565-00565999999ADDAU100001015AW1105GA1085+000615999GD14991+0006159GE19AGL   +99999+99999GF199999999999000611999999MA1101155083735REMMET09201/04/25 07:55:02 METAR KEIK 041455Z 00000KT 3/4SM BR OVC002 M06/M06 A2987 RMK AO2 T10561056
0213720534001612025010415157+40017-105050FM-15+1564KEIK V0200205N00155000615MN0016095N5-00555-00555999999ADDAU100001015AW1105GA1085+000615999GD14991+0006159GE19AGL   +99999+99999GF199999999999000611999999MA1101125083715REMMET09001/04/25 08:15:02 METAR KEIK 041515Z 02003KT 1SM BR OVC002 M05/M05 A2986 RMK AO2 T10551055
0215720534001612025010415357+40017-105050FM-15+1564KEIK V0209999C00005000615MN0012075N5-00575-00575999999ADDAU100001015AW1105GA1085+000615999GD14991+0006159GE19AGL   +99999+99999GF199999999999000611999999MA1101125083715REMMET09201/04/25 08:35:02 METAR KEIK 041535Z 00000KT 3/4SM BR OVC002 M06/M06 A2986 RMK AO2 T10571057
0229720534001612025010415557+40017-105050FM-15+1564KEIK V0209999C00005000615MN0028165V5-00575-00575999999ADDAU100001015AW1105GA1085+000615999GD14991+0006159GE19AGL   +99999+99999GF199999999999000611999999MA1101125083715REMMET10601/04/25 08:55:02 METAR KEIK 041555Z 00000KT 1 3/4SM BR OVC002 M06/M06 A2986 RMK AO2 VIS 1 1/4V5 T10571057
0213720534001612025010416157+40017-105050FM-15+1564KEIK V0209999C00005000615MN0032195N5-00565-00565999999ADDAU100001015AW1105GA1085+000615999GD14991+0006159GE19AGL   +99999+99999GF199999999999000611999999MA1101125083715REMMET09001/04/25 09:15:02 METAR KEIK 041615Z 00000KT 2SM BR OVC002 M06/M06 A2986 RMK AO2 T10561056
0213720534001612025010416357+40017-105050FM-15+1564KEIK V0203405N00215000615MN0032195N5-00545-00545999999ADDAU100001015AW1105GA1085+000615999GD14991+0006159GE19AGL   +99999+99999GF199999999999000611999999MA1101125083715REMMET09001/04/25 09:35:02 METAR KEIK 041635Z 34004KT 2SM BR OVC002 M05/M05 A2986 RMK AO2 T10541054
0213720534001612025010416557+40017-105050FM-15+1564KEIK V0209999C00005000615MN0064375N5-00555-00555999999ADDAU100001015AW1105GA1085+000615999GD14991+0006159GE19AGL   +99999+99999GF199999999999000611999999MA1101125083715REMMET09001/04/25 09:55:02 METAR KEIK 041655Z 00000KT 4SM BR OVC002 M05/M05 A2986 RMK AO2 T10551055
0225720534001612025010417157+40017-105050FM-15+1564KEIK V0209999C00005000915MN0080475N5-00535-00535999999ADDAU100001015AW1105GA1085+000915999GD14991+0009151GE19AGL   +99999+99999GF199999999999000911999999MA1101055083655REMMET10201/04/25 10:15:02 METAR KEIK 041715Z 00000KT 5SM BR OVC003 M05/M05 A2984 RMK AO2 CIG 002V004 T10531053
0193720534001612025010417357+40017-105050FM-15+1564KEIK V0209999C00005000915MN0112655N5-00545-00545999999ADDGA1085+000915999GD14991+0009159GE19AGL   +99999+99999GF199999999999000911999999MA1101055083655REMMET08701/04/25 10:35:02 METAR KEIK 041735Z 00000KT 7SM OVC003 M05/M05 A2984 RMK AO2 T10541054
0213720534001612025010417557+40017-105050FM-15+1564KEIK V0209999C00005000915MN0064375N5-00525-00525999999ADDAU100001015AW1105GA1085+000915999GD14991+0009159GE19AGL   +99999+99999GF199999999999000911999999MA1100985083595REMMET09001/04/25 10:55:02 METAR KEIK 041755Z 00000KT 4SM BR OVC003 M05/M05 A2982 RMK AO2 T10521052
0193720534001612025010418157+40017-105050FM-15+1564KEIK V0209999C00005000915MN0112655N5-00515-00515999999ADDGA1085+000915999GD14991+0009159GE19AGL   +99999+99999GF199999999999000911999999MA1100955083565REMMET08701/04/25 11:15:02 METAR KEIK 041815Z 00000KT 7SM OVC003 M05/M05 A2981 RMK AO2 T10511051
0213720534001612025010418357+40017-105050FM-15+1564KEIK V0203405N00215000915MN0064375N5-00515-00515999999ADDAU100001015AW1105GA1085+000915999GD14991+0009159GE19AGL   +99999+99999GF199999999999000911999999MA1100885083505REMMET09001/04/25 11:35:02 METAR KEIK 041835Z 34004KT 4SM BR OVC003 M05/M05 A2979 RMK AO2 T10511051
0213720534001612025010418557+40017-105050FM-15+1564KEIK V0203305N00215000915MN0064375N5-00515-00515999999ADDAU100001015AW1105GA1085+000915999GD14991+0009159GE19AGL   +99999+99999GF199999999999000911999999MA1100855083475REMMET09001/04/25 11:55:02 METAR KEIK 041855Z 33004KT 4SM BR OVC003 M05/M05 A2978 RMK AO2 T10511051
0213720534001612025010419157+40017-105050FM-15+1564KEIK V0209999C00005000915MN0096565N5-00525-00525999999ADDAU100001015AW1105GA1085+000915999GD14991+0009159GE19AGL   +99999+99999GF199999999999000911999999MA1100815083445REMMET09001/04/25 12:15:02 METAR KEIK 041915Z 00000KT 6SM BR OVC003 M05/M05 A2977 RMK AO2 T10521052
0225720534001612025010419357+40017-105050FM-15+1564KEIK V0209999V00155001225MN0096565N5-00525-00525999999ADDAU100001015AW1105GA1085+001225999GD14991+0012251GE19AGL   +99999+99999GF199999999999001221999999MA1100785083425REMMET10201/04/25 12:35:02 METAR KEIK 041935Z VRB03KT 6SM BR OVC004 M05/M05 A2976 RMK AO2 CIG 003V005 T10521052
0205720534001612025010419557+40017-105050FM-15+1564KEIK V0203605N00265001225MN0112655N5-00515-00515999999ADDGA1085+001225999GD14991+0012251GE19AGL   +99999+99999GF199999999999001221999999MA1100715083365REMMET09901/04/25 12:55:02 METAR KEIK 041955Z 36005KT 7SM OVC004 M05/M05 A2974 RMK AO2 CIG 003V005 T10511051
0205720534001612025010420157+40017-105050FM-15+1564KEIK V0203305N00215001525MN0128755N5-00505-00505999999ADDGA1085+001525999GD14991+0015251GE19AGL   +99999+99999GF199999999999001521999999MA1100715083365REMMET09901/04/25 13:15:02 METAR KEIK 042015Z 33004KT 8SM OVC005 M05/M05 A2974 RMK AO2 CIG 004V006 T10501050
0193720534001612025010420357+40017-105050FM-15+1564KEIK V0203405N00155001525MN0128755N5-00505-00505999999ADDGA1085+001525999GD14991+0015259GE19AGL   +99999+99999GF199999999999001521999999MA1100715083365REMMET08701/04/25 13:35:02 METAR KEIK 042035Z 34003KT 8SM OVC005 M05/M05 A2974 RMK AO2 T10501050
0194720534001612025010420557+40017-105050FM-15+1564KEIK V0200205N00215001525MN0160935N5-00485-00485999999ADDGA1085+001525999GD14991+0015259GE19AGL   +99999+99999GF199999999999001521999999MA1100715083365REMMET08801/04/25 13:55:02 METAR KEIK 042055Z 02004KT 10SM OVC005 M05/M05 A2974 RMK AO2 T10481048
0194720534001612025010421157+40017-105050FM-15+1564KEIK V0200205N00265001525MN0160935N5-00495-00495999999ADDGA1085+001525999GD14991+0015259GE19AGL   +99999+99999GF199999999999001521999999MA1100755083395REMMET08801/04/25 14:15:02 METAR KEIK 042115Z 02005KT 10SM OVC005 M05/M05 A2975 RMK AO2 T10491049
0206720534001612025010421357+40017-105050FM-15+1564KEIK V0203605N00215001525MN0160935N5-00485-00485999999ADDGA1085+001525999GD14991+0015251GE19AGL   +99999+99999GF199999999999001521999999MA1100815083445REMMET10001/04/25 14:35:02 METAR KEIK 042135Z 36004KT 10SM OVC005 M05/M05 A2977 RMK AO2 CIG 004V006 T10481048
0206720534001612025010421557+40017-105050FM-15+1564KEIK V0203605N00215001525MN0160935N5-00465-00465999999ADDGA1085+001525999GD14991+0015251GE19AGL   +99999+99999GF199999999999001521999999MA1100855083475REMMET10001/04/25 14:55:02 METAR KEIK 042155Z 36004KT 10SM OVC005 M05/M05 A2978 RMK AO2 CIG 004V006 T10461046
0205720534001612025010422157+40017-105050FM-15+1564KEIK V0203605N00415001525MN0144845N5-00435-00435999999ADDGA1085+001525999GD14991+0015251GE19AGL   +99999+99999GF199999999999001521999999MA1100885083505REMMET09901/04/25 15:15:02 METAR KEIK 042215Z 36008KT 9SM OVC005 M04/M04 A2979 RMK AO2 CIG 004V006 T10431043
0206720534001612025010422357+40017-105050FM-15+1564KEIK V0203505N00265001525MN0160935N5-00445-00445999999ADDGA1085+001525999GD14991+0015251GE19AGL   +99999+99999GF199999999999001521999999MA1100915083535REMMET10001/04/25 15:35:02 METAR KEIK 042235Z 35005KT 10SM OVC005 M04/M04 A2980 RMK AO2 CIG 005V007 T10441044
0206720534001612025010422557+40017-105050FM-15+1564KEIK V0203405N00315001835MN0160935N5-00455-00455999999ADDGA1085+001835999GD14991+0018351GE19AGL   +99999+99999GF199999999999001831999999MA1100955083565REMMET10001/04/25 15:55:02 METAR KEIK 042255Z 34006KT 10SM OVC006 M04/M04 A2981 RMK AO2 CIG 005V008 T10451045
0205720534001612025010423157+40017-105050FM-15+1564KEIK V0203605N00315001525MN0144845N5-00435-00435999999ADDGA1085+001525999GD14991+0015251GE19AGL   +99999+99999GF199999999999001521999999MA1101025083625REMMET09901/04/25 16:15:02 METAR KEIK 042315Z 36006KT 9SM OVC005 M04/M04 A2983 RMK AO2 CIG 005V008 T10431043
0225720534001612025010423357+40017-105050FM-15+1564KEIK V0203505N00155001225MN0064375N5-00425-00425999999ADDAU100001015AW1105GA1085+001225999GD14991+0012251GE19AGL   +99999+99999GF199999999999001221999999MA1101085083685REMMET10201/04/25 16:35:02 METAR KEIK 042335Z 35003KT 4SM BR OVC004 M04/M04 A2985 RMK AO2 CIG 003V006 T10421042
0257720534001612025010423557+40017-105050FM-15+1564KEIK V0200305N00315000615MN0032195N5-00475-00475999999ADDAA101000021AU110030015AU200001015AW1105AW2715GA1085+000615999GD14991+0006159GE19AGL   +99999+99999GF199999999999000611999999MA1101085083685MW1715REMMET10001/04/25 16:55:02 METAR KEIK 042355Z 03006KT 2SM -SN BR OVC002 M05/M05 A2985 RMK AO2 P0000 T10471047
0238720534001612025010500157+40017-105050FM-15+1564KEIK V0200405N00215000615MN0016095N5-00485-00485999999ADDAA101000021AU100001015AW1105GA1085+000615999GD14991+0006159GE19AGL   +99999+99999GF199999999999000611999999MA1101155083735REMMET10401/04/25 17:15:01 METAR KEIK 050015Z 04004KT 1SM BR OVC002 M05/M05 A2987 RMK AO2 SNE0000 P0000 T10481048
0238720534001612025010500357+40017-105050FM-15+1564KEIK V0200405N00215000615MN0016095N5-00485-00485999999ADDAA101000021AU100001015AW1105GA1085+000615999GD14991+0006159GE19AGL   +99999+99999GF199999999999000611999999MA1101155083735REMMET10401/04/25 17:35:01 METAR KEIK 050035Z 04004KT 1SM BR OVC002 M05/M05 A2987 RMK AO2 SNE0000 P0000 T10481048
0214720534001612025010500557+40017-105050FM-15+1564KEIK V0200605N00155000615WN0012075N5-00485-00485999999ADDAU100001015AW1105GA1095+000615999GD15991+0006159GE19AGL   +99999+99999GF109991999999000611999999MA1101195083765REMMET09101/04/25 17:55:01 METAR KEIK 050055Z 06003KT 3/4SM BR VV002 M05/M05 A2988 RMK AO2 T10481048
0217720534001612025010501157+40017-105050FM-15+1564KEIK V0200505N00215000615MN0020125N5-00485-00485999999ADDAU100001015AW1105GA1085+000615999GD14991+0006159GE19AGL   +99999+99999GF199999999999000611999999MA1101195083765REMMET09401/04/25 18:15:01 METAR KEIK 050115Z 05004KT 1 1/4SM BR OVC002 M05/M05 A2988 RMK AO2 T10481048
0269720534001612025010501357+40017-105050FM-15+1564KEIK V0200405N00215000615MN0040235N5-00495-00495999999ADDAA101000021AU110030015AU200001015AW1105AW2715GA1085+000615999GD14991+0006159GE19AGL   +99999+99999GF199999999999000611999999MA1101195083765MW1715REMMET11201/04/25 18:35:01 METAR KEIK 050135Z 04004KT 2 1/2SM -SN BR OVC002 M05/M05 A2988 RMK AO2 SNB0129 P0000 T10491049
0257720534001612025010501557+40017-105050FM-15+1564KEIK V0209999C00005000615MN0048285N5-00495-00495999999ADDAA101000021AU110030015AU200001015AW1105AW2715GA1085+000615999GD14991+0006159GE19AGL   +99999+99999GF199999999999000611999999MA1101225083795MW1715REMMET10001/04/25 18:55:01 METAR KEIK 050155Z 00000KT 3SM -SN BR OVC002 M05/M05 A2989 RMK AO2 P0000 T10491049
0242720534001612025010502157+40017-105050FM-15+1564KEIK V0200605N00215000615MN0040235N5-00495-00495999999ADDAA101000021AU100001015AW1105GA1085+000615999GD14991+0006159GE19AGL   +99999+99999GF199999999999000611999999MA1101255083825REMMET10801/04/25 19:15:01 METAR KEIK 050215Z 06004KT 2 1/2SM BR OVC002 M05/M05 A2990 RMK AO2 SNE0156 P0000 T10491049
0242720534001612025010502357+40017-105050FM-15+1564KEIK V0200705N00215000615MN0028165N5-00515-00515999999ADDAA101000021AU100001015AW1105GA1085+000615999GD14991+0006159GE19AGL   +99999+99999GF199999999999000611999999MA1101225083795REMMET10801/04/25 19:35:01 METAR KEIK 050235Z 07004KT 1 3/4SM BR OVC002 M05/M05 A2989 RMK AO2 SNE0156 P0000 T10511051
0217720534001612025010502557+40017-105050FM-15+1564KEIK V0200805N00215000615MN0024145N5-00535-00535999999ADDAU100001015AW1105GA1085+000615999GD14991+0006159GE19AGL   +99999+99999GF199999999999000611999999MA1101225083795REMMET09401/04/25 19:55:01 METAR KEIK 050255Z 08004KT 1 1/2SM BR OVC002 M05/M05 A2989 RMK AO2 T10531053
0217720534001612025010503157+40017-105050FM-15+1564KEIK V0200705N00215000615MN0020125N5-00535-00535999999ADDAU100001015AW1105GA1085+000615999GD14991+0006159GE19AGL   +99999+99999GF199999999999000611999999MA1101255083825REMMET09401/04/25 20:15:02 METAR KEIK 050315Z 07004KT 1 1/4SM BR OVC002 M05/M05 A2990 RMK AO2 T10531053
0217720534001612025010503357+40017-105050FM-15+1564KEIK V0200705N00215000615MN0020125N5-00545-00545999999ADDAU100001015AW1105GA1085+000615999GD14991+0006159GE19AGL   +99999+99999GF199999999999000611999999MA1101295083855REMMET09401/04/25 20:35:02 METAR KEIK 050335Z 07004KT 1 1/4SM BR OVC002 M05/M05 A2991 RMK AO2 T10541054
0217720534001612025010503557+40017-105050FM-15+1564KEIK V0200505N00215000615MN0020125N5-00565-00565999999ADDAU100001015AW1105GA1085+000615999GD14991+0006159GE19AGL   +99999+99999GF199999999999000611999999MA1101325083885REMMET09401/04/25 20:55:02 METAR KEIK 050355Z 05004KT 1 1/4SM BR OVC002 M06/M06 A2992 RMK AO2 T10561056
0213720534001612025010504157+40017-105050FM-15+1564KEIK V0209999C00005000615MN0032195N5-00565-00565999999ADDAU100001015AW1105GA1085+000615999GD14991+0006159GE19AGL   +99999+99999GF199999999999000611999999MA1101325083885REMMET09001/04/25 21:15:02 METAR KEIK 050415Z 00000KT 2SM BR OVC002 M06/M06 A2992 RMK AO2 T10561056
0213720534001612025010504357+40017-105050FM-15+1564KEIK V0200405N00215000615MN0048285N5-00565-00565999999ADDAU100001015AW1105GA1085+000615999GD14991+0006159GE19AGL   +99999+99999GF199999999999000611999999MA1101355083915REMMET09001/04/25 21:35:02 METAR KEIK 050435Z 04004KT 3SM BR OVC002 M06/M06 A2993 RMK AO2 T10561056
0213720534001612025010504557+40017-105050FM-15+1564KEIK V0200505N00315000615MN0048285N5-00575-00575999999ADDAU100001015AW1105GA1085+000615999GD14991+0006159GE19AGL   +99999+99999GF199999999999000611999999MA1101395083945REMMET09001/04/25 21:55:02 METAR KEIK 050455Z 05006KT 3SM BR OVC002 M06/M06 A2994 RMK AO2 T10571057
0225720534001612025010505157+40017-105050FM-15+1564KEIK V0200505N00315000915MN0080475N5-00625-00625999999ADDAU100001015AW1105GA1085+000915999GD14991+0009151GE19AGL   +99999+99999GF199999999999000911999999MA1101425083975REMMET10201/04/25 22:15:02 METAR KEIK 050515Z 05006KT 5SM BR OVC003 M06/M06 A2995 RMK AO2 CIG 002V004 T10621062
0213720534001612025010505357+40017-105050FM-15+1564KEIK V0200405N00315000915MN0064375N5-00625-00625999999ADDAU100001015AW1105GA1085+000915999GD14991+0009159GE19AGL   +99999+99999GF199999999999000911999999MA1101495084035REMMET09001/04/25 22:35:02 METAR KEIK 050535Z 04006KT 4SM BR OVC003 M06/M06 A2997 RMK AO2 T10621062
0213720534001612025010505557+40017-105050FM-15+1564KEIK V0200505N00575000915MN0064375N5-00755-00755999999ADDAU100001015AW1105GA1085+000915999GD14991+0009159GE19AGL   +99999+99999GF199999999999000911999999MA1101565084085REMMET09001/04/25 22:55:02 METAR KEIK 050555Z 05011KT 4SM BR OVC003 M08/M08 A2999 RMK AO2 T10751075
0213720534001612025010506157+40017-105050FM-15+1564KEIK V0200405N00415000915MN0064375N5-00815-00815999999ADDAU100001015AW1105GA1085+000915999GD14991+0009159GE19AGL   +99999+99999GF199999999999000911999999MA1101595084115REMMET09001/04/25 23:15:02 METAR KEIK 050615Z 04008KT 4SM BR OVC003 M08/M08 A3000 RMK AO2 T10811081
0213720534001612025010506357+40017-105050FM-15+1564KEIK V0200305N00365000915MN0064375N5-00855-00865999999ADDAU100001015AW1105GA1085+000915999GD14991+0009159GE19AGL   +99999+99999GF199999999999000911999999MA1101635084145REMMET09001/04/25 23:35:02 METAR KEIK 050635Z 03007KT 4SM BR OVC003 M09/M09 A3001 RMK AO2 T10851086
0213720534001612025010506557+40017-105050FM-15+1564KEIK V0200405N00265000915MN0064375N5-00885-00895999999ADDAU100001015AW1105GA1085+000915999GD14991+0009159GE19AGL   +99999+99999GF199999999999000911999999MA1101665084175REMMET09001/04/25 23:55:02 METAR KEIK 050655Z 04005KT 4SM BR OVC003 M09/M09 A3002 RMK AO2 T10881089
005172053400161202501050659O+40017-105050SOD  +1564KEIK V020999999999999999999999999999+99999+99999999999ADDAT1AU18SN  5AT2AU22FZFG5AT3AU13BR  5AT4AW01FG  5
0213720534001612025010507157+40017-105050FM-15+1564KEIK V0200205N00265000915MN0064375N5-00905-00915999999ADDAU100001015AW1105GA1085+000915999GD14991+0009159GE19AGL   +99999+99999GF199999999999000911999999MA1101665084175REMMET09001/05/25 00:15:02 METAR KEIK 050715Z 02005KT 4SM BR OVC003 M09/M09 A3002 RMK AO2 T10901091
0225720534001612025010507357+40017-105050FM-15+1564KEIK V0200305N00315001225MN0080475N5-00915-00935999999ADDAU100001015AW1105GA1085+001225999GD14991+0012251GE19AGL   +99999+99999GF199999999999001221999999MA1101695084205REMMET10201/05/25 00:35:02 METAR KEIK 050735Z 03006KT 5SM BR OVC004 M09/M09 A3003 RMK AO2 CIG 003V005 T10911093
0233720534001612025010507557+40017-105050FM-15+1564KEIK V0200205N00215001225MN0096565N5-00925-00945999999ADDAU100001015AW1105GA1085+001225999GD14991+0012251GE19AGL   +99999+99999GF199999999999001221999999MA1101695084205REMMET11001/05/25 00:55:02 METAR KEIK 050755Z 02004KT 6SM BR OVC004 M09/M09 A3003 RMK AO2 SNE0751 CIG 003V005 T10921094
0201720534001612025010508107+40017-105050FM-15+1564KEIK V0200205N00215001225MN0112655N5-00905-00925999999ADDGA1085+001225999GD14991+0012259GE19AGL   +99999+99999GF199999999999001221999999MA1101735084235REMMET09501/05/25 01:10:02 METAR KEIK 050810Z 02004KT 7SM OVC004 M09/M09 A3004 RMK AO2 SNE0751 T10901092
0221720534001612025010508357+40017-105050FM-15+1564KEIK V0200205N00155000915MN0080475N5-00895-00905999999ADDAU100001015AW1105GA1085+000915999GD14991+0009159GE19AGL   +99999+99999GF199999999999000911999999MA1101765084265REMMET09801/05/25 01:35:02 METAR KEIK 050835Z 02003KT 5SM BR OVC003 M09/M09 A3005 RMK AO2 SNE0751 T10891090
0238720534001612025010508557+40017-105050FM-15+1564KEIK V0200105N00215000915MN0096565N5-00885-00895999999ADDAA101000021AU100001015AW1105GA1085+000915999GD14991+0009159GE19AGL   +99999+99999GF199999999999000911999999MA1101765084265REMMET10401/05/25 01:55:02 METAR KEIK 050855Z 01004KT 6SM BR OVC003 M09/M09 A3005 RMK AO2 SNE0852 P0000 T10881089
0250720534001612025010509157+40017-105050FM-15+1564KEIK V0200105N00155000915MN0112655N5-00885-00895999999ADDAA101000021AU110030015AW1715GA1085+000915999GD14991+0009159GE19AGL   +99999+99999GF199999999999000911999999MA1101795084295MW1715REMMET11001/05/25 02:15:02 METAR KEIK 050915Z 01003KT 7SM -SN OVC003 M09/M09 A3006 RMK AO2 SNE0852B0912 P0000 T10881089
0260720534001612025010509357+40017-105050FM-15+1564KEIK V0209999C00005001225MN0144845N5-00885-00895999999ADDAA101000021AU110030015AW1715GA1085+001225999GD14991+0012259GE19AGL   +99999+99999GF199999999999001221999999MA1101835084325MW1715REMMET12001/05/25 02:35:02 METAR KEIK 050935Z 00000KT 9SM -SN OVC004 M09/M09 A3007 RMK AO2 SNE0852B0912E0923B0925 P0000 T10881089
0193720534001612025010509557+40017-105050FM-15+1564KEIK V0209999C00005001225MN0144845N5-00885-00895999999ADDGA1085+001225999GD14991+0012259GE19AGL   +99999+99999GF199999999999001221999999MA1101835084325REMMET08701/05/25 02:55:02 METAR KEIK 050955Z 00000KT 9SM OVC004 M09/M09 A3007 RMK AO2 T10881089
0194720534001612025010510157+40017-105050FM-15+1564KEIK V0209999C00005000915MN0160935N5-00865-00875999999ADDGA1085+000915999GD14991+0009159GE19AGL   +99999+99999GF199999999999000911999999MA1101835084325REMMET08801/05/25 03:15:02 METAR KEIK 051015Z 00000KT 10SM OVC003 M09/M09 A3007 RMK AO2 T10861087
0194720534001612025010510357+40017-105050FM-15+1564KEIK V0209999C00005000915MN0160935N5-00865-00875999999ADDGA1085+000915999GD14991+0009159GE19AGL   +99999+99999GF199999999999000911999999MA1101865084345REMMET08801/05/25 03:35:02 METAR KEIK 051035Z 00000KT 10SM OVC003 M09/M09 A3008 RMK AO2 T10861087
0206720534001612025010510557+40017-105050FM-15+1564KEIK V0209999C00005001225MN0160935N5-00865-00875999999ADDGA1085+001225999GD14991+0012251GE19AGL   +99999+99999GF199999999999001221999999MA1101865084345REMMET10001/05/25 03:55:02 METAR KEIK 051055Z 00000KT 10SM OVC004 M09/M09 A3008 RMK AO2 CIG 003V005 T10861087
0206720534001612025010511157+40017-105050FM-15+1564KEIK V0209999C00005001525MN0160935N5-00855-00865999999ADDGA1085+001525999GD14991+0015251GE19AGL   +99999+99999GF199999999999001521999999MA1101905084375REMMET10001/05/25 04:15:02 METAR KEIK 051115Z 00000KT 10SM OVC005 M09/M09 A3009 RMK AO2 CIG 004V006 T10851086
0206720534001612025010511357+40017-105050FM-15+1564KEIK V0209999C00005001525MN0160935N5-00855-00865999999ADDGA1085+001525999GD14991+0015251GE19AGL   +99999+99999GF199999999999001521999999MA1101905084375REMMET10001/05/25 04:35:02 METAR KEIK 051135Z 00000KT 10SM OVC005 M08/M09 A3009 RMK AO2 CIG 004V006 T10851086
0270720534001612025010511557+40017-105050FM-15+1564KEIK V0209999C00005001525MN0160935N5-00845-00855999999ADDGA1075+001525999GA2075+008535999GA3085+024385999GD13991+0015259GD23991+0085359GD34991+0243859GE19AGL   +99999+99999GF199999999999001521999999MA1101905084375REMMET10201/05/25 04:55:02 METAR KEIK 051155Z 00000KT 10SM BKN005 BKN028 OVC080 M08/M09 A3009 RMK AO2 T10841085
0270720534001612025010512157+40017-105050FM-15+1564KEIK V0209999C00005008235MN0160935N5-00875-00885999999ADDGA1025+001835999GA2075+008235999GA3075+024385999GD11991+0018359GD23991+0082359GD33991+0243859GE19AGL   +99999+99999GF199999999999001831999999MA1101935084405REMMET10201/05/25 05:15:02 METAR KEIK 051215Z 00000KT 10SM FEW006 BKN027 BKN080 M09/M09 A3010 RMK AO2 T10871088
0270720534001612025010512357+40017-105050FM-15+1564KEIK V0209999C00005021345MN0160935N5-00955-00985999999ADDGA1025+008235999GA2075+021345999GA3085+024385999GD11991+0082359GD23991+0213459GD34991+0243859GE19AGL   +99999+99999GF199999999999008231999999MA1101965084435REMMET10201/05/25 05:35:02 METAR KEIK 051235Z 00000KT 10SM FEW027 BKN070 OVC080 M10/M10 A3011 RMK AO2 T10951098
0232720534001612025010512557+40017-105050FM-15+1564KEIK V0202005N00155019815MN0160935N5-00945-00965999999ADDGA1075+019815999GA2085+025915999GD13991+0198159GD24991+0259159GE19AGL   +99999+99999GF199999999999019811999999MA1101935084405REMMET09501/05/25 05:55:02 METAR KEIK 051255Z 20003KT 10SM BKN065 OVC085 M09/M10 A3010 RMK AO2 T10941096
0270720534001612025010513157+40017-105050FM-15+1564KEIK V0209999C00005021345MN0160935N5-00945-00975999999ADDGA1025+002445999GA2075+021345999GA3075+025915999GD11991+0024459GD23991+0213459GD33991+0259159GE19AGL   +99999+99999GF199999999999002441999999MA1102005084465REMMET10201/05/25 06:15:02 METAR KEIK 051315Z 00000KT 10SM FEW008 BKN070 BKN085 M09/M10 A3012 RMK AO2 T10941097
0270720534001612025010513357+40017-105050FM-15+1564KEIK V0209999C00005002445MN0160935N5-00945-00975999999ADDGA1075+002445999GA2075+007925999GA3075+021345999GD13991+0024459GD23991+0079259GD33991+0213459GE19AGL   +99999+99999GF199999999999002441999999MA1102005084465REMMET10201/05/25 06:35:02 METAR KEIK 051335Z 00000KT 10SM BKN008 BKN026 BKN070 M09/M10 A3012 RMK AO2 T10941097
0194720534001612025010513557+40017-105050FM-15+1564KEIK V0200805N00265002135MN0160935N5-00975-01005999999ADDGA1075+002135999GD13991+0021359GE19AGL   +99999+99999GF199999999999002131999999MA1102035084495REMMET08801/05/25 06:55:02 METAR KEIK 051355Z 08005KT 10SM BKN007 M10/M10 A3013 RMK AO2 T10971100
0213720534001612025010514157+40017-105050FM-15+1564KEIK V0209999C000052200059N0160935N5-00975-01005999999ADDGA1045+002135999GD12991+0021359GE19AGL   +99999+99999GF104995999999002131999999MA1102035084495REMMET08801/05/25 07:15:02 METAR KEIK 051415Z 00000KT 10SM SCT007 M10/M10 A3013 RMK AO2 T10971100EQDD01      0ADE726
0213720534001612025010514357+40017-105050FM-15+1564KEIK V0209999C000052200059N0160935N5-01105-01145999999ADDGA1045+006105999GD12991+0061059GE19AGL   +99999+99999GF104995999999006101999999MA1102035084495REMMET08801/05/25 07:35:02 METAR KEIK 051435Z 00000KT 10SM SCT020 M11/M11 A3013 RMK AO2 T11101114EQDD01      0ADE726
0242720534001612025010514557+40017-105050FM-15+1564KEIK V0209999C00005008535MN0160935N5-01065-01105999999ADDGA1045+006105999GA2075+008535999GD12991+0061059GD23991+0085359GE19AGL   +99999+99999GF199999999999006101999999MA1102075084525REMMET10501/05/25 07:55:02 METAR KEIK 051455Z 00000KT 10SM SCT020 BKN028 M11/M11 A3014 RMK AO2 BKN V SCT T11061110
0213720534001612025010515157+40017-105050FM-15+1564KEIK V0209999C000052200059N0160935N5-00955-00975999999ADDGA1025+006405999GD11991+0064059GE19AGL   +99999+99999GF102995999999006401999999MA1102075084525REMMET08801/05/25 08:15:02 METAR KEIK 051515Z 00000KT 10SM FEW021 M09/M10 A3014 RMK AO2 T10951097EQDD01      0ADE726
0169720534001612025010515357+40017-105050FM-15+1564KEIK V0201305N001552200059N0160935N5-00845-00855999999ADDGA1005+999999999GD10991+9999999GF100991999999999999999999MA1102075084525REMMET08501/05/25 08:35:02 METAR KEIK 051535Z 13003KT 10SM CLR M08/M09 A3014 RMK AO2 T10841085
0169720534001612025010515557+40017-105050FM-15+1564KEIK V0201305N002152200059N0160935N5-00775-00775999999ADDGA1005+999999999GD10991+9999999GF100991999999999999999999MA1102105084555REMMET08501/05/25 08:55:02 METAR KEIK 051555Z 13004KT 10SM CLR M08/M08 A3015 RMK AO2 T10771077
0169720534001612025010516157+40017-105050FM-15+1564KEIK V0201605N002152200059N0160935N5-00715-00715999999ADDGA1005+999999999GD10991+9999999GF100991999999999999999999MA1102105084555REMMET08501/05/25 09:15:02 METAR KEIK 051615Z 16004KT 10SM CLR M07/M07 A3015 RMK AO2 T10711071
0289720534001612025010516357+40017-105050FM-15+1564KEIK V0201305N002152200059N0160935N5-00665-00665999999ADDGA1025+003355999GA2045+024385999GA3045+030485999GD11991+0033559GD22991+0243859GD32991+0304859GE19AGL   +99999+99999GF104995999999003351999999MA1102135084585REMMET10201/05/25 09:35:02 METAR KEIK 051635Z 13004KT 10SM FEW011 SCT080 SCT100 M07/M07 A3016 RMK AO2 T10661066EQDD01      0ADE726
0251720534001612025010516557+40017-105050FM-15+1564KEIK V0209999V002152200059N0160935N5-00665-00675999999ADDGA1045+003665999GA2045+030485999GD12991+0036659GD22991+0304859GE19AGL   +99999+99999GF104995999999003661999999MA1102175084615REMMET09501/05/25 09:55:02 METAR KEIK 051655Z VRB04KT 10SM SCT012 SCT100 M07/M07 A3017 RMK AO2 T10661067EQDD01      0ADE726
0213720534001612025010517157+40017-105050FM-15+1564KEIK V0201205N002152200059N0160935N5-00585-00695999999ADDGA1045+004885999GD12991+0048859GE19AGL   +99999+99999GF104995999999004881999999MA1102175084615REMMET08801/05/25 10:15:02 METAR KEIK 051715Z 12004KT 10SM SCT016 M06/M07 A3017 RMK AO2 T10581069EQDD01      0ADE726
0206720534001612025010517357+40017-105050FM-15+1564KEIK V0209999V00155004575MN0160935N5-00515-00665999999ADDGA1075+004575999GD13991+0045751GE19AGL   +99999+99999GF199999999999004571999999MA1102175084615REMMET10001/05/25 10:35:02 METAR KEIK 051735Z VRB03KT 10SM BKN015 M05/M07 A3017 RMK AO2 CIG 014V019 T10511066
0206720534001612025010517557+40017-105050FM-15+1564KEIK V0201205N00215004885MN0160935N5-00535-00755999999ADDGA1085+004885999GD14991+0048851GE19AGL   +99999+99999GF199999999999004881999999MA1102175084615REMMET10001/05/25 10:55:02 METAR KEIK 051755Z 12004KT 10SM OVC016 M05/M07 A3017 RMK AO2 CIG 014V018 T10531075
0194720534001612025010518157+40017-105050FM-15+1564KEIK V0201705N00215004885MN0160935N5-00515-00735999999ADDGA1085+004885999GD14991+0048859GE19AGL   +99999+99999GF199999999999004881999999MA1102135084585REMMET08801/05/25 11:15:02 METAR KEIK 051815Z 17004KT 10SM OVC016 M05/M07 A3016 RMK AO2 T10511073
0194720534001612025010518357+40017-105050FM-15+1564KEIK V0209999V00215004885MN0160935N5-00505-00775999999ADDGA1085+004885999GD14991+0048859GE19AGL   +99999+99999GF199999999999004881999999MA1102105084555REMMET08801/05/25 11:35:02 METAR KEIK 051835Z VRB04KT 10SM OVC016 M05/M08 A3015 RMK AO2 T10501077
0194720534001612025010518557+40017-105050FM-15+1564KEIK V0201405N00265004885MN0160935N5-00405-00705999999ADDGA1085+004885999GD14991+0048859GE19AGL   +99999+99999GF199999999999004881999999MA1102075084525REMMET08801/05/25 11:55:02 METAR KEIK 051855Z 14005KT 10SM OVC016 M04/M07 A3014 RMK AO2 T10401070
0213720534001612025010519157+40017-105050FM-15+1564KEIK V0209999C000052200059N0160935N5-00395-00765999999ADDGA1045+005185999GD12991+0051859GE19AGL   +99999+99999GF104995999999005181999999MA1102035084495REMMET08801/05/25 12:15:02 METAR KEIK 051915Z 00000KT 10SM SCT017 M04/M08 A3013 RMK AO2 T10391076EQDD01      0ADE726
0213720534001612025010519357+40017-105050FM-15+1564KEIK V0201605N002152200059N0160935N5-00295-00735999999ADDGA1025+005495999GD11991+0054959GE19AGL   +99999+99999GF102995999999005491999999MA1102005084465REMMET08801/05/25 12:35:02 METAR KEIK 051935Z 16004KT 10SM FEW018 M03/M07 A3012 RMK AO2 T10291073EQDD01      0ADE726
0169720534001612025010519557+40017-105050FM-15+1564KEIK V0202105N002152200059N0160935N5-00295-00755999999ADDGA1005+999999999GD10991+9999999GF100991999999999999999999MA1101965084435REMMET08501/05/25 12:55:02 METAR KEIK 051955Z 21004KT 10SM CLR M03/M07 A3011 RMK AO2 T10291075
0213720534001612025010520157+40017-105050FM-15+1564KEIK V0209999C000052200059N0160935N5-00205-00755999999ADDGA1025+006405999GD11991+0064059GE19AGL   +99999+99999GF102995999999006401999999MA1101965084435REMMET08801/05/25 13:15:02 METAR KEIK 052015Z 00000KT 10SM FEW021 M02/M07 A3011 RMK AO2 T10201075EQDD01      0ADE726
0169720534001612025010520357+40017-105050FM-15+1564KEIK V0201405N001552200059N0160935N5-00155-00735999999ADDGA1005+999999999GD10991+9999999GF100991999999999999999999MA1101965084435REMMET08501/05/25 13:35:02 METAR KEIK 052035Z 14003KT 10SM CLR M02/M07 A3011 RMK AO2 T10151073
0251720534001612025010520557+40017-105050FM-15+1564KEIK V0209999C000052200059N0160935N5-00095-00745999999ADDGA1025+024385999GA2045+027435999GD11991+0243859GD22991+0274359GE19AGL   +99999+99999GF104995999999024381999999MA1101965084435REMMET09501/05/25 13:55:02 METAR KEIK 052055Z 00000KT 10SM FEW080 SCT090 M01/M07 A3011 RMK AO2 T10091074EQDD01      0ADE726
0213720534001612025010521157+40017-105050FM-15+1564KEIK V0209999C000052200059N0160935N5-00145-00765999999ADDGA1045+025915999GD12991+0259159GE19AGL   +99999+99999GF104995999999025911999999MA1101965084435REMMET08801/05/25 14:15:02 METAR KEIK 052115Z 00000KT 10SM SCT085 M01/M08 A3011 RMK AO2 T10141076EQDD01      0ADE726
0232720534001612025010521357+40017-105050FM-15+1564KEIK V0202505N00215027435MN0160935N5-00105-00765999999ADDGA1045+022865999GA2075+027435999GD12991+0228659GD23991+0274359GE19AGL   +99999+99999GF199999999999022861999999MA1101965084435REMMET09501/05/25 14:35:02 METAR KEIK 052135Z 25004KT 10SM SCT075 BKN090 M01/M08 A3011 RMK AO2 T10101076
0232720534001612025010521557+40017-105050FM-15+1564KEIK V0209999C00005027435MN0160935N5-00115-00795999999ADDGA1045+022865999GA2085+027435999GD12991+0228659GD24991+0274359GE19AGL   +99999+99999GF199999999999022861999999MA1102005084465REMMET09501/05/25 14:55:02 METAR KEIK 052155Z 00000KT 10SM SCT075 OVC090 M01/M08 A3012 RMK AO2 T10111079
0232720534001612025010522157+40017-105050FM-15+1564KEIK V0209999C00005027435MN0160935N5-00155-00795999999ADDGA1025+022865999GA2085+027435999GD11991+0228659GD24991+0274359GE19AGL   +99999+99999GF199999999999022861999999MA1102005084465REMMET09501/05/25 15:15:02 METAR KEIK 052215Z 00000KT 10SM FEW075 OVC090 M02/M08 A3012 RMK AO2 T10151079
0232720534001612025010522357+40017-105050FM-15+1564KEIK V0209999C00005027435MN0160935N5-00075-00805999999ADDGA1025+022865999GA2085+027435999GD11991+0228659GD24991+0274359GE19AGL   +99999+99999GF199999999999022861999999MA1102005084465REMMET09501/05/25 15:35:02 METAR KEIK 052235Z 00000KT 10SM FEW075 OVC090 M01/M08 A3012 RMK AO2 T10071080
0194720534001612025010522557+40017-105050FM-15+1564KEIK V0200505N00155027435MN0160935N5-00115-00815999999ADDGA1085+027435999GD14991+0274359GE19AGL   +99999+99999GF199999999999027431999999MA1102035084495REMMET08801/05/25 15:55:02 METAR KEIK 052255Z 05003KT 10SM OVC090 M01/M08 A3013 RMK AO2 T10111081
0194720534001612025010523157+40017-105050FM-15+1564KEIK V0209999C00005028965MN0160935N5-00165-00825999999ADDGA1085+028965999GD14991+0289659GE19AGL   +99999+99999GF199999999999028961999999MA1102075084525REMMET08801/05/25 16:15:02 METAR KEIK 052315Z 00000KT 10SM OVC095 M02/M08 A3014 RMK AO2 T10161082
0194720534001612025010523357+40017-105050FM-15+1564KEIK V0201005N00155030485MN0160935N5-00255-00835999999ADDGA1085+030485999GD14991+0304859GE19AGL   +99999+99999GF199999999999030481999999MA1102075084525REMMET08801/05/25 16:35:02 METAR KEIK 052335Z 10003KT 10SM OVC100 M02/M08 A3014 RMK AO2 T10251083
0193720534001612025010523557+40017-105050FM-15+1564KEIK V0200905N00215030485MN0144845N5-00435-00875999999ADDGA1075+030485999GD13991+0304859GE19AGL   +99999+99999GF199999999999030481999999MA1102105084555REMMET08701/05/25 16:55:02 METAR KEIK 052355Z 09004KT 9SM BKN100 M04/M09 A3015 RMK AO2 T10431087
0169720534001612025010600157+40017-105050FM-15+1564KEIK V0209999C000052200059N0160935N5-00595-00935999999ADDGA1005+999999999GD10991+9999999GF100991999999999999999999MA1102105084555REMMET08501/05/25 17:15:01 METAR KEIK 060015Z 00000KT 10SM CLR M06/M09 A3015 RMK AO2 T10591093
0169720534001612025010600357+40017-105050FM-15+1564KEIK V0200805N001552200059N0160935N5-00565-00895999999ADDGA1005+999999999GD10991+9999999GF100991999999999999999999MA1102105084555REMMET08501/05/25 17:35:01 METAR KEIK 060035Z 08003KT 10SM CLR M06/M09 A3015 RMK AO2 T10561089
0169720534001612025010600557+40017-105050FM-15+1564KEIK V0209999C000052200059N0160935N5-00525-00895999999ADDGA1005+999999999GD10991+9999999GF100991999999999999999999MA1102105084555REMMET08501/05/25 17:55:01 METAR KEIK 060055Z 00000KT 10SM CLR M05/M09 A3015 RMK AO2 T10521089
0169720534001612025010601157+40017-105050FM-15+1564KEIK V0209999C000052200059N0160935N5-00665-00965999999ADDGA1005+999999999GD10991+9999999GF100991999999999999999999MA1102105084555REMMET08501/05/25 18:15:01 METAR KEIK 060115Z 00000KT 10SM CLR M07/M10 A3015 RMK AO2 T10661096
0169720534001612025010601357+40017-105050FM-15+1564KEIK V0209999C000052200059N0160935N5-00785-01025999999ADDGA1005+999999999GD10991+9999999GF100991999999999999999999MA1102105084555REMMET08501/05/25 18:35:01 METAR KEIK 060135Z 00000KT 10SM CLR M08/M10 A3015 RMK AO2 T10781102
0169720534001612025010601557+40017-105050FM-15+1564KEIK V0209999C000052200059N0160935N5-00805-01025999999ADDGA1005+999999999GD10991+9999999GF100991999999999999999999MA1102105084555REMMET08501/05/25 18:55:01 METAR KEIK 060155Z 00000KT 10SM CLR M08/M10 A3015 RMK AO2 T10801102
0169720534001612025010602157+40017-105050FM-15+1564KEIK V0209999C000052200059N0160935N5-00925-01115999999ADDGA1005+999999999GD10991+9999999GF100991999999999999999999MA1102135084585REMMET08501/05/25 19:15:01 METAR KEIK 060215Z 00000KT 10SM CLR M09/M11 A3016 RMK AO2 T10921111
0168720534001612025010602357+40017-105050FM-15+1564KEIK V0209999C000052200059N0144845N5-00915-01075999999ADDGA1005+999999999GD10991+9999999GF100991999999999999999999MA1102135084585REMMET08401/05/25 19:35:01 METAR KEIK 060235Z 00000KT 9SM CLR M09/M11 A3016 RMK AO2 T10911107
0168720534001612025010602557+40017-105050FM-15+1564KEIK V0209999C000052200059N0144845N5-00825-00995999999ADDGA1005+999999999GD10991+9999999GF100991999999999999999999MA1102175084615REMMET08401/05/25 19:55:01 METAR KEIK 060255Z 00000KT 9SM CLR M08/M10 A3017 RMK AO2 T10821099
0169720534001612025010603157+40017-105050FM-15+1564KEIK V0209999C000052200059N0160935N5-00885-01035999999ADDGA1005+999999999GD10991+9999999GF100991999999999999999999MA1102135084585REMMET08501/05/25 20:15:02 METAR KEIK 060315Z 00000KT 10SM CLR M09/M10 A3016 RMK AO2 T10881103
0168720534001612025010603357+40017-105050FM-15+1564KEIK V0209999C000052200059N0144845N5-00945-01085999999ADDGA1005+999999999GD10991+9999999GF100991999999999999999999MA1102175084615REMMET08401/05/25 20:35:02 METAR KEIK 060335Z 00000KT 9SM CLR M09/M11 A3017 RMK AO2 T10941108
0169720534001612025010603557+40017-105050FM-15+1564KEIK V0209999C000052200059N0160935N5-00975-01095999999ADDGA1005+999999999GD10991+9999999GF100991999999999999999999MA1102175084615REMMET08501/05/25 20:55:02 METAR KEIK 060355Z 00000KT 10SM CLR M10/M11 A3017 RMK AO2 T10971109
0168720534001612025010604157+40017-105050FM-15+1564KEIK V0209999C000052200059N0144845N5-00995-01105999999ADDGA1005+999999999GD10991+9999999GF100991999999999999999999MA1102175084615REMMET08401/05/25 21:15:02 METAR KEIK 060415Z 00000KT 9SM CLR M10/M11 A3017 RMK AO2 T10991110
0168720534001612025010604357+40017-105050FM-15+1564KEIK V0209999C000052200059N0144845N5-01015-01135999999ADDGA1005+999999999GD10991+9999999GF100991999999999999999999MA1102175084615REMMET08401/05/25 21:35:02 METAR KEIK 060435Z 00000KT 9SM CLR M10/M11 A3017 RMK AO2 T11011113
0168720534001612025010604557+40017-105050FM-15+1564KEIK V0209999C000052200059N0144845N5-01055-01125999999ADDGA1005+999999999GD10991+9999999GF100991999999999999999999MA1102205084645REMMET08401/05/25 21:55:02 METAR KEIK 060455Z 00000KT 9SM CLR M10/M11 A3018 RMK AO2 T11051112
0168720534001612025010605157+40017-105050FM-15+1564KEIK V0209999C000052200059N0144845N5-01025-01115999999ADDGA1005+999999999GD10991+9999999GF100991999999999999999999MA1102205084645REMMET08401/05/25 22:15:02 METAR KEIK 060515Z 00000KT 9SM CLR M10/M11 A3018 RMK AO2 T11021111
0168720534001612025010605357+40017-105050FM-15+1564KEIK V0209999C000052200059N0128755N5-01005-01075999999ADDGA1005+999999999GD10991+9999999GF100991999999999999999999MA1102175084615REMMET08401/05/25 22:35:02 METAR KEIK 060535Z 00000KT 8SM CLR M10/M11 A3017 RMK AO2 T11001107
0168720534001612025010605557+40017-105050FM-15+1564KEIK V0209999C000052200059N0144845N5-01085-01175999999ADDGA1005+999999999GD10991+9999999GF100991999999999999999999MA1102175084615REMMET08401/05/25 22:55:02 METAR KEIK 060555Z 00000KT 9SM CLR M11/M12 A3017 RMK AO2 T11081117
0168720534001612025010606157+40017-105050FM-15+1564KEIK V0202005N001552200059N0144845N5-01045-01145999999ADDGA1005+999999999GD10991+9999999GF100991999999999999999999MA1102135084585REMMET08401/05/25 23:15:02 METAR KEIK 060615Z 20003KT 9SM CLR M10/M11 A3016 RMK AO2 T11041114
0168720534001612025010606357+40017-105050FM-15+1564KEIK V0209999C000052200059N0144845N5-00945-01035999999ADDGA1005+999999999GD10991+9999999GF100991999999999999999999MA1102135084585REMMET08401/05/25 23:35:02 METAR KEIK 060635Z 00000KT 9SM CLR M09/M10 A3016 RMK AO2 T10941103
0169720534001612025010606557+40017-105050FM-15+1564KEIK V0209999C000052200059N0160935N5-01065-01165999999ADDGA1005+999999999GD10991+9999999GF100991999999999999999999MA1102135084585REMMET08501/05/25 23:55:02 METAR KEIK 060655Z 00000KT 10SM CLR M11/M12 A3016 RMK AO2 T11061116
002772053400161202501060659O+40017-105050SOD  +1564KEIK V020999999999999999999999999999+99999+99999999999ADDAT1AU18SN  5AT2AU13BR  5
0169720534001612025010607157+40017-105050FM-15+1564KEIK V0200905N003152200059N0160935N5-01015-01095999999ADDGA1005+999999999GD10991+9999999GF100991999999999999999999MA1102135084585REMMET08501/06/25 00:15:02 METAR KEIK 060715Z 09006KT 10SM CLR M10/M11 A3016 RMK AO2 T11011109
0169720534001612025010607357+40017-105050FM-15+1564KEIK V0200805N001552200059N0160935N5-00915-01015999999ADDGA1005+999999999GD10991+9999999GF100991999999999999999999MA1102175084615REMMET08501/06/25 00:35:02 METAR KEIK 060735Z 08003KT 10SM CLR M09/M10 A3017 RMK AO2 T10911101
0169720534001612025010607557+40017-105050FM-15+1564KEIK V0209999C000052200059N0160935N5-00905-00995999999ADDGA1005+999999999GD10991+9999999GF100991999999999999999999MA1102135084585REMMET08501/06/25 00:55:02 METAR KEIK 060755Z 00000KT 10SM CLR M09/M10 A3016 RMK AO2 T10901099
0169720534001612025010608157+40017-105050FM-15+1564KEIK V0209999C000052200059N0160935N5-00985-01075999999ADDGA1005+999999999GD10991+9999999GF100991999999999999999999MA1102175084615REMMET08501/06/25 01:15:02 METAR KEIK 060815Z 00000KT 10SM CLR M10/M11 A3017 RMK AO2 T10981107
0169720534001612025010608357+40017-105050FM-15+1564KEIK V0202005N001552200059N0160935N5-01075-01175999999ADDGA1005+999999999GD10991+9999999GF100991999999999999999999MA1102175084615REMMET08501/06/25 01:35:02 METAR KEIK 060835Z 20003KT 10SM CLR M11/M12 A3017 RMK AO2 T11071117
0169720534001612025010608557+40017-105050FM-15+1564KEIK V0203105N001552200059N0160935N5-01045-01125999999ADDGA1005+999999999GD10991+9999999GF100991999999999999999999MA1102175084615REMMET08501/06/25 01:55:02 METAR KEIK 060855Z 31003KT 10SM CLR M10/M11 A3017 RMK AO2 T11041112
0169720534001612025010609157+40017-105050FM-15+1564KEIK V0209999C000052200059N0160935N5-00995-01095999999ADDGA1005+999999999GD10991+9999999GF100991999999999999999999MA1102175084615REMMET08501/06/25 02:15:02 METAR KEIK 060915Z 00000KT 10SM CLR M10/M11 A3017 RMK AO2 T10991109
0169720534001612025010609357+40017-105050FM-15+1564KEIK V0209999C000052200059N0160935N5-01015-01115999999ADDGA1005+999999999GD10991+9999999GF100991999999999999999999MA1102205084645REMMET08501/06/25 02:35:02 METAR KEIK 060935Z 00000KT 10SM CLR M10/M11 A3018 RMK AO2 T11011111
0169720534001612025010609557+40017-105050FM-15+1564KEIK V0209999C000052200059N0160935N5-01015-01125999999ADDGA1005+999999999GD10991+9999999GF100991999999999999999999MA1102205084645REMMET08501/06/25 02:55:02 METAR KEIK 060955Z 00000KT 10SM CLR M10/M11 A3018 RMK AO2 T11011112
0213720534001612025010610157+40017-105050FM-15+1564KEIK V0209999C000052200059N0160935N5-01095-01225999999ADDGA1025+036585999GD11991+0365859GE19AGL   +99999+99999GF102995999999036581999999MA1102245084665REMMET08801/06/25 03:15:02 METAR KEIK 061015Z 00000KT 10SM FEW120 M11/M12 A3019 RMK AO2 T11091122EQDD01      0ADE726
0213720534001612025010610357+40017-105050FM-15+1564KEIK V0209999C000052200059N0160935N5-01165-01245999999ADDGA1025+036585999GD11991+0365859GE19AGL   +99999+99999GF102995999999036581999999MA1102205084645REMMET08801/06/25 03:35:02 METAR KEIK 061035Z 00000KT 10SM FEW120 M12/M12 A3018 RMK AO2 T11161124EQDD01      0ADE726
0169720534001612025010610557+40017-105050FM-15+1564KEIK V0209999C000052200059N0160935N5-01185-01275999999ADDGA1005+999999999GD10991+9999999GF100991999999999999999999MA1102175084615REMMET08501/06/25 03:55:02 METAR KEIK 061055Z 00000KT 10SM CLR M12/M13 A3017 RMK AO2 T11181127
0169720534001612025010611157+40017-105050FM-15+1564KEIK V0209999C000052200059N0160935N5-01145-01215999999ADDGA1005+999999999GD10991+9999999GF100991999999999999999999MA1102205084645REMMET08501/06/25 04:15:02 METAR KEIK 061115Z 00000KT 10SM CLR M11/M12 A3018 RMK AO2 T11141121
0169720534001612025010611357+40017-105050FM-15+1564KEIK V0209999C000052200059N0160935N5-01125-01205999999ADDGA1005+999999999GD10991+9999999GF100991999999999999999999MA1102175084615REMMET08501/06/25 04:35:02 METAR KEIK 061135Z 00000KT 10SM CLR M11/M12 A3017 RMK AO2 T11121120
0169720534001612025010611557+40017-105050FM-15+1564KEIK V0209999C000052200059N0160935N5-01125-01225999999ADDGA1005+999999999GD10991+9999999GF100991999999999999999999MA1102175084615REMMET08501/06/25 04:55:02 METAR KEIK 061155Z 00000KT 10SM CLR M11/M12 A3017 RMK AO2 T11121122
0169720534001612025010612157+40017-105050FM-15+1564KEIK V0209999C000052200059N0160935N5-01195-01295999999ADDGA1005+999999999GD10991+9999999GF100991999999999999999999MA1102175084615REMMET08501/06/25 05:15:02 METAR KEIK 061215Z 00000KT 10SM CLR M12/M13 A3017 RMK AO2 T11191129
0169720534001612025010612357+40017-105050FM-15+1564KEIK V0209999C000052200059N0160935N5-01215-01285999999ADDGA1005+999999999GD10991+9999999GF100991999999999999999999MA1102175084615REMMET08501/06/25 05:35:02 METAR KEIK 061235Z 00000KT 10SM CLR M12/M13 A3017 RMK AO2 T11211128
0169720534001612025010612557+40017-105050FM-15+1564KEIK V0209999C000052200059N0160935N5-01115-01195999999ADDGA1005+999999999GD10991+9999999GF100991999999999999999999MA1102205084645REMMET08501/06/25 05:55:02 METAR KEIK 061255Z 00000KT 10SM CLR M11/M12 A3018 RMK AO2 T11111119
0212720534001612025010613157+40017-105050FM-15+1564KEIK V0209999C000052200059N0144845N5-01135-01205999999ADDGA1045+028965999GD12991+0289659GE19AGL   +99999+99999GF104995999999028961999999MA1102205084645REMMET08701/06/25 06:15:02 METAR KEIK 061315Z 00000KT 9SM SCT095 M11/M12 A3018 RMK AO2 T11131120EQDD01      0ADE726
0194720534001612025010613357+40017-105050FM-15+1564KEIK V0209999V00155028965MN0160935N5-01035-01115999999ADDGA1075+028965999GD13991+0289659GE19AGL   +99999+99999GF199999999999028961999999MA1102205084645REMMET08801/06/25 06:35:02 METAR KEIK 061335Z VRB03KT 10SM BKN095 M10/M11 A3018 RMK AO2 T11031111
0213720534001612025010613557+40017-105050FM-15+1564KEIK V0202405N002152200059N0160935N5-01015-01095999999ADDGA1045+027435999GD12991+0274359GE19AGL   +99999+99999GF104995999999027431999999MA1102205084645REMMET08801/06/25 06:55:02 METAR KEIK 061355Z 24004KT 10SM SCT090 M10/M11 A3018 RMK AO2 T11011109EQDD01      0ADE726
0212720534001612025010614157+40017-105050FM-15+1564KEIK V0209999C000052200059N0144845N5-01075-01155999999ADDGA1025+027435999GD11991+0274359GE19AGL   +99999+99999GF102995999999027431999999MA1102245084665REMMET08701/06/25 07:15:02 METAR KEIK 061415Z 00000KT 9SM FEW090 M11/M12 A3019 RMK AO2 T11071115EQDD01      0ADE726
0169720534001612025010614357+40017-105050FM-15+1564KEIK V0209999C000052200059N0160935N5-01075-01145999999ADDGA1005+999999999GD10991+9999999GF100991999999999999999999MA1102205084645REMMET08501/06/25 07:35:02 METAR KEIK 061435Z 00000KT 10SM CLR M11/M11 A3018 RMK AO2 T11071114
0168720534001612025010614557+40017-105050FM-15+1564KEIK V0209999C000052200059N0144845N5-01035-01135999999ADDGA1005+999999999GD10991+9999999GF100991999999999999999999MA1102245084665REMMET08401/06/25 07:55:02 METAR KEIK 061455Z 00000KT 9SM CLR M10/M11 A3019 RMK AO2 T11031113
0168720534001612025010615157+40017-105050FM-15+1564KEIK V0209999C000052200059N0144845N5-00825-00965999999ADDGA1005+999999999GD10991+9999999GF100991999999999999999999MA1102275084695REMMET08401/06/25 08:15:02 METAR KEIK 061515Z 00000KT 9SM CLR M08/M10 A3020 RMK AO2 T10821096
0169720534001612025010615357+40017-105050FM-15+1564KEIK V0209999C000052200059N0160935N5-00665-00875999999ADDGA1005+999999999GD10991+9999999GF100991999999999999999999MA1102275084695REMMET08501/06/25 08:35:02 METAR KEIK 061535Z 00000KT 10SM CLR M07/M09 A3020 RMK AO2 T10661087
0169720534001612025010615557+40017-105050FM-15+1564KEIK V0209999C000052200059N0160935N5-00455-00725999999ADDGA1005+999999999GD10991+9999999GF100991999999999999999999MA1102305084725REMMET08501/06/25 08:55:02 METAR KEIK 061555Z 00000KT 10SM CLR M04/M07 A3021 RMK AO2 T10451072
0169720534001612025010616157+40017-105050FM-15+1564KEIK V0209999C000052200059N0160935N5-00285-00625999999ADDGA1005+999999999GD10991+9999999GF100991999999999999999999MA1102345084755REMMET08501/06/25 09:15:02 METAR KEIK 061615Z 00000KT 10SM CLR M03/M06 A3022 RMK AO2 T10281062
0169720534001612025010616357+40017-105050FM-15+1564KEIK V0209999C000052200059N0160935N5-00225-00625999999ADDGA1005+999999999GD10991+9999999GF100991999999999999999999MA1102345084755REMMET08501/06/25 09:35:02 METAR KEIK 061635Z 00000KT 10SM CLR M02/M06 A3022 RMK AO2 T10221062
0169720534001612025010616557+40017-105050FM-15+1564KEIK V0209999C000052200059N0160935N5-00115-00535999999ADDGA1005+999999999GD10991+9999999GF100991999999999999999999MA1102345084755REMMET08501/06/25 09:55:02 METAR KEIK 061655Z 00000KT 10SM CLR M01/M05 A3022 RMK AO2 T10111053
0169720534001612025010617157+40017-105050FM-15+1564KEIK V0209999C000052200059N0160935N5-00065-00575999999ADDGA1005+999999999GD10991+9999999GF100991999999999999999999MA1102345084755REMMET08501/06/25 10:15:02 METAR KEIK 061715Z 00000KT 10SM CLR M01/M06 A3022 RMK AO2 T10061057
0213720534001612025010617357+40017-105050FM-15+1564KEIK V0209999C000052200059N0160935N5-00105-00535999999ADDGA1045+027435999GD12991+0274359GE19AGL   +99999+99999GF104995999999027431999999MA1102345084755REMMET08801/06/25 10:35:02 METAR KEIK 061735Z 00000KT 10SM SCT090 M01/M05 A3022 RMK AO2 T10101053EQDD01      0ADE726
0232720534001612025010617557+40017-105050FM-15+1564KEIK V0209999C00005030485MN0160935N5+00005-00655999999ADDGA1045+022865999GA2085+030485999GD12991+0228659GD24991+0304859GE19AGL   +99999+99999GF199999999999022861999999MA1102305084725REMMET09501/06/25 10:55:02 METAR KEIK 061755Z 00000KT 10SM SCT075 OVC100 M00/M07 A3021 RMK AO2 T10001065
0231720534001612025010618157+40017-105050FM-15+1564KEIK V0209999V00155022865MN0160935N5+00175-00595999999ADDGA1075+022865999GA2085+030485999GD13991+0228659GD24991+0304859GE19AGL   +99999+99999GF199999999999022861999999MA1102245084665REMMET09401/06/25 11:15:02 METAR KEIK 061815Z VRB03KT 10SM BKN075 OVC100 02/M06 A3019 RMK AO2 T00171059
0269720534001612025010618357+40017-105050FM-15+1564KEIK V0201005N00265022865MN0160935N5+00215-00625999999ADDGA1075+022865999GA2075+030485999GA3085+036585999GD13991+0228659GD23991+0304859GD34991+0365859GE19AGL   +99999+99999GF199999999999022861999999MA1102245084665REMMET10101/06/25 11:35:02 METAR KEIK 061835Z 10005KT 10SM BKN075 BKN100 OVC120 02/M06 A3019 RMK AO2 T00211062
0231720534001612025010618557+40017-105050FM-15+1564KEIK V0200605N00365036585MN0160935N5+00275-00575999999ADDGA1045+022865999GA2085+036585999GD12991+0228659GD24991+0365859GE19AGL   +99999+99999GF199999999999022861999999MA1102205084645REMMET09401/06/25 11:55:02 METAR KEIK 061855Z 06007KT 10SM SCT075 OVC120 03/M06 A3018 RMK AO2 T00271057
0269720534001612025010619157+40017-105050FM-15+1564KEIK V0201005N00365019815MN0160935N5+00275-00595999999ADDGA1075+019815999GA2075+030485999GA3085+036585999GD13991+0198159GD23991+0304859GD34991+0365859GE19AGL   +99999+99999GF199999999999019811999999MA1102175084615REMMET10101/06/25 12:15:02 METAR KEIK 061915Z 10007KT 10SM BKN065 BKN100 OVC120 03/M06 A3017 RMK AO2 T00271059
0284720534001612025010619357+40017-105050FM-15+1564KEIK V0201405N00215024385MN0160935N5+00255-00545999999ADDGA1045+019815999GA2075+024385999GA3075+030485999GD12991+0198159GD23991+0243859GD33991+0304859GD44991+0365819GE19AGL   +99999+99999GF199999999999019811999999MA1102135084585REMMET10101/06/25 12:35:02 METAR KEIK 061935Z 14004KT 10SM SCT065 BKN080 BKN100 02/M05 A3016 RMK AO2 T00251054
0269720534001612025010619557+40017-105050FM-15+1564KEIK V0209999V00155028965MN0160935N5+00225-00555999999ADDGA1045+021345999GA2075+028965999GA3085+036585999GD12991+0213459GD23991+0289659GD34991+0365859GE19AGL   +99999+99999GF199999999999021341999999MA1102135084585REMMET10101/06/25 12:55:02 METAR KEIK 061955Z VRB03KT 10SM SCT070 BKN095 OVC120 02/M06 A3016 RMK AO2 T00221055
0193720534001612025010620157+40017-105050FM-15+1564KEIK V0200905V00365018295MN0160935N5+00255-00515999999ADDGA1085+018295999GD14991+0182959GE19AGL   +99999+99999GF199999999999018291999999MA1102105084555REMMET08701/06/25 13:15:02 METAR KEIK 062015Z 09007KT 10SM OVC060 03/M05 A3015 RMK AO2 T00251051
0193720534001612025010620357+40017-105050FM-15+1564KEIK V0200505N00415019815MN0160935N5+00245-00525999999ADDGA1085+019815999GD14991+0198159GE19AGL   +99999+99999GF199999999999019811999999MA1102105084555REMMET08701/06/25 13:35:02 METAR KEIK 062035Z 05008KT 10SM OVC065 02/M05 A3015 RMK AO2 T00241052
0231720534001612025010620557+40017-105050FM-15+1564KEIK V0200305N00315021345MN0160935N5+00195-00545999999ADDGA1075+021345999GA2085+036585999GD13991+0213459GD24991+0365859GE19AGL   +99999+99999GF199999999999021341999999MA1102105084555REMMET09401/06/25 13:55:02 METAR KEIK 062055Z 03006KT 10SM BKN070 OVC120 02/M05 A3015 RMK AO2 T00191054
0269720534001612025010621157+40017-105050FM-15+1564KEIK V0200505N00315025915MN0160935N5+00185-00535999999ADDGA1025+021345999GA2075+025915999GA3085+036585999GD11991+0213459GD23991+0259159GD34991+0365859GE19AGL   +99999+99999GF199999999999021341999999MA1102105084555REMMET10101/06/25 14:15:02 METAR KEIK 062115Z 05006KT 10SM FEW070 BKN085 OVC120 02/M05 A3015 RMK AO2 T00181053
0231720534001612025010621357+40017-105050FM-15+1564KEIK V0200605N00265036585MN0160935N5+00185-00535999999ADDGA1045+025915999GA2075+036585999GD12991+0259159GD23991+0365859GE19AGL   +99999+99999GF199999999999025911999999MA1102105084555REMMET09401/06/25 14:35:02 METAR KEIK 062135Z 06005KT 10SM SCT085 BKN120 02/M05 A3015 RMK AO2 T00181053
0212720534001612025010621557+40017-105050FM-15+1564KEIK V0200605N003652200059N0160935N5+00155-00545999999ADDGA1025+024385999GD11991+0243859GE19AGL   +99999+99999GF102995999999024381999999MA1102135084585REMMET08701/06/25 14:55:02 METAR KEIK 062155Z 06007KT 10SM FEW080 02/M05 A3016 RMK AO2 T00151054EQDD01      0ADE726
0212720534001612025010622157+40017-105050FM-15+1564KEIK V0200805N002652200059N0160935N5+00145-00555999999ADDGA1025+011585999GD11991+0115859GE19AGL   +99999+99999GF102995999999011581999999MA1102135084585REMMET08701/06/25 15:15:02 METAR KEIK 062215Z 08005KT 10SM FEW038 01/M05 A3016 RMK AO2 T00141055EQDD01      0ADE726
0193720534001612025010622307+40017-105050FM-15+1564KEIK V0200705N00315010975MN0160935N5+00135-00525999999ADDGA1075+010975999GD13991+0109759GE19AGL   +99999+99999GF199999999999010971999999MA1102175084615REMMET08701/06/25 15:30:02 METAR KEIK 062230Z 07006KT 10SM BKN036 01/M05 A3017 RMK AO2 T00131052
0231720534001612025010622557+40017-105050FM-15+1564KEIK V0200805N00465013415MN0160935N5+00035-00485999999ADDGA1045+010975999GA2075+013415999GD12991+0109759GD23991+0134159GE19AGL   +99999+99999GF199999999999010971999999MA1102175084615REMMET09401/06/25 15:55:02 METAR KEIK 062255Z 08009KT 10SM SCT036 BKN044 00/M05 A3017 RMK AO2 T00031048
0193720534001612025010623157+40017-105050FM-15+1564KEIK V0200805N00315012505MN0160935N5+00015-00495999999ADDGA1085+012505999GD14991+0125059GE19AGL   +99999+99999GF199999999999012501999999MA1102205084645REMMET08701/06/25 16:15:02 METAR KEIK 062315Z 08006KT 10SM OVC041 00/M05 A3018 RMK AO2 T00011049
0194720534001612025010623357+40017-105050FM-15+1564KEIK V0200805N00365013115MN0160935N5-00025-00495999999ADDGA1085+013115999GD14991+0131159GE19AGL   +99999+99999GF199999999999013111999999MA1102245084665REMMET08801/06/25 16:35:02 METAR KEIK 062335Z 08007KT 10SM OVC043 M00/M05 A3019 RMK AO2 T10021049
0193720534001612025010623557+40017-105050FM-15+1564KEIK V0201005N00415012805MN0144845N5-00055-00475999999ADDGA1085+012805999GD14991+0128059GE19AGL   +99999+99999GF199999999999012801999999MA1102245084665REMMET08701/06/25 16:55:02 METAR KEIK 062355Z 10008KT 9SM OVC042 M00/M05 A3019 RMK AO2 T10051047
0194720534001612025010700157+40017-105050FM-15+1564KEIK V0200905N00265012505MN0160935N5-00075-00435999999ADDGA1085+012505999GD14991+0125059GE19AGL   +99999+99999GF199999999999012501999999MA1102275084695REMMET08801/06/25 17:15:01 METAR KEIK 070015Z 09005KT 10SM OVC041 M01/M04 A3020 RMK AO2 T10071043
0232720534001612025010700357+40017-105050FM-15+1564KEIK V0200905N00365009145MN0160935N5-00105-00385999999ADDGA1075+009145999GA2085+012195999GD13991+0091459GD24991+0121959GE19AGL   +99999+99999GF199999999999009141999999MA1102305084725REMMET09501/06/25 17:35:01 METAR KEIK 070035Z 09007KT 10SM BKN030 OVC040 M01/M04 A3021 RMK AO2 T10101038
0236720534001612025010700557+40017-105050FM-15+1564KEIK V0201005N00315009755MN0112655N5-00135-00365999999ADDAA101000021AU120090015AW1401AW2415GA1085+009755999GD14991+0097559GE19AGL   +99999+99999GF199999999999009751999999MA1102345084755REMMET09601/06/25 17:55:01 METAR KEIK 070055Z 10006KT 7SM UP OVC032 M01/M04 A3022 RMK AO2 P0000 T10131036
0257720534001612025010701157+40017-105050FM-15+1564KEIK V0201205N00265010065MN0160935N5-00145-00385999999ADDAA101000021GA1045+004575999GA2085+010065999GD12991+0045759GD24991+0100659GE19AGL   +99999+99999GF199999999999004571999999MA1102345084755REMMET10901/06/25 18:15:01 METAR KEIK 070115Z 12005KT 10SM SCT015 OVC033 M01/M04 A3022 RMK AO2 UPE0101 P0000 T10141038
0257720534001612025010701357+40017-105050FM-15+1564KEIK V0201005N00155009755MN0160935N5-00165-00395999999ADDAA101000021GA1025+004575999GA2085+009755999GD11991+0045759GD24991+0097559GE19AGL   +99999+99999GF199999999999004571999999MA1102375084785REMMET10901/06/25 18:35:01 METAR KEIK 070135Z 10003KT 10SM FEW015 OVC032 M02/M04 A3023 RMK AO2 UPE0101 P0000 T10161039
0194720534001612025010701557+40017-105050FM-15+1564KEIK V0201105N00265009455MN0160935N5-00185-00385999999ADDGA1085+009455999GD14991+0094559GE19AGL   +99999+99999GF199999999999009451999999MA1102375084785REMMET08801/06/25 18:55:01 METAR KEIK 070155Z 11005KT 10SM OVC031 M02/M04 A3023 RMK AO2 T10181038
0232720534001612025010702157+40017-105050FM-15+1564KEIK V0201005N00265009455MN0160935N5-00205-00425999999ADDGA1025+007325999GA2085+009455999GD11991+0073259GD24991+0094559GE19AGL   +99999+99999GF199999999999007321999999MA1102405084815REMMET09501/06/25 19:15:01 METAR KEIK 070215Z 10005KT 10SM FEW024 OVC031 M02/M04 A3024 RMK AO2 T10201042
0302720534001612025010702357+40017-105050FM-15+1564KEIK V0201205N00365007625MN0096565N5-00225-00435999999ADDAA101000021AU120090015AU200001015AW1105AW2401AW3415GA1075+007625999GA2085+009455999GD13991+0076259GD24991+0094559GE19AGL   +99999+99999GF199999999999007621999999MA1102405084815REMMET11401/06/25 19:35:01 METAR KEIK 070235Z 12007KT 6SM UP BR BKN025 OVC031 M02/M04 A3024 RMK AO2 UPB0216 P0000 T10221043
0305720534001612025010702557+40017-105050FM-15+1564KEIK V0201205N00215007925MN0048285N5-00265-00385999999ADDAA101000021AU110030015AU200001015AW1105AW2715GA1075+007925999GA2085+010065999GD13991+0079259GD24991+0100659GE19AGL   +99999+99999GF199999999999007921999999MA1102405084815MW1715REMMET11701/06/25 19:55:01 METAR KEIK 070255Z 12004KT 3SM -SN BR BKN026 OVC033 M03/M04 A3024 RMK AO2 BKN V SCT P0000 T10261038
0295720534001612025010703157+40017-105050FM-15+1564KEIK V0201205N00155010975MN0096565N5-00285-00355999999ADDAA101000021AU110030015AU200001015AW1105AW2715GA1025+008845999GA2085+010975999GD11991+0088459GD24991+0109759GE19AGL   +99999+99999GF199999999999008841999999MA1102405084815MW1715REMMET10701/06/25 20:15:02 METAR KEIK 070315Z 12003KT 6SM -SN BR FEW029 OVC036 M03/M03 A3024 RMK AO2 P0000 T10281035
0275720534001612025010703357+40017-105050FM-15+1564KEIK V0209999C00005011895MN0112655N5-00295-00345999999ADDAA101000021AU110030015AW1715GA1045+009145999GA2085+011895999GD12991+0091459GD24991+0118959GE19AGL   +99999+99999GF199999999999009141999999MA1102445084845MW1715REMMET10401/06/25 20:35:02 METAR KEIK 070335Z 00000KT 7SM -SN SCT030 OVC039 M03/M03 A3025 RMK AO2 P0000 T10291034
0257720534001612025010703557+40017-105050FM-15+1564KEIK V0201105N00155008845MN0048285N5-00295-00345999999ADDAA101000021AU110030015AU200001015AW1105AW2715GA1085+008845999GD14991+0088459GE19AGL   +99999+99999GF199999999999008841999999MA1102405084815MW1715REMMET10001/06/25 20:55:02 METAR KEIK 070355Z 11003KT 3SM -SN BR OVC029 M03/M03 A3024 RMK AO2 P0000 T10291034
0257720534001612025010704157+40017-105050FM-15+1564KEIK V0209999V00155008535MN0096565N5-00295-00355999999ADDAA101000021AU110030015AU200001015AW1105AW2715GA1085+008535999GD14991+0085359GE19AGL   +99999+99999GF199999999999008531999999MA1102445084845MW1715REMMET10001/06/25 21:15:02 METAR KEIK 070415Z VRB03KT 6SM -SN BR OVC028 M03/M03 A3025 RMK AO2 P0000 T10291035
0257720534001612025010704357+40017-105050FM-15+1564KEIK V0209999C00005008535MN0080475N5-00305-00355999999ADDAA101000021AU110030015AU200001015AW1105AW2715GA1085+008535999GD14991+0085359GE19AGL   +99999+99999GF199999999999008531999999MA1102445084845MW1715REMMET10001/06/25 21:35:02 METAR KEIK 070435Z 00000KT 5SM -SN BR OVC028 M03/M03 A3025 RMK AO2 P0000 T10301035
0257720534001612025010704557+40017-105050FM-15+1564KEIK V0209999C00005008845MN0048285N5-00315-00345999999ADDAA101000021AU110030015AU200001015AW1105AW2715GA1085+008845999GD14991+0088459GE19AGL   +99999+99999GF199999999999008841999999MA1102445084845MW1715REMMET10001/06/25 21:55:02 METAR KEIK 070455Z 00000KT 3SM -SN BR OVC029 M03/M03 A3025 RMK AO2 P0000 T10311034
0333720534001612025010705157+40017-105050FM-15+1564KEIK V0209999C00005008845MN0064375N5-00315-00325999999ADDAA101000021AU110030015AU200001015AW1105AW2715GA1045+001835999GA2045+004575999GA3085+008845999GD12991+0018359GD22991+0045759GD34991+0088459GE19AGL   +99999+99999GF199999999999001831999999MA1102445084845MW1715REMMET11401/06/25 22:15:02 METAR KEIK 070515Z 00000KT 4SM -SN BR SCT006 SCT015 OVC029 M03/M03 A3025 RMK AO2 P0000 T10311032
0327720534001612025010705357+40017-105050FM-15+1564KEIK V0209999C00005006105MN0112655N5-00325-00355999999ADDAA101000021AW1711GA1025+001835999GA2045+004575999GA3075+006105999GD11991+0018359GD22991+0045759GD33991+0061059GD44991+0088419GE19AGL   +99999+99999GF199999999999001831999999MA1102475084875MW1715REMMET12101/06/25 22:35:02 METAR KEIK 070535Z 00000KT 7SM -SN FEW006 SCT015 BKN020 M03/M03 A3026 RMK AO2 FEW V SCT P0000 T10321035
0323720534001612025010705557+40017-105050FM-15+1564KEIK V0209999C00005009145MN0128755N5-00325-00335999999ADDAA101000021AU110030015AW1715GA1025+002135999GA2045+006405999GA3085+009145999GD11991+0021359GD22991+0064059GD34991+0091459GE19AGL   +99999+99999GF199999999999002131999999MA1102475084875MW1715REMMET12101/06/25 22:55:02 METAR KEIK 070555Z 00000KT 8SM -SN FEW007 SCT021 OVC030 M03/M03 A3026 RMK AO2 FEW V SCT P0000 T10321033
0287720534001612025010706157+40017-105050FM-15+1564KEIK V0200205N00155006405MN0128755N5-00305-00335999999ADDAA101000021AU110030015AW1715GA1075+006405999GA2085+009145999GD13991+0064051GD24991+0091459GE19AGL   +99999+99999GF199999999999006401999999MA1102475084875MW1715REMMET11601/06/25 23:15:02 METAR KEIK 070615Z 02003KT 8SM -SN BKN021 OVC030 M03/M03 A3026 RMK AO2 CIG 019V024 P0000 T10301033
0275720534001612025010706357+40017-105050FM-15+1564KEIK V0209999C00005005795MN0112655N5-00325-00335999999ADDAA101000021AU110030015AW1715GA1025+002135999GA2085+005795999GD11991+0021359GD24991+0057959GE19AGL   +99999+99999GF199999999999002131999999MA1102475084875MW1715REMMET10401/06/25 23:35:02 METAR KEIK 070635Z 00000KT 7SM -SN FEW007 OVC019 M03/M03 A3026 RMK AO2 P0000 T10321033
0275720534001612025010706557+40017-105050FM-15+1564KEIK V0209999C00005005795MN0128755N5-00315-00325999999ADDAA101000021AU110030015AW1715GA1045+002135999GA2085+005795999GD12991+0021359GD24991+0057959GE19AGL   +99999+99999GF199999999999002131999999MA1102475084875MW1715REMMET10401/06/25 23:55:02 METAR KEIK 070655Z 00000KT 8SM -SN SCT007 OVC019 M03/M03 A3026 RMK AO2 P0000 T10311032
003972053400161202501070659O+40017-105050SOD  +1564KEIK V020999999999999999999999999999+99999+99999999999ADDAT1AU18SN  5AT2AU13BR  5AT3AU19UP  5
0259720534001612025010707157+40017-105050FM-15+1564KEIK V0209999C00005001835MN0112655N5-00285-00315999999ADDAA101000021AU110030015AW1715GA1085+001835999GD14991+0018351GE19AGL   +99999+99999GF199999999999001831999999MA1102445084845MW1715REMMET11901/07/25 00:15:02 METAR KEIK 070715Z 00000KT 7SM -SN OVC006 M03/M03 A3025 RMK AO2 CIG 005V008 OVC V BKN P0000 T10281031
0230720534001612025010707357+40017-105050FM-15+1564KEIK V0203405N00215001835MN0112655N5-00295-00305999999ADDAA101000021GA1085+001835999GD14991+0018351GE19AGL   +99999+99999GF199999999999001831999999MA1102445084845REMMET11301/07/25 00:35:02 METAR KEIK 070735Z 34004KT 7SM OVC006 M03/M03 A3025 RMK AO2 SNE0732 CIG 004V009 P0000 T10291030
0307720534001612025010707557+40017-105050FM-15+1564KEIK V0203605N00155001525MN0096565N5-00305-00305999999ADDAA101000021AU110030015AU200001015AW1105AW2715GA1075+001525999GA2085+002745999GD13991+0015251GD24991+0027459GE19AGL   +99999+99999GF199999999999001521999999MA1102445084845MW1715REMMET11901/07/25 00:55:02 METAR KEIK 070755Z 36003KT 6SM -SN BR BKN005 OVC009 M03/M03 A3025 RMK AO2 CIG 003V008 P0000 T10301030
0320720534001612025010708157+40017-105050FM-15+1564KEIK V0203605N00155001835MN0096565N5-00305-00305999999ADDAA101000021AU110030015AU200001015AW1105AW2715GA1075+001835999GA2085+003965999GD13991+0018351GD24991+0039659GE19AGL   +99999+99999GF199999999999001831999999MA1102445084845MW1715REMMET13201/07/25 01:15:02 METAR KEIK 070815Z 36003KT 6SM -SN BR BKN006 OVC013 M03/M03 A3025 RMK AO2 SNE0801B0802 CIG 003V009 P0000 T10301030
0320720534001612025010708357+40017-105050FM-15+1564KEIK V0200105N00155001225MN0096565N5-00315-00315999999ADDAA101000021AU110030015AU200001015AW1105AW2715GA1075+001225999GA2085+003665999GD13991+0012251GD24991+0036659GE19AGL   +99999+99999GF199999999999001221999999MA1102475084875MW1715REMMET13201/07/25 01:35:02 METAR KEIK 070835Z 01003KT 6SM -SN BR BKN004 OVC012 M03/M03 A3026 RMK AO2 SNE0801B0802 CIG 003V007 P0000 T10311031
0265720534001612025010708557+40017-105050FM-15+1564KEIK V0200205N00215001225MN0080475N5-00335-00335999999ADDAA101000021AU110030015AU200001015AW1105AW2715GA1085+001225999GD14991+0012259GE19AGL   +99999+99999GF199999999999001221999999MA1102475084875MW1715REMMET10801/07/25 01:55:02 METAR KEIK 070855Z 02004KT 5SM -SN BR OVC004 M03/M03 A3026 RMK AO2 SNB0855 P0000 T10331033
0265720534001612025010709157+40017-105050FM-15+1564KEIK V0200205N00155001225MN0080475N5-00345-00345999999ADDAA101000021AU110030015AU200001015AW1105AW2715GA1085+001225999GD14991+0012259GE19AGL   +99999+99999GF199999999999001221999999MA1102515084905MW1715REMMET10801/07/25 02:15:02 METAR KEIK 070915Z 02003KT 5SM -SN BR OVC004 M03/M03 A3027 RMK AO2 SNB0855 P0000 T10341034
0277720534001612025010709357+40017-105050FM-15+1564KEIK V0200205N00215001225MN0096565N5-00355-00355999999ADDAA101000021AU110030015AU200001015AW1105AW2715GA1085+001225999GD14991+0012251GE19AGL   +99999+99999GF199999999999001221999999MA1102515084905MW1715REMMET12001/07/25 02:35:02 METAR KEIK 070935Z 02004KT 6SM -SN BR OVC004 M04/M04 A3027 RMK AO2 SNB0855 CIG 003V006 P0000 T10351035
0307720534001612025010709557+40017-105050FM-15+1564KEIK V0200205N00215002745MN0064375N5-00375-00375999999ADDAA101000021AU110030015AU200001015AW1105AW2715GA1045+001225999GA2085+002745999GD12991+0012251GD24991+0027459GE19AGL   +99999+99999GF199999999999001221999999MA1102545084935MW1715REMMET11901/07/25 02:55:02 METAR KEIK 070955Z 02004KT 4SM -SN BR SCT004 OVC009 M04/M04 A3028 RMK AO2 CIG 008V010 P0000 T10371037
0319720534001612025010710157+40017-105050FM-15+1564KEIK V0200305N00215001525MN0032195V5-00385-00385999999ADDAA101000021AU110030015AU200001015AW1105AW2715GA1075+001525999GA2085+003055999GD13991+0015251GD24991+0030559GE19AGL   +99999+99999GF199999999999001521999999MA1102545084935MW1715REMMET13101/07/25 03:15:02 METAR KEIK 071015Z 03004KT 2SM -SN BR BKN005 OVC010 M04/M04 A3028 RMK AO2 VIS 1 1/2V3 CIG 004V006 P0000 T10381038
0307720534001612025010710357+40017-105050FM-15+1564KEIK V0200205N00155004575MN0032195N5-00395-00395999999ADDAA101000021AU110030015AU200001015AW1105AW2715GA1045+001225999GA2085+004575999GD12991+0012251GD24991+0045759GE19AGL   +99999+99999GF199999999999001221999999MA1102545084935MW1715REMMET11901/07/25 03:35:02 METAR KEIK 071035Z 02003KT 2SM -SN BR SCT004 OVC015 M04/M04 A3028 RMK AO2 CIG 011V018 P0000 T10391039
0257720534001612025010710557+40017-105050FM-15+1564KEIK V0200405N00215006105MN0032195N5-00425-00425999999ADDAA101000021AU110030015AU200001015AW1105AW2715GA1085+006105999GD14991+0061059GE19AGL   +99999+99999GF199999999999006101999999MA1102545084935MW1715REMMET10001/07/25 03:55:02 METAR KEIK 071055Z 04004KT 2SM -SN BR OVC020 M04/M04 A3028 RMK AO2 P0000 T10421042
0299720534001612025010711157+40017-105050FM-15+1564KEIK V0200305N00215001835MN0040235N5-00425-00435999999ADDAA101000021AU110030015AU200001015AW1105AW2715GA1075+001835999GA2085+006715999GD13991+0018359GD24991+0067159GE19AGL   +99999+99999GF199999999999001831999999MA1102575084965MW1715REMMET11101/07/25 04:15:01 METAR KEIK 071115Z 03004KT 2 1/2SM -SN BR BKN006 OVC022 M04/M04 A3029 RMK AO2 P0000 T10421043
0305720534001612025010711357+40017-105050FM-15+1564KEIK V0200305N00215004275MN0080475N5-00435-00445999999ADDAA101000021AU110030015AU200001015AW1105AW2715GA1025+002135999GA2085+004275999GD11991+0021359GD24991+0042759GE19AGL   +99999+99999GF199999999999002131999999MA1102575084965MW1715REMMET11701/07/25 04:35:01 METAR KEIK 071135Z 03004KT 5SM -SN BR FEW007 OVC014 M04/M04 A3029 RMK AO2 OVC V BKN P0000 T10431044
0295720534001612025010711557+40017-105050FM-15+1564KEIK V0200105N00215002135MN0032195N5-00415-00435999999ADDAA101000021AU110030015AU200001015AW1105AW2715GA1075+002135999GA2085+003965999GD13991+0021359GD24991+0039659GE19AGL   +99999+99999GF199999999999002131999999MA1102615084985MW1715REMMET10701/07/25 04:55:01 METAR KEIK 071155Z 01004KT 2SM -SN BR BKN007 OVC013 M04/M04 A3030 RMK AO2 P0000 T10411043
0269720534001612025010712157+40017-105050FM-15+1564KEIK V0200305N00215002135MN0048285N5-00435-00445999999ADDAA101000021AU110030015AU200001015AW1105AW2715GA1085+002135999GD14991+0021351GE19AGL   +99999+99999GF199999999999002131999999MA1102645085015MW1715REMMET11201/07/25 05:15:01 METAR KEIK 071215Z 03004KT 3SM -SN BR OVC007 M04/M04 A3031 RMK AO2 CIG 003V009 P0000 T10431044
0269720534001612025010712357+40017-105050FM-15+1564KEIK V0200305N00265001835MN0064375N5-00445-00455999999ADDAA101000021AU110030015AU200001015AW1105AW2715GA1085+001835999GD14991+0018351GE19AGL   +99999+99999GF199999999999001831999999MA1102685085045MW1715REMMET11201/07/25 05:35:01 METAR KEIK 071235Z 03005KT 4SM -SN BR OVC006 M04/M04 A3032 RMK AO2 CIG 003V009 P0000 T10441045
0299720534001612025010712557+40017-105050FM-15+1564KEIK V0200305N00155007325MN0040235N5-00445-00455999999ADDAA101000021AU110030015AU200001015AW1105AW2715GA1045+001835999GA2085+007325999GD12991+0018359GD24991+0073259GE19AGL   +99999+99999GF199999999999001831999999MA1102715085075MW1715REMMET11101/07/25 05:55:01 METAR KEIK 071255Z 03003KT 2 1/2SM -SN BR SCT006 OVC024 M04/M04 A3033 RMK AO2 P0000 T10441045
0343720534001612025010713157+40017-105050FM-15+1564KEIK V0200405N00215007925MN0032195N5-00465-00475999999ADDAA101000395AU110030015AU200001015AW1105AW2715GA1025+000915999GA2045+002135999GA3085+007925999GD11991+0009159GD22991+0021359GD34991+0079259GE19AGL   +99999+99999GF199999999999000911999999MA1102715085075MW1715REMMET12401/07/25 06:15:02 METAR KEIK 071315Z 04004KT 2SM -SN BR FEW003 SCT007 OVC026 M05/M05 A3033 RMK AO2 FEW V SCT P0001 T10461047
0333720534001612025010713357+40017-105050FM-15+1564KEIK V0200205N00155002135MN0032195N5-00465-00495999999ADDAA101000395AU110030015AU200001015AW1105AW2715GA1025+000915999GA2075+002135999GA3085+007625999GD11991+0009159GD23991+0021359GD34991+0076259GE19AGL   +99999+99999GF199999999999000911999999MA1102745085105MW1715REMMET11401/07/25 06:35:02 METAR KEIK 071335Z 02003KT 2SM -SN BR FEW003 BKN007 OVC025 M05/M05 A3034 RMK AO2 P0001 T10461049
0295720534001612025010713557+40017-105050FM-15+1564KEIK V0200405N00155008845MN0032195N5-00475-00495999999ADDAA101000021AU110030015AU200001015AW1105AW2715GA1045+002135999GA2085+008845999GD12991+0021359GD24991+0088459GE19AGL   +99999+99999GF199999999999002131999999MA1102785085135MW1715REMMET10701/07/25 06:55:02 METAR KEIK 071355Z 04003KT 2SM -SN BR SCT007 OVC029 M05/M05 A3035 RMK AO2 P0000 T10471049
0309720534001612025010714157+40017-105050FM-15+1564KEIK V0209999C00005001835MN0024145N5-00485-00485999999ADDAA101000021AU110030015AU200001015AW1105AW2715GA1075+001835999GA2085+009145999GD13991+0018359GD24991+0091459GE19AGL   +99999+99999GF199999999999001831999999MA1102815085165MW1715REMMET12101/07/25 07:15:02 METAR KEIK 071415Z 00000KT 1 1/2SM -SN BR BKN006 OVC030 M05/M05 A3036 RMK AO2 BKN V OVC P0000 T10481048
0269720534001612025010714357+40017-105050FM-15+1564KEIK V0200705N00155002135MN0016095N5-00485-00495999999ADDAA101000021AU110030015AU200001015AW1105AW2715GA1085+002135999GD14991+0021351GE19AGL   +99999+99999GF199999999999002131999999MA1102845085195MW1715REMMET11201/07/25 07:35:02 METAR KEIK 071435Z 07003KT 1SM -SN BR OVC007 M05/M05 A3037 RMK AO2 CIG 003V010 P0000 T10481049
0271720534001612025010714557+40017-105050FM-15+1564KEIK V0200805N00215002135MN0012075N5-00525-00565999999ADDAA101000021AU110030015AU200001015AW1105AW2715GA1085+002135999GD14991+0021351GE19AGL   +99999+99999GF199999999999002131999999MA1102845085195MW1715REMMET11401/07/25 07:55:02 METAR KEIK 071455Z 08004KT 3/4SM -SN BR OVC007 M05/M06 A3037 RMK AO2 CIG 006V010 P0000 T10521056
0333720534001612025010715157+40017-105050FM-15+1564KEIK V0200705N00215003055MN0016095N5-00535-00575999999ADDAA101000021AU110030015AU200001015AW1105AW2715GA1025+000915999GA2075+003055999GA3085+007325999GD11991+0009159GD23991+0030559GD34991+0073259GE19AGL   +99999+99999GF199999999999000911999999MA1102915085255MW1715REMMET11401/07/25 08:15:02 METAR KEIK 071515Z 07004KT 1SM -SN BR FEW003 BKN010 OVC024 M05/M06 A3039 RMK AO2 P0000 T10531057
0299720534001612025010715357+40017-105050FM-15+1564KEIK V0200805N00215012195MN0020125N5-00535-00575999999ADDAA101000021AU110030015AU200001015AW1105AW2715GA1025+000915999GA2085+012195999GD11991+0009159GD24991+0121959GE19AGL   +99999+99999GF199999999999000911999999MA1102955085285MW1715REMMET11101/07/25 08:35:02 METAR KEIK 071535Z 08004KT 1 1/4SM -SN BR FEW003 OVC040 M05/M06 A3040 RMK AO2 P0000 T10531057
0337720534001612025010715557+40017-105050FM-15+1564KEIK V0200805N00265014635MN0024145N5-00535-00585999999ADDAA101000021AU110030015AU200001015AW1105AW2715GA1045+000915999GA2045+002135999GA3085+014635999GD12991+0009159GD22991+0021359GD34991+0146359GE19AGL   +99999+99999GF199999999999000911999999MA1102985085305MW1715REMMET11801/07/25 08:55:02 METAR KEIK 071555Z 08005KT 1 1/2SM -SN BR SCT003 SCT007 OVC048 M05/M06 A3041 RMK AO2 P0000 T10531058
0305720534001612025010716157+40017-105050FM-15+1564KEIK V0200905N00365004575MN0080475N5-00515-00595999999ADDAA101000021AU110030015AU200001015AW1105AW2715GA1045+000915999GA2085+004575999GD12991+0009159GD24991+0045759GE19AGL   +99999+99999GF199999999999000911999999MA1103015085335MW1715REMMET11701/07/25 09:15:02 METAR KEIK 071615Z 09007KT 5SM -SN BR SCT003 OVC015 M05/M06 A3042 RMK AO2 OVC V BKN P0000 T10511059
0345720534001612025010716357+40017-105050FM-15+1564KEIK V0200905N00365003965MN0080475N5-00515-00605999999ADDAA101000021AU110030015AU200001015AW1105AW2715GA1045+001225999GA2075+003965999GA3085+005795999GD12991+0012251GD23991+0039659GD34991+0057959GE19AGL   +99999+99999GF199999999999001221999999MA1103055085365MW1715REMMET12601/07/25 09:35:02 METAR KEIK 071635Z 09007KT 5SM -SN BR SCT004 BKN013 OVC019 M05/M06 A3043 RMK AO2 CIG 011V016 P0000 T10511060
0287720534001612025010716557+40017-105050FM-15+1564KEIK V0201005N00315001835MN0112655N5-00495-00595999999ADDAA101000021AU110030015AW1715GA1075+001835999GA2085+003965999GD13991+0018351GD24991+0039659GE19AGL   +99999+99999GF199999999999001831999999MA1103085085395MW1715REMMET11601/07/25 09:55:02 METAR KEIK 071655Z 10006KT 7SM -SN BKN006 OVC013 M05/M06 A3044 RMK AO2 CIG 003V008 P0000 T10491059
0317720534001612025010717157+40017-105050FM-15+1564KEIK V0200905N00265003965MN0144845N5-00455-00555999999ADDAA101000021AW1711GA1045+001835999GA2075+003965999GA3075+006105999GD12991+0018359GD23991+0039659GD33991+0061059GD44991+0079219GE19AGL   +99999+99999GF199999999999001831999999MA1103085085395MW1715REMMET11101/07/25 10:15:02 METAR KEIK 071715Z 09005KT 9SM -SN SCT006 BKN013 BKN020 M05/M05 A3044 RMK AO2 P0000 T10451055
0307720534001612025010717357+40017-105050FM-15+1564KEIK V0201405N00265004575MN0080475N5-00435-00585999999ADDAA101000395AU110030015AU200001015AW1105AW2715GA1075+004575999GA2085+006105999GD13991+0045751GD24991+0061059GE19AGL   +99999+99999GF199999999999004571999999MA1103085085395MW1715REMMET11901/07/25 10:35:02 METAR KEIK 071735Z 14005KT 5SM -SN BR BKN015 OVC020 M04/M06 A3044 RMK AO2 CIG 011V018 P0001 T10431058
0328720534001612025010717557+40017-105050FM-15+1564KEIK V0201205N002152200059N0160935N5-00425-00615999999ADDAA101000021AW1711GA1025+004885999GA2045+006105999GA3045+008535999GD11991+0048859GD22991+0061059GD32991+0085359GD43991+0103619GE19AGL   +99999+99999GF199999999999004881999999MA1103085085395MW1715REMMET12201/07/25 10:55:02 METAR KEIK 071755Z 12004KT 10SM -SN FEW016 SCT020 SCT028 M04/M06 A3044 RMK AO2 FEW V SCT P0000 T10421061
0332720534001612025010718157+40017-105050FM-15+1564KEIK V0209999C00005008235MN0160935N5-00405-00675999999ADDAA101000395GA1025+003665999GA2045+005795999GA3075+008235999GD11991+0036651GD22991+0057959GD33991+0082359GD44991+0109719GE19AGL   +99999+99999GF199999999999003661999999MA1103055085365REMMET13801/07/25 11:15:02 METAR KEIK 071815Z 00000KT 10SM FEW012 SCT019 BKN027 M04/M07 A3043 RMK AO2 SNE1805 CIG 024V029 FEW V SCT P0001 T10401067
0295720534001612025010718357+40017-105050FM-15+1564KEIK V0209999V00155003965MN0160935N5-00395-00655999999ADDAA101000395GA1075+003965999GA2075+008235999GA3085+011285999GD13991+0039659GD23991+0082359GD34991+0112859GE19AGL   +99999+99999GF199999999999003961999999MA1103055085365REMMET11601/07/25 11:35:02 METAR KEIK 071835Z VRB03KT 10SM BKN013 BKN027 OVC037 M04/M07 A3043 RMK AO2 SNE1805 P0001 T10391065
0242720534001612025010718557+40017-105050FM-15+1564KEIK V0209999C00005004275MN0160935N5-00385-00635999999ADDGA1075+004275999GA2085+014635999GD13991+0042759GD24991+0146359GE19AGL   +99999+99999GF199999999999004271999999MA1103015085335REMMET10501/07/25 11:55:02 METAR KEIK 071855Z 00000KT 10SM BKN014 OVC048 M04/M06 A3042 RMK AO2 BKN V OVC T10381063
0194720534001612025010719157+40017-105050FM-15+1564KEIK V0209999V00155003965MN0160935N5-00365-00605999999ADDGA1085+003965999GD14991+0039659GE19AGL   +99999+99999GF199999999999003961999999MA1102985085305REMMET08801/07/25 12:15:01 METAR KEIK 071915Z VRB03KT 10SM OVC013 M04/M06 A3041 RMK AO2 T10361060
0270720534001612025010719357+40017-105050FM-15+1564KEIK V0201805N00215004275MN0160935N5-00375-00665999999ADDGA1075+004275999GA2075+013115999GA3085+022865999GD13991+0042759GD23991+0131159GD34991+0228659GE19AGL   +99999+99999GF199999999999004271999999MA1102985085305REMMET10201/07/25 12:35:02 METAR KEIK 071935Z 18004KT 10SM BKN014 BKN043 OVC075 M04/M07 A3041 RMK AO2 T10371066
0295720534001612025010719557+40017-105050FM-15+1564KEIK V0201205N00155010675MN0160935N5-00355-00675999999ADDGA1025+004885999GA2045+007015999GA3075+010675999GD11991+0048859GD22991+0070159GD33991+0106759GD44991+0134119GE19AGL   +99999+99999GF199999999999004881999999MA1102955085285REMMET11201/07/25 12:55:01 METAR KEIK 071955Z 12003KT 10SM FEW016 SCT023 BKN035 M03/M07 A3040 RMK AO2 FEW V SCT T10351067
0244720534001612025010720157+40017-105050FM-15+1564KEIK V0201105N00265005185MN0160935N5-00315-00625999999ADDGA1075+005185999GA2085+010365999GD13991+0051851GD24991+0103659GE19AGL   +99999+99999GF199999999999005181999999MA1102915085255REMMET10701/07/25 13:15:02 METAR KEIK 072015Z 11005KT 10SM BKN017 OVC034 M03/M06 A3039 RMK AO2 CIG 016V023 T10311062
0206720534001612025010720357+40017-105050FM-15+1564KEIK V0201005N00265005495MN0160935N5-00365-00625999999ADDGA1085+005495999GD14991+0054951GE19AGL   +99999+99999GF199999999999005491999999MA1102915085255REMMET10001/07/25 13:35:02 METAR KEIK 072035Z 10005KT 10SM OVC018 M04/M06 A3039 RMK AO2 CIG 017V021 T10361062
0158720534001612025010720556+40017-105050FM-15+1564KEIK V0200905N00265005185MN0160935N5-00395-00635999999ADDGA1085+005185999GD14991+0051859MA1102885085225REMMET10001/07/25 13:55:02 METAR KEIK 072055Z 09005KT 10SM OVC017 M04/M06 A3038 RMK AO2 CIG 016V021 T10391063
0158720534001612025010721156+40017-105050FM-15+1564KEIK V0200905N00365006715MN0160935N5-00425-00625999999ADDGA1085+006715999GD14991+0067159MA1102915085255REMMET10001/07/25 14:15:02 METAR KEIK 072115Z 09007KT 10SM OVC022 M04/M06 A3039 RMK AO2 CIG 016V026 T10421062
0158720534001612025010721356+40017-105050FM-15+1564KEIK V0200805N00265007325MN0160935N5-00435-00635999999ADDGA1085+007325999GD14991+0073259MA1102915085255REMMET10001/07/25 14:35:02 METAR KEIK 072135Z 08005KT 10SM OVC024 M04/M06 A3039 RMK AO2 CIG 022V028 T10431063
0206720534001612025010721557+40017-105050FM-15+1564KEIK V0200905N00315006715MN0160935N5-00445-00625999999ADDGA1085+006715999GD14991+0067151GE19AGL   +99999+99999GF199999999999006711999999MA1102955085285REMMET10001/07/25 14:55:02 METAR KEIK 072155Z 09006KT 10SM OVC022 M04/M06 A3040 RMK AO2 CIG 021V027 T10441062
0194720534001612025010722157+40017-105050FM-15+1564KEIK V0200705N00365007015MN0160935N5-00465-00645999999ADDGA1085+007015999GD14991+0070159GE19AGL   +99999+99999GF199999999999007011999999MA1102985085305REMMET08801/07/25 15:15:02 METAR KEIK 072215Z 07007KT 10SM OVC023 M05/M06 A3041 RMK AO2 T10461064
0206720534001612025010722357+40017-105050FM-15+1564KEIK V0200905N00365006715MN0160935N5-00485-00665999999ADDGA1085+006715999GD14991+0067151GE19AGL   +99999+99999GF199999999999006711999999MA1102985085305REMMET10001/07/25 15:35:02 METAR KEIK 072235Z 09007KT 10SM OVC022 M05/M07 A3041 RMK AO2 CIG 020V025 T10481066
0205720534001612025010722557+40017-105050FM-15+1564KEIK V0200805N00415007325MN0144845N5-00495-00665999999ADDGA1085+007325999GD14991+0073251GE19AGL   +99999+99999GF199999999999007321999999MA1103015085335REMMET09901/07/25 15:55:02 METAR KEIK 072255Z 08008KT 9SM OVC024 M05/M07 A3042 RMK AO2 CIG 022V027 T10491066
0193720534001612025010723157+40017-105050FM-15+1564KEIK V0200805N00265007925MN0144845N5-00515-00685999999ADDGA1085+007925999GD14991+0079259GE19AGL   +99999+99999GF199999999999007921999999MA1103015085335REMMET08701/07/25 16:15:02 METAR KEIK 072315Z 08005KT 9SM OVC026 M05/M07 A3042 RMK AO2 T10511068
0231720534001612025010723357+40017-105050FM-15+1564KEIK V0200805N00315007925MN0144845N5-00525-00705999999ADDGA1045+006105999GA2085+007925999GD12991+0061059GD24991+0079259GE19AGL   +99999+99999GF199999999999006101999999MA1103055085365REMMET09401/07/25 16:35:02 METAR KEIK 072335Z 08006KT 9SM SCT020 OVC026 M05/M07 A3043 RMK AO2 T10521070
0205720534001612025010723557+40017-105050FM-15+1564KEIK V0201005N00265007015MN0144845N5-00545-00695999999ADDGA1085+007015999GD14991+0070151GE19AGL   +99999+99999GF199999999999007011999999MA1103085085395REMMET09901/07/25 16:55:02 METAR KEIK 072355Z 10005KT 9SM OVC023 M05/M07 A3044 RMK AO2 CIG 018V027 T10541069
0232720534001612025010800157+40017-105050FM-15+1564KEIK V0201105N00155007625MN0160935N5-00545-00685999999ADDGA1025+005795999GA2085+007625999GD11991+0057959GD24991+0076259GE19AGL   +99999+99999GF199999999999005791999999MA1103085085395REMMET09501/07/25 17:15:01 METAR KEIK 080015Z 11003KT 10SM FEW019 OVC025 M05/M07 A3044 RMK AO2 T10541068
0232720534001612025010800357+40017-105050FM-15+1564KEIK V0209999C00005009455MN0160935N5-00545-00715999999ADDGA1045+007325999GA2085+009455999GD12991+0073259GD24991+0094559GE19AGL   +99999+99999GF199999999999007321999999MA1103085085395REMMET09501/07/25 17:35:01 METAR KEIK 080035Z 00000KT 10SM SCT024 OVC031 M05/M07 A3044 RMK AO2 T10541071
0194720534001612025010800557+40017-105050FM-15+1564KEIK V0209999C00005009755MN0160935N5-00595-00765999999ADDGA1075+009755999GD13991+0097559GE19AGL   +99999+99999GF199999999999009751999999MA1103125085425REMMET08801/07/25 17:55:01 METAR KEIK 080055Z 00000KT 10SM BKN032 M06/M08 A3045 RMK AO2 T10591076
0194720534001612025010801157+40017-105050FM-15+1564KEIK V0209999C00005009755MN0160935N5-00625-00755999999ADDGA1085+009755999GD14991+0097559GE19AGL   +99999+99999GF199999999999009751999999MA1103125085425REMMET08801/07/25 18:15:01 METAR KEIK 080115Z 00000KT 10SM OVC032 M06/M08 A3045 RMK AO2 T10621075
0194720534001612025010801357+40017-105050FM-15+1564KEIK V0209999C00005010365MN0160935N5-00675-00765999999ADDGA1085+010365999GD14991+0103659GE19AGL   +99999+99999GF199999999999010361999999MA1103125085425REMMET08801/07/25 18:35:01 METAR KEIK 080135Z 00000KT 10SM OVC034 M07/M08 A3045 RMK AO2 T10671076
0213720534001612025010801557+40017-105050FM-15+1564KEIK V0209999C000052200059N0160935N5-00935-00985999999ADDGA1045+010065999GD12991+0100659GE19AGL   +99999+99999GF104995999999010061999999MA1103155085455REMMET08801/07/25 18:55:01 METAR KEIK 080155Z 00000KT 10SM SCT033 M09/M10 A3046 RMK AO2 T10931098EQDD01      0ADE726
0213720534001612025010802157+40017-105050FM-15+1564KEIK V0209999C000052200059N0160935N5-01075-01095999999ADDGA1025+009755999GD11991+0097559GE19AGL   +99999+99999GF102995999999009751999999MA1103155085455REMMET08801/07/25 19:15:01 METAR KEIK 080215Z 00000KT 10SM FEW032 M11/M11 A3046 RMK AO2 T11071109EQDD01      0ADE726
0213720534001612025010802357+40017-105050FM-15+1564KEIK V0209999C000052200059N0160935N5-01135-01155999999ADDGA1045+009455999GD12991+0094559GE19AGL   +99999+99999GF104995999999009451999999MA1103185085485REMMET08801/07/25 19:35:01 METAR KEIK 080235Z 00000KT 10SM SCT031 M11/M12 A3047 RMK AO2 T11131115EQDD01      0ADE726
0212720534001612025010802557+40017-105050FM-15+1564KEIK V0202905N001552200059N0128755N5-01295-01325999999ADDGA1025+009455999GD11991+0094559GE19AGL   +99999+99999GF102995999999009451999999MA1103185085485REMMET08701/07/25 19:55:02 METAR KEIK 080255Z 29003KT 8SM FEW031 M13/M13 A3047 RMK AO2 T11291132EQDD01      0ADE726
0188720534001612025010803157+40017-105050FM-15+1564KEIK V0209999C000052200059N0080475N5-01305-01335999999ADDAU100001015AW1105GA1005+999999999GD10991+9999999GF100991999999999999999999MA1103185085485REMMET08701/07/25 20:15:02 METAR KEIK 080315Z 00000KT 5SM BR CLR M13/M13 A3047 RMK AO2 T11301133
0168720534001612025010803357+40017-105050FM-15+1564KEIK V0209999C000052200059N0112655N5-01375-01415999999ADDGA1005+999999999GD10991+9999999GF100991999999999999999999MA1103185085485REMMET08401/07/25 20:35:02 METAR KEIK 080335Z 00000KT 7SM CLR M14/M14 A3047 RMK AO2 T11371141
0168720534001612025010803557+40017-105050FM-15+1564KEIK V0209999C000052200059N0128755N5-01405-01455999999ADDGA1005+999999999GD10991+9999999GF100991999999999999999999MA1103185085485REMMET08401/07/25 20:55:02 METAR KEIK 080355Z 00000KT 8SM CLR M14/M15 A3047 RMK AO2 T11401145
0188720534001612025010804157+40017-105050FM-15+1564KEIK V0209999C000052200059N0080475N5-01435-01495999999ADDAU100001015AW1105GA1005+999999999GD10991+9999999GF100991999999999999999999MA1103225085515REMMET08701/07/25 21:15:02 METAR KEIK 080415Z 00000KT 5SM BR CLR M14/M15 A3048 RMK AO2 T11431149
0168720534001612025010804357+40017-105050FM-15+1564KEIK V0209999C000052200059N0128755N5-01585-01655999999ADDGA1005+999999999GD10991+9999999GF100991999999999999999999MA1103225085515REMMET08401/07/25 21:35:02 METAR KEIK 080435Z 00000KT 8SM CLR M16/M17 A3048 RMK AO2 T11581165
0168720534001612025010804557+40017-105050FM-15+1564KEIK V0209999C000052200059N0112655N5-01535-01615999999ADDGA1005+999999999GD10991+9999999GF100991999999999999999999MA1103185085485REMMET08401/07/25 21:55:02 METAR KEIK 080455Z 00000KT 7SM CLR M15/M16 A3047 RMK AO2 T11531161
0188720534001612025010805157+40017-105050FM-15+1564KEIK V0209999C000052200059N0096565N5-01735-01835999999ADDAU100001015AW1105GA1005+999999999GD10991+9999999GF100991999999999999999999MA1103185085485REMMET08701/07/25 22:15:02 METAR KEIK 080515Z 00000KT 6SM BR CLR M17/M18 A3047 RMK AO2 T11731183
0188720534001612025010805357+40017-105050FM-15+1564KEIK V0209999C000052200059N0096565N5-01555-01635999999ADDAU100001015AW1105GA1005+999999999GD10991+9999999GF100991999999999999999999MA1103185085485REMMET08701/07/25 22:35:02 METAR KEIK 080535Z 00000KT 6SM BR CLR M16/M16 A3047 RMK AO2 T11551163
0168720534001612025010805557+40017-105050FM-15+1564KEIK V0209999C000052200059N0128755N5-01615-01715999999ADDGA1005+999999999GD10991+9999999GF100991999999999999999999MA1103155085455REMMET08401/07/25 22:55:02 METAR KEIK 080555Z 00000KT 8SM CLR M16/M17 A3046 RMK AO2 T11611171
0168720534001612025010806157+40017-105050FM-15+1564KEIK V0209999C000052200059N0112655N5-01705-01805999999ADDGA1005+999999999GD10991+9999999GF100991999999999999999999MA1103155085455REMMET08401/07/25 23:15:02 METAR KEIK 080615Z 00000KT 7SM CLR M17/M18 A3046 RMK AO2 T11701180
0168720534001612025010806357+40017-105050FM-15+1564KEIK V0209999C000052200059N0128755N5-01715-01815999999ADDGA1005+999999999GD10991+9999999GF100991999999999999999999MA1103125085425REMMET08401/07/25 23:35:02 METAR KEIK 080635Z 00000KT 8SM CLR M17/M18 A3045 RMK AO2 T11711181
0168720534001612025010806557+40017-105050FM-15+1564KEIK V0209999C000052200059N0112655N5-01785-01895999999ADDGA1005+999999999GD10991+9999999GF100991999999999999999999MA1103085085395REMMET08401/07/25 23:55:02 METAR KEIK 080655Z 00000KT 7SM CLR M18/M19 A3044 RMK AO2 T11781189
002772053400161202501080659O+40017-105050SOD  +1564KEIK V020999999999999999999999999999+99999+99999999999ADDAT1AU18SN  5AT2AU13BR  5
0188720534001612025010807157+40017-105050FM-15+1564KEIK V0209999C000052200059N0096565N5-01765-01875999999ADDAU100001015AW1105GA1005+999999999GD10991+9999999GF100991999999999999999999MA1103055085365REMMET08701/08/25 00:15:02 METAR KEIK 080715Z 00000KT 6SM BR CLR M18/M19 A3043 RMK AO2 T11761187
0168720534001612025010807357+40017-105050FM-15+1564KEIK V0209999C000052200059N0128755N5-01715-01815999999ADDGA1005+999999999GD10991+9999999GF100991999999999999999999MA1103015085335REMMET08401/08/25 00:35:02 METAR KEIK 080735Z 00000KT 8SM CLR M17/M18 A3042 RMK AO2 T11711181
0168720534001612025010807557+40017-105050FM-15+1564KEIK V0209999C000052200059N0112655N5-01775-01895999999ADDGA1005+999999999GD10991+9999999GF100991999999999999999999MA1103015085335REMMET08401/08/25 00:55:02 METAR KEIK 080755Z 00000KT 7SM CLR M18/M19 A3042 RMK AO2 T11771189
0168720534001612025010808157+40017-105050FM-15+1564KEIK V0209999C000052200059N0128755N5-01795-01905999999ADDGA1005+999999999GD10991+9999999GF100991999999999999999999MA1102955085285REMMET08401/08/25 01:15:02 METAR KEIK 080815Z 00000KT 8SM CLR M18/M19 A3040 RMK AO2 T11791190
0168720534001612025010808357+40017-105050FM-15+1564KEIK V0209999C000052200059N0112655N5-01685-01785999999ADDGA1005+999999999GD10991+9999999GF100991999999999999999999MA1102915085255REMMET08401/08/25 01:35:02 METAR KEIK 080835Z 00000KT 7SM CLR M17/M18 A3039 RMK AO2 T11681178
0168720534001612025010808557+40017-105050FM-15+1564KEIK V0209999C000052200059N0128755N5-01745-01855999999ADDGA1005+999999999GD10991+9999999GF100991999999999999999999MA1102915085255REMMET08401/08/25 01:55:02 METAR KEIK 080855Z 00000KT 8SM CLR M17/M18 A3039 RMK AO2 T11741185
0168720534001612025010809157+40017-105050FM-15+1564KEIK V0209999C000052200059N0128755N5-01805-01925999999ADDGA1005+999999999GD10991+9999999GF100991999999999999999999MA1102915085255REMMET08401/08/25 02:15:02 METAR KEIK 080915Z 00000KT 8SM CLR M18/M19 A3039 RMK AO2 T11801192
0168720534001612025010809357+40017-105050FM-15+1564KEIK V0209999C000052200059N0128755N5-01765-01875999999ADDGA1005+999999999GD10991+9999999GF100991999999999999999999MA1102885085225REMMET08401/08/25 02:35:02 METAR KEIK 080935Z 00000KT 8SM CLR M18/M19 A3038 RMK AO2 T11761187
0168720534001612025010809557+40017-105050FM-15+1564KEIK V0209999C000052200059N0112655N5-01835-01955999999ADDGA1005+999999999GD10991+9999999GF100991999999999999999999MA1102845085195REMMET08401/08/25 02:55:02 METAR KEIK 080955Z 00000KT 7SM CLR M18/M19 A3037 RMK AO2 T11831195
0168720534001612025010810157+40017-105050FM-15+1564KEIK V0209999C000052200059N0144845N5-01935-02075999999ADDGA1005+999999999GD10991+9999999GF100991999999999999999999MA1102845085195REMMET08401/08/25 03:15:02 METAR KEIK 081015Z 00000KT 9SM CLR M19/M21 A3037 RMK AO2 T11931207
0169720534001612025010810357+40017-105050FM-15+1564KEIK V0209999C000052200059N0160935N5-01945-02075999999ADDGA1005+999999999GD10991+9999999GF100991999999999999999999MA1102815085165REMMET08501/08/25 03:35:02 METAR KEIK 081035Z 00000KT 10SM CLR M19/M21 A3036 RMK AO2 T11941207
0169720534001612025010810557+40017-105050FM-15+1564KEIK V0209999C000052200059N0160935N5-01875-01995999999ADDGA1005+999999999GD10991+9999999GF100991999999999999999999MA1102745085105REMMET08501/08/25 03:55:02 METAR KEIK 081055Z 00000KT 10SM CLR M19/M20 A3034 RMK AO2 T11871199
0169720534001612025010811157+40017-105050FM-15+1564KEIK V0209999C000052200059N0160935N5-01865-01995999999ADDGA1005+999999999GD10991+9999999GF100991999999999999999999MA1102715085075REMMET08501/08/25 04:15:02 METAR KEIK 081115Z 00000KT 10SM CLR M19/M20 A3033 RMK AO2 T11861199
0168720534001612025010811357+40017-105050FM-15+1564KEIK V0209999C000052200059N0144845N5-01895-02025999999ADDGA1005+999999999GD10991+9999999GF100991999999999999999999MA1102685085045REMMET08401/08/25 04:35:02 METAR KEIK 081135Z 00000KT 9SM CLR M19/M20 A3032 RMK AO2 T11891202
0169720534001612025010811557+40017-105050FM-15+1564KEIK V0209999C000052200059N0160935N5-01865-01995999999ADDGA1005+999999999GD10991+9999999GF100991999999999999999999MA1102685085045REMMET08501/08/25 04:55:02 METAR KEIK 081155Z 00000KT 10SM CLR M19/M20 A3032 RMK AO2 T11861199
0169720534001612025010812157+40017-105050FM-15+1564KEIK V0209999C000052200059N0160935N5-01965-02105999999ADDGA1005+999999999GD10991+9999999GF100991999999999999999999MA1102645085015REMMET08501/08/25 05:15:02 METAR KEIK 081215Z 00000KT 10SM CLR M20/M21 A3031 RMK AO2 T11961210
0168720534001612025010812357+40017-105050FM-15+1564KEIK V0209999C000052200059N0144845N5-01985-02135999999ADDGA1005+999999999GD10991+9999999GF100991999999999999999999MA1102645085015REMMET08401/08/25 05:35:02 METAR KEIK 081235Z 00000KT 9SM CLR M20/M21 A3031 RMK AO2 T11981213
0168720534001612025010812557+40017-105050FM-15+1564KEIK V0202105N001552200059N0144845N5-01905-02035999999ADDGA1005+999999999GD10991+9999999GF100991999999999999999999MA1102615084985REMMET08401/08/25 05:55:02 METAR KEIK 081255Z 21003KT 9SM CLR M19/M20 A3030 RMK AO2 T11901203
0168720534001612025010813157+40017-105050FM-15+1564KEIK V0201905N001552200059N0144845N5-01905-02035999999ADDGA1005+999999999GD10991+9999999GF100991999999999999999999MA1102615084985REMMET08401/08/25 06:15:02 METAR KEIK 081315Z 19003KT 9SM CLR M19/M20 A3030 RMK AO2 T11901203
0169720534001612025010813357+40017-105050FM-15+1564KEIK V0201705N001552200059N0160935N5-01515-01605999999ADDGA1005+999999999GD10991+9999999GF100991999999999999999999MA1102615084985REMMET08501/08/25 06:35:02 METAR KEIK 081335Z 17003KT 10SM CLR M15/M16 A3030 RMK AO2 T11511160
0169720534001612025010813557+40017-105050FM-15+1564KEIK V0202205N001552200059N0160935N5-01815-01945999999ADDGA1005+999999999GD10991+9999999GF100991999999999999999999MA1102575084965REMMET08501/08/25 06:55:02 METAR KEIK 081355Z 22003KT 10SM CLR M18/M19 A3029 RMK AO2 T11811194
0169720534001612025010814157+40017-105050FM-15+1564KEIK V0201905N001552200059N0160935N5-01755-01875999999ADDGA1005+999999999GD10991+9999999GF100991999999999999999999MA1102575084965REMMET08501/08/25 07:15:02 METAR KEIK 081415Z 19003KT 10SM CLR M18/M19 A3029 RMK AO2 T11751187
0168720534001612025010814357+40017-105050FM-15+1564KEIK V0209999C000052200059N0144845N5-01835-01955999999ADDGA1005+999999999GD10991+9999999GF100991999999999999999999MA1102575084965REMMET08401/08/25 07:35:02 METAR KEIK 081435Z 00000KT 9SM CLR M18/M20 A3029 RMK AO2 T11831195
0169720534001612025010814557+40017-105050FM-15+1564KEIK V0209999C000052200059N0160935N5-01815-01925999999ADDGA1005+999999999GD10991+9999999GF100991999999999999999999MA1102545084935REMMET08501/08/25 07:55:02 METAR KEIK 081455Z 00000KT 10SM CLR M18/M19 A3028 RMK AO2 T11811192
0169720534001612025010815157+40017-105050FM-15+1564KEIK V0209999C000052200059N0160935N5-01525-01615999999ADDGA1005+999999999GD10991+9999999GF100991999999999999999999MA1102515084905REMMET08501/08/25 08:15:02 METAR KEIK 081515Z 00000KT 10SM CLR M15/M16 A3027 RMK AO2 T11521161
0169720534001612025010815357+40017-105050FM-15+1564KEIK V0209999C000052200059N0160935N5-01415-01495999999ADDGA1005+999999999GD10991+9999999GF100991999999999999999999MA1102515084905REMMET08501/08/25 08:35:02 METAR KEIK 081535Z 00000KT 10SM CLR M14/M15 A3027 RMK AO2 T11411149
0169720534001612025010815557+40017-105050FM-15+1564KEIK V0209999C000052200059N0160935N5-01185-01245999999ADDGA1005+999999999GD10991+9999999GF100991999999999999999999MA1102475084875REMMET08501/08/25 08:55:02 METAR KEIK 081555Z 00000KT 10SM CLR M12/M12 A3026 RMK AO2 T11181124
0169720534001612025010816157+40017-105050FM-15+1564KEIK V0209999C000052200059N0160935N5-01025-01075999999ADDGA1005+999999999GD10991+9999999GF100991999999999999999999MA1102445084845REMMET08501/08/25 09:15:02 METAR KEIK 081615Z 00000KT 10SM CLR M10/M11 A3025 RMK AO2 T11021107
0169720534001612025010816357+40017-105050FM-15+1564KEIK V0209999C000052200059N0160935N5-00855-00875999999ADDGA1005+999999999GD10991+9999999GF100991999999999999999999MA1102405084815REMMET08501/08/25 09:35:02 METAR KEIK 081635Z 00000KT 10SM CLR M09/M09 A3024 RMK AO2 T10851087
0169720534001612025010816557+40017-105050FM-15+1564KEIK V0209999C000052200059N0160935N5-00855-00905999999ADDGA1005+999999999GD10991+9999999GF100991999999999999999999MA1102375084785REMMET08501/08/25 09:55:02 METAR KEIK 081655Z 00000KT 10SM CLR M09/M09 A3023 RMK AO2 T10851090
0169720534001612025010817157+40017-105050FM-15+1564KEIK V0209999C000052200059N0160935N5-00665-00915999999ADDGA1005+999999999GD10991+9999999GF100991999999999999999999MA1102345084755REMMET08501/08/25 10:15:02 METAR KEIK 081715Z 00000KT 10SM CLR M07/M09 A3022 RMK AO2 T10661091
0169720534001612025010817357+40017-105050FM-15+1564KEIK V0209999C000052200059N0160935N5-00535-00935999999ADDGA1005+999999999GD10991+9999999GF100991999999999999999999MA1102345084755REMMET08501/08/25 10:35:02 METAR KEIK 081735Z 00000KT 10SM CLR M05/M09 A3022 RMK AO2 T10531093
0169720534001612025010817557+40017-105050FM-15+1564KEIK V0209999C000052200059N0160935N5-00485-00935999999ADDGA1005+999999999GD10991+9999999GF100991999999999999999999MA1102275084695REMMET08501/08/25 10:55:02 METAR KEIK 081755Z 00000KT 10SM CLR M05/M09 A3020 RMK AO2 T10481093
0169720534001612025010818157+40017-105050FM-15+1564KEIK V0209999C000052200059N0160935N5-00375-00895999999ADDGA1005+999999999GD10991+9999999GF100991999999999999999999MA1102175084615REMMET08501/08/25 11:15:02 METAR KEIK 081815Z 00000KT 10SM CLR M04/M09 A3017 RMK AO2 T10371089
0169720534001612025010818357+40017-105050FM-15+1564KEIK V0203005N001552200059N0160935N5-00255-00855999999ADDGA1005+999999999GD10991+9999999GF100991999999999999999999MA1102105084555REMMET08501/08/25 11:35:02 METAR KEIK 081835Z 30003KT 10SM CLR M03/M08 A3015 RMK AO2 T10251085
0169720534001612025010818557+40017-105050FM-15+1564KEIK V0209999C000052200059N0160935N5-00135-00805999999ADDGA1005+999999999GD10991+9999999GF100991999999999999999999MA1102035084495REMMET08501/08/25 11:55:02 METAR KEIK 081855Z 00000KT 10SM CLR M01/M08 A3013 RMK AO2 T10131080
0176720534001612025010819157+40017-105050FM-15+1564KEIK V0209999C000052200059N0160935N5-00055-00835999999ADDGA1005+999999999GD10991+9999999GF100991999999999999999999MA1101935084405REMMET09201/08/25 12:15:02 METAR KEIK 081915Z 00000KT 10SM CLR M00/M08 A3010 RMK AO2 PRESFR T10051083
0175720534001612025010819357+40017-105050FM-15+1564KEIK V0209999C000052200059N0160935N5+00135-00775999999ADDGA1005+999999999GD10991+9999999GF100991999999999999999999MA1101865084345REMMET09101/08/25 12:35:02 METAR KEIK 081935Z 00000KT 10SM CLR 01/M08 A3008 RMK AO2 PRESFR T00131077
0168720534001612025010819557+40017-105050FM-15+1564KEIK V0201605N003152200059N0160935N5+00265-00935999999ADDGA1005+999999999GD10991+9999999GF100991999999999999999999MA1101765084265REMMET08401/08/25 12:55:02 METAR KEIK 081955Z 16006KT 10SM CLR 03/M09 A3005 RMK AO2 T00261093
0168720534001612025010820157+40017-105050FM-15+1564KEIK V0201805N002652200059N0160935N5+00385-00975999999ADDGA1005+999999999GD10991+9999999GF100991999999999999999999MA1101695084205REMMET08401/08/25 13:15:02 METAR KEIK 082015Z 18005KT 10SM CLR 04/M10 A3003 RMK AO2 T00381097
0168720534001612025010820357+40017-105050FM-15+1564KEIK V0209999C000052200059N0160935N5+00466-00955999999ADDGA1005+999999999GD10991+9999999GF100991999999999999999999MA1101635084145REMMET08401/08/25 13:35:02 METAR KEIK 082035Z 00000KT 10SM CLR 05/M09 A3001 RMK AO2 T00461095
0168720534001612025010820557+40017-105050FM-15+1564KEIK V0203405N003652200059N0160935N5+00246-00515999999ADDGA1005+999999999GD10991+9999999GF100991999999999999999999MA1101635084145REMMET08401/08/25 13:55:02 METAR KEIK 082055Z 34007KT 10SM CLR 02/M05 A3001 RMK AO2 T00241051
0168720534001612025010821157+40017-105050FM-15+1564KEIK V0203405N003152200059N0160935N5+00075-00575999999ADDGA1005+999999999GD10991+9999999GF100991999999999999999999MA1101595084115REMMET08401/08/25 14:15:02 METAR KEIK 082115Z 34006KT 10SM CLR 01/M06 A3000 RMK AO2 T00071057
0169720534001612025010821357+40017-105050FM-15+1564KEIK V0203405N003652200059N0160935N5+00005-00645999999ADDGA1005+999999999GD10991+9999999GF100991999999999999999999MA1101595084115REMMET08501/08/25 14:35:02 METAR KEIK 082135Z 34007KT 10SM CLR M00/M06 A3000 RMK AO2 T10001064
0169720534001612025010821557+40017-105050FM-15+1564KEIK V0200205N002152200059N0160935N5-00105-00765999999ADDGA1005+999999999GD10991+9999999GF100991999999999999999999MA1101595084115REMMET08501/08/25 14:55:02 METAR KEIK 082155Z 02004KT 10SM CLR M01/M08 A3000 RMK AO2 T10101076
0169720534001612025010822157+40017-105050FM-15+1564KEIK V0209999C000052200059N0160935N5-00045-00795999999ADDGA1005+999999999GD10991+9999999GF100991999999999999999999MA1101525084055REMMET08501/08/25 15:15:02 METAR KEIK 082215Z 00000KT 10SM CLR M00/M08 A2998 RMK AO2 T10041079
0169720534001612025010822357+40017-105050FM-15+1564KEIK V0200405N001552200059N0160935N5-00025-00815999999ADDGA1005+999999999GD10991+9999999GF100991999999999999999999MA1101525084055REMMET08501/08/25 15:35:02 METAR KEIK 082235Z 04003KT 10SM CLR M00/M08 A2998 RMK AO2 T10021081
0168720534001612025010822557+40017-105050FM-15+1564KEIK V0209999C000052200059N0160935N5+00035-00815999999ADDGA1005+999999999GD10991+9999999GF100991999999999999999999MA1101525084055REMMET08401/08/25 15:55:02 METAR KEIK 082255Z 00000KT 10SM CLR 00/M08 A2998 RMK AO2 T00031081
0168720534001612025010823157+40017-105050FM-15+1564KEIK V0209999C000052200059N0160935N5+00065-00805999999ADDGA1005+999999999GD10991+9999999GF100991999999999999999999MA1101465084005REMMET08401/08/25 16:15:02 METAR KEIK 082315Z 00000KT 10SM CLR 01/M08 A2996 RMK AO2 T00061080
0169720534001612025010823357+40017-105050FM-15+1564KEIK V0203305N001552200059N0160935N5-00075-00775999999ADDGA1005+999999999GD10991+9999999GF100991999999999999999999MA1101465084005REMMET08501/08/25 16:35:02 METAR KEIK 082335Z 33003KT 10SM CLR M01/M08 A2996 RMK AO2 T10071077
0169720534001612025010823557+40017-105050FM-15+1564KEIK V0209999C000052200059N0160935N5-00185-00795999999ADDGA1005+999999999GD10991+9999999GF100991999999999999999999MA1101425083975REMMET08501/08/25 16:55:02 METAR KEIK 082355Z 00000KT 10SM CLR M02/M08 A2995 RMK AO2 T10181079
0169720534001612025010900157+40017-105050FM-15+1564KEIK V0209999C000052200059N0160935N5-00465-00795999999ADDGA1005+999999999GD10991+9999999GF100991999999999999999999MA1101395083945REMMET08501/08/25 17:15:01 METAR KEIK 090015Z 00000KT 10SM CLR M05/M08 A2994 RMK AO2 T10461079
0169720534001612025010900357+40017-105050FM-15+1564KEIK V0209999C000052200059N0160935N5-00645-00855999999ADDGA1005+999999999GD10991+9999999GF100991999999999999999999MA1101395083945REMMET08501/08/25 17:35:01 METAR KEIK 090035Z 00000KT 10SM CLR M06/M08 A2994 RMK AO2 T10641085
0169720534001612025010900557+40017-105050FM-15+1564KEIK V0209999C000052200059N0160935N5-00605-00805999999ADDGA1005+999999999GD10991+9999999GF100991999999999999999999MA1101355083915REMMET08501/08/25 17:55:01 METAR KEIK 090055Z 00000KT 10SM CLR M06/M08 A2993 RMK AO2 T10601080
0169720534001612025010901157+40017-105050FM-15+1564KEIK V0209999C000052200059N0160935N5-00595-00815999999ADDGA1005+999999999GD10991+9999999GF100991999999999999999999MA1101325083885REMMET08501/08/25 18:15:01 METAR KEIK 090115Z 00000KT 10SM CLR M06/M08 A2992 RMK AO2 T10591081
0169720534001612025010901357+40017-105050FM-15+1564KEIK V0209999C000052200059N0160935N5-00575-00805999999ADDGA1005+999999999GD10991+9999999GF100991999999999999999999MA1101355083915REMMET08501/08/25 18:35:01 METAR KEIK 090135Z 00000KT 10SM CLR M06/M08 A2993 RMK AO2 T10571080
0169720534001612025010901557+40017-105050FM-15+1564KEIK V0203405N001552200059N0160935N5-00705-00875999999ADDGA1005+999999999GD10991+9999999GF100991999999999999999999MA1101395083945REMMET08501/08/25 18:55:01 METAR KEIK 090155Z 34003KT 10SM CLR M07/M09 A2994 RMK AO2 T10701087
0169720534001612025010902157+40017-105050FM-15+1564KEIK V0209999C000052200059N0160935N5-00635-00885999999ADDGA1005+999999999GD10991+9999999GF100991999999999999999999MA1101465084005REMMET08501/08/25 19:15:01 METAR KEIK 090215Z 00000KT 10SM CLR M06/M09 A2996 RMK AO2 T10631088
0169720534001612025010902357+40017-105050FM-15+1564KEIK V0209999C000052200059N0160935N5-00645-00835999999ADDGA1005+999999999GD10991+9999999GF100991999999999999999999MA1101465084005REMMET08501/08/25 19:35:01 METAR KEIK 090235Z 00000KT 10SM CLR M06/M08 A2996 RMK AO2 T10641083
0169720534001612025010902557+40017-105050FM-15+1564KEIK V0209999C000052200059N0160935N5-00695-00885999999ADDGA1005+999999999GD10991+9999999GF100991999999999999999999MA1101465084005REMMET08501/08/25 19:55:02 METAR KEIK 090255Z 00000KT 10SM CLR M07/M09 A2996 RMK AO2 T10691088
0194720534001612025010903157+40017-105050FM-15+1564KEIK V0209999C00005045725MN0160935N5-00775-00885999999ADDGA1075+045725999GD13991+0457259GE19AGL   +99999+99999GF199999999999045721999999MA1101525084055REMMET08801/08/25 20:15:02 METAR KEIK 090315Z 00000KT 10SM BKN150 M08/M09 A2998 RMK AO2 T10771088
0213720534001612025010903357+40017-105050FM-15+1564KEIK V0201805N001552200059N0160935N5-00785-00905999999ADDGA1045+045725999GD12991+0457259GE19AGL   +99999+99999GF104995999999045721999999MA1101495084035REMMET08801/08/25 20:35:02 METAR KEIK 090335Z 18003KT 10SM SCT150 M08/M09 A2997 RMK AO2 T10781090EQDD01      0ADE726
0213720534001612025010903557+40017-105050FM-15+1564KEIK V0209999C000052200059N0160935N5-00715-00855999999ADDGA1025+042675999GD11991+0426759GE19AGL   +99999+99999GF102995999999042671999999MA1101525084055REMMET08801/08/25 20:55:02 METAR KEIK 090355Z 00000KT 10SM FEW140 M07/M09 A2998 RMK AO2 T10711085EQDD01      0ADE726
0232720534001612025010904157+40017-105050FM-15+1564KEIK V0209999C00005036585MN0160935N5-00665-00775999999ADDGA1075+036585999GA2075+042675999GD13991+0365859GD23991+0426759GE19AGL   +99999+99999GF199999999999036581999999MA1101525084055REMMET09501/08/25 21:15:02 METAR KEIK 090415Z 00000KT 10SM BKN120 BKN140 M07/M08 A2998 RMK AO2 T10661077
0232720534001612025010904357+40017-105050FM-15+1564KEIK V0209999C00005030485MN0160935N5-00615-00785999999ADDGA1075+030485999GA2085+036585999GD13991+0304859GD24991+0365859GE19AGL   +99999+99999GF199999999999030481999999MA1101635084145REMMET09501/08/25 21:35:02 METAR KEIK 090435Z 00000KT 10SM BKN100 OVC120 M06/M08 A3001 RMK AO2 T10611078
0194720534001612025010904557+40017-105050FM-15+1564KEIK V0201805N00155028965MN0160935N5-00585-00765999999ADDGA1085+028965999GD14991+0289659GE19AGL   +99999+99999GF199999999999028961999999MA1101635084145REMMET08801/08/25 21:55:02 METAR KEIK 090455Z 18003KT 10SM OVC095 M06/M08 A3001 RMK AO2 T10581076
0194720534001612025010905157+40017-105050FM-15+1564KEIK V0209999C00005028965MN0160935N5-00545-00755999999ADDGA1085+028965999GD14991+0289659GE19AGL   +99999+99999GF199999999999028961999999MA1101665084175REMMET08801/08/25 22:15:02 METAR KEIK 090515Z 00000KT 10SM OVC095 M05/M08 A3002 RMK AO2 T10541075
0232720534001612025010905357+40017-105050FM-15+1564KEIK V0209999C00005025915MN0160935N5-00495-00785999999ADDGA1025+019815999GA2085+025915999GD11991+0198159GD24991+0259159GE19AGL   +99999+99999GF199999999999019811999999MA1101665084175REMMET09501/08/25 22:35:02 METAR KEIK 090535Z 00000KT 10SM FEW065 OVC085 M05/M08 A3002 RMK AO2 T10491078
0194720534001612025010905557+40017-105050FM-15+1564KEIK V0209999C00005022865MN0160935N5-00425-00775999999ADDGA1085+022865999GD14991+0228659GE19AGL   +99999+99999GF199999999999022861999999MA1101695084205REMMET08801/08/25 22:55:02 METAR KEIK 090555Z 00000KT 10SM OVC075 M04/M08 A3003 RMK AO2 T10421077
0232720534001612025010906157+40017-105050FM-15+1564KEIK V0209999C00005030485MN0160935N5-00365-00785999999ADDGA1045+022865999GA2075+030485999GD12991+0228659GD23991+0304859GE19AGL   +99999+99999GF199999999999022861999999MA1101695084205REMMET09501/08/25 23:15:02 METAR KEIK 090615Z 00000KT 10SM SCT075 BKN100 M04/M08 A3003 RMK AO2 T10361078
0194720534001612025010906357+40017-105050FM-15+1564KEIK V0209999C00005030485MN0160935N5-00345-00775999999ADDGA1075+030485999GD13991+0304859GE19AGL   +99999+99999GF199999999999030481999999MA1101695084205REMMET08801/08/25 23:35:02 METAR KEIK 090635Z 00000KT 10SM BKN100 M03/M08 A3003 RMK AO2 T10341077
0232720534001612025010906557+40017-105050FM-15+1564KEIK V0209999C00005036585MN0160935N5-00375-00745999999ADDGA1045+030485999GA2075+036585999GD12991+0304859GD23991+0365859GE19AGL   +99999+99999GF199999999999030481999999MA1101695084205REMMET09501/08/25 23:55:02 METAR KEIK 090655Z 00000KT 10SM SCT100 BKN120 M04/M07 A3003 RMK AO2 T10371074
001572053400161202501090659O+40017-105050SOD  +1564KEIK V020999999999999999999999999999+99999+99999999999ADDAT1AU13BR  5
0194720534001612025010907157+40017-105050FM-15+1564KEIK V0203105N00155030485MN0160935N5-00375-00745999999ADDGA1085+030485999GD14991+0304859GE19AGL   +99999+99999GF199999999999030481999999MA1101695084205REMMET08801/09/25 00:15:02 METAR KEIK 090715Z 31003KT 10SM OVC100 M04/M07 A3003 RMK AO2 T10371074
0270720534001612025010907357+40017-105050FM-15+1564KEIK V0209999C00005027435MN0160935N5-00445-00695999999ADDGA1025+019815999GA2075+027435999GA3075+033535999GD11991+0198159GD23991+0274359GD33991+0335359GE19AGL   +99999+99999GF199999999999019811999999MA1101695084205REMMET10201/09/25 00:35:02 METAR KEIK 090735Z 00000KT 10SM FEW065 BKN090 BKN110 M04/M07 A3003 RMK AO2 T10441069
0270720534001612025010907557+40017-105050FM-15+1564KEIK V0200505N00155018295MN0160935N5-00375-00725999999ADDGA1075+018295999GA2075+022865999GA3085+027435999GD13991+0182959GD23991+0228659GD34991+0274359GE19AGL   +99999+99999GF199999999999018291999999MA1101735084235REMMET10201/09/25 00:55:02 METAR KEIK 090755Z 05003KT 10SM BKN060 BKN075 OVC090 M04/M07 A3004 RMK AO2 T10371072
0194720534001612025010908157+40017-105050FM-15+1564KEIK V0209999C00005016765MN0160935N5-00375-00605999999ADDGA1085+016765999GD14991+0167659GE19AGL   +99999+99999GF199999999999016761999999MA1101765084265REMMET08801/09/25 01:15:02 METAR KEIK 090815Z 00000KT 10SM OVC055 M04/M06 A3005 RMK AO2 T10371060
0194720534001612025010908357+40017-105050FM-15+1564KEIK V0209999C00005016765MN0160935N5-00365-00595999999ADDGA1085+016765999GD14991+0167659GE19AGL   +99999+99999GF199999999999016761999999MA1101765084265REMMET08801/09/25 01:35:02 METAR KEIK 090835Z 00000KT 10SM OVC055 M04/M06 A3005 RMK AO2 T10361059
0270720534001612025010908557+40017-105050FM-15+1564KEIK V0209999C00005021345MN0160935N5-00315-00745999999ADDGA1045+016765999GA2075+021345999GA3075+025915999GD12991+0167659GD23991+0213459GD33991+0259159GE19AGL   +99999+99999GF199999999999016761999999MA1101735084235REMMET10201/09/25 01:55:02 METAR KEIK 090855Z 00000KT 10SM SCT055 BKN070 BKN085 M03/M07 A3004 RMK AO2 T10311074
0232720534001612025010909157+40017-105050FM-15+1564KEIK V0202405N00315024385MN0160935N5-00365-00735999999ADDGA1045+019815999GA2085+024385999GD12991+0198159GD24991+0243859GE19AGL   +99999+99999GF199999999999019811999999MA1101765084265REMMET09501/09/25 02:15:02 METAR KEIK 090915Z 24006KT 10SM SCT065 OVC080 M04/M07 A3005 RMK AO2 T10361073
0232720534001612025010909357+40017-105050FM-15+1564KEIK V0202105N00215016765MN0160935N5-00295-00775999999ADDGA1075+016765999GA2085+022865999GD13991+0167659GD24991+0228659GE19AGL   +99999+99999GF199999999999016761999999MA1101765084265REMMET09501/09/25 02:35:02 METAR KEIK 090935Z 21004KT 10SM BKN055 OVC075 M03/M08 A3005 RMK AO2 T10291077
0232720534001612025010909557+40017-105050FM-15+1564KEIK V0201905N00155018295MN0160935N5-00285-00765999999ADDGA1075+018295999GA2085+022865999GD13991+0182959GD24991+0228659GE19AGL   +99999+99999GF199999999999018291999999MA1101765084265REMMET09501/09/25 02:55:02 METAR KEIK 090955Z 19003KT 10SM BKN060 OVC075 M03/M08 A3005 RMK AO2 T10281076
0232720534001612025010910157+40017-105050FM-15+1564KEIK V0202005N00215018295MN0160935N5-00285-00745999999ADDGA1075+018295999GA2085+025915999GD13991+0182959GD24991+0259159GE19AGL   +99999+99999GF199999999999018291999999MA1101795084295REMMET09501/09/25 03:15:02 METAR KEIK 091015Z 20004KT 10SM BKN060 OVC085 M03/M07 A3006 RMK AO2 T10281074
0232720534001612025010910357+40017-105050FM-15+1564KEIK V0209999C00005018295MN0160935N5-00275-00725999999ADDGA1075+018295999GA2085+024385999GD13991+0182959GD24991+0243859GE19AGL   +99999+99999GF199999999999018291999999MA1101795084295REMMET09501/09/25 03:35:02 METAR KEIK 091035Z 00000KT 10SM BKN060 OVC080 M03/M07 A3006 RMK AO2 T10271072
0270720534001612025010910557+40017-105050FM-15+1564KEIK V0200805N00155018295MN0160935N5-00245-00665999999ADDGA1045+012195999GA2045+015245999GA3075+018295999GD12991+0121959GD22991+0152459GD33991+0182959GE19AGL   +99999+99999GF199999999999012191999999MA1101835084325REMMET10201/09/25 03:55:02 METAR KEIK 091055Z 08003KT 10SM SCT040 SCT050 BKN060 M02/M07 A3007 RMK AO2 T10241066
0232720534001612025010911157+40017-105050FM-15+1564KEIK V0209999C00005018295MN0160935N5-00235-00645999999ADDGA1025+013115999GA2075+018295999GD11991+0131159GD23991+0182959GE19AGL   +99999+99999GF199999999999013111999999MA1101835084325REMMET09501/09/25 04:15:02 METAR KEIK 091115Z 00000KT 10SM FEW043 BKN060 M02/M06 A3007 RMK AO2 T10231064
0194720534001612025010911357+40017-105050FM-15+1564KEIK V0209999C00005016765MN0160935N5-00235-00615999999ADDGA1085+016765999GD14991+0167659GE19AGL   +99999+99999GF199999999999016761999999MA1101835084325REMMET08801/09/25 04:35:02 METAR KEIK 091135Z 00000KT 10SM OVC055 M02/M06 A3007 RMK AO2 T10231061
0232720534001612025010911557+40017-105050FM-15+1564KEIK V0200605N00215018295MN0160935N5-00105-00705999999ADDGA1025+013115999GA2085+018295999GD11991+0131159GD24991+0182959GE19AGL   +99999+99999GF199999999999013111999999MA1101835084325REMMET09501/09/25 04:55:02 METAR KEIK 091155Z 06004KT 10SM FEW043 OVC060 M01/M07 A3007 RMK AO2 T10101070
0194720534001612025010912157+40017-105050FM-15+1564KEIK V0200305N00315018295MN0160935N5-00015-00705999999ADDGA1085+018295999GD14991+0182959GE19AGL   +99999+99999GF199999999999018291999999MA1101905084375REMMET08801/09/25 05:15:02 METAR KEIK 091215Z 03006KT 10SM OVC060 M00/M07 A3009 RMK AO2 T10011070
0231720534001612025010912357+40017-105050FM-15+1564KEIK V0203505N00365018295MN0160935N5+00015-00675999999ADDGA1045+014335999GA2085+018295999GD12991+0143359GD24991+0182959GE19AGL   +99999+99999GF199999999999014331999999MA1101935084405REMMET09401/09/25 05:35:02 METAR KEIK 091235Z 35007KT 10SM SCT047 OVC060 00/M07 A3010 RMK AO2 T00011067
0280720534001612025010912557+40017-105050FM-15+1564KEIK V0203405N00725012505MN0160935N5+00035-00765999999ADDGA1075+012505999GA2075+014945999GA3085+018295999GD13991+0125059GD23991+0149459GD34991+0182959GE19AGL   +99999+99999GF199999999999012501999999MA1102005084465OC101085REMMET10401/09/25 05:55:02 METAR KEIK 091255Z 34014G21KT 10SM BKN041 BKN049 OVC060 00/M08 A3012 RMK AO2 T00031076
0243720534001612025010913157+40017-105050FM-15+1564KEIK V0203605N00465013415MN0160935N5-00045-00725999999ADDGA1075+013415999GA2085+015245999GD13991+0134159GD24991+0152459GE19AGL   +99999+99999GF199999999999013411999999MA1102075084525OC100825REMMET09801/09/25 06:15:02 METAR KEIK 091315Z 36009G16KT 10SM BKN044 OVC050 M00/M07 A3014 RMK AO2 T10041072
0326720534001612025010913357+40017-105050FM-15+1564KEIK V0203405N00825011285MN0160935N5-00105-00765999999ADDAA101000021AU120090015AW1401AW2415GA1075+011285999GA2085+014335999GD13991+0112859GD24991+0143359GE19AGL   +99999+99999GF199999999999011281999999MA1102135084585OC101395OD149901391330REMMET13301/09/25 06:35:02 METAR KEIK 091335Z 34016G27KT 10SM UP BKN037 OVC047 M01/M08 A3016 RMK AO2 PK WND 33027/1326 UPB1329 P0000 T10101076
0243720534001612025010913557+40017-105050FM-15+1564KEIK V0203505N00725012195MN0160935N5-00115-00885999999ADDGA1075+012195999GA2085+014945999GD13991+0121959GD24991+0149459GE19AGL   +99999+99999GF199999999999012191999999MA1102175084615OC101245REMMET09801/09/25 06:55:02 METAR KEIK 091355Z 35014G24KT 10SM BKN040 OVC049 M01/M09 A3017 RMK AO2 T10111088
0243720534001612025010914157+40017-105050FM-15+1564KEIK V0203605N00625011895MN0160935N5-00165-00875999999ADDGA1075+011895999GA2085+014335999GD13991+0118959GD24991+0143359GE19AGL   +99999+99999GF199999999999011891999999MA1102205084645OC101085REMMET09801/09/25 07:15:02 METAR KEIK 091415Z 36012G21KT 10SM BKN039 OVC047 M02/M09 A3018 RMK AO2 T10161087
0205720534001612025010914357+40017-105050FM-15+1564KEIK V0203405N00625011585MN0160935N5-00185-00845999999ADDGA1085+011585999GD14991+0115859GE19AGL   +99999+99999GF199999999999011581999999MA1102275084695OC100935REMMET09101/09/25 07:35:02 METAR KEIK 091435Z 34012G18KT 10SM OVC038 M02/M08 A3020 RMK AO2 T10181084
0236720534001612025010914557+40017-105050FM-15+1564KEIK V0203405N00675010365MN0128755N5-00205-00905999999ADDAA101000021AU120090015AW1401AW2415GA1085+010365999GD14991+0103659GE19AGL   +99999+99999GF199999999999010361999999MA1102305084725REMMET09601/09/25 07:55:02 METAR KEIK 091455Z 34013KT 8SM UP OVC034 M02/M09 A3021 RMK AO2 P0000 T10201090
0247720534001612025010915157+40017-105050FM-15+1564KEIK V0203405N00885009755MN0112655N5-00185-00935999999ADDAA101000021AU120090015AW1401AW2415GA1085+009755999GD14991+0097559GE19AGL   +99999+99999GF199999999999009751999999MA1102345084755OC101295REMMET09901/09/25 08:15:02 METAR KEIK 091515Z 34017G25KT 7SM UP OVC032 M02/M09 A3022 RMK AO2 P0000 T10181093
0268720534001612025010915357+40017-105050FM-15+1564KEIK V0203405N00725011285MN0160935N5-00155-00985999999ADDAA101000021GA1075+011285999GA2085+013415999GD13991+0112859GD24991+0134159GE19AGL   +99999+99999GF199999999999011281999999MA1102405084815OC100985REMMET11201/09/25 08:35:02 METAR KEIK 091535Z 34014G19KT 10SM BKN037 OVC044 M01/M10 A3024 RMK AO2 UPE1523 P0000 T10151098
0205720534001612025010915557+40017-105050FM-15+1564KEIK V0203605N00625012505MN0160935N5-00145-00965999999ADDGA1085+012505999GD14991+0125059GE19AGL   +99999+99999GF199999999999012501999999MA1102445084845OC101295REMMET09101/09/25 08:55:02 METAR KEIK 091555Z 36012G25KT 10SM OVC041 M01/M10 A3025 RMK AO2 T10141096
0313720534001612025010916157+40017-105050FM-15+1564KEIK V0203505N00725014335MN0160935N5-00105-01025999999ADDGA1025+011285999GA2075+014335999GA3085+016765999GD11991+0112859GD23991+0143359GD34991+0167659GE19AGL   +99999+99999GF199999999999011281999999MA1102475084875OC101135OD149901331330REMMET12301/09/25 09:15:02 METAR KEIK 091615Z 35014G22KT 10SM FEW037 BKN047 OVC055 M01/M10 A3026 RMK AO2 PK WND 33026/1602 T10101102
0275720534001612025010916357+40017-105050FM-15+1564KEIK V0203405N00515014945MN0160935N5-00095-01055999999ADDGA1075+014945999GA2085+018295999GD13991+0149459GD24991+0182959GE19AGL   +99999+99999GF199999999999014941999999MA1102475084875OC101185OD149901331340REMMET11601/09/25 09:35:02 METAR KEIK 091635Z 34010G23KT 10SM BKN049 OVC060 M01/M10 A3026 RMK AO2 PK WND 34026/1621 T10091105
0194720534001612025010916557+40017-105050FM-15+1564KEIK V0200105N00415016765MN0160935N5-00095-00975999999ADDGA1085+016765999GD14991+0167659GE19AGL   +99999+99999GF199999999999016761999999MA1102515084905REMMET08801/09/25 09:55:02 METAR KEIK 091655Z 01008KT 10SM OVC055 M01/M10 A3027 RMK AO2 T10091097
0193720534001612025010917157+40017-105050FM-15+1564KEIK V0200105N00515016765MN0144845N5-00075-00925999999ADDGA1075+016765999GD13991+0167659GE19AGL   +99999+99999GF199999999999016761999999MA1102515084905REMMET08701/09/25 10:15:02 METAR KEIK 091715Z 01010KT 9SM BKN055 M01/M09 A3027 RMK AO2 T10071092
0251720534001612025010917357+40017-105050FM-15+1564KEIK V0203605N005752200059N0160935N5-00035-00915999999ADDGA1025+018295999GA2045+025915999GD11991+0182959GD22991+0259159GE19AGL   +99999+99999GF104995999999018291999999MA1102545084935REMMET09501/09/25 10:35:02 METAR KEIK 091735Z 36011KT 10SM FEW060 SCT085 M00/M09 A3028 RMK AO2 T10031091EQDD01      0ADE726
0194720534001612025010917557+40017-105050FM-15+1564KEIK V0200105N00515025915MN0160935N5-00045-00915999999ADDGA1075+025915999GD13991+0259159GE19AGL   +99999+99999GF199999999999025911999999MA1102515084905REMMET08801/09/25 10:55:02 METAR KEIK 091755Z 01010KT 10SM BKN085 M00/M09 A3027 RMK AO2 T10041091
0224720534001612025010918157+40017-105050FM-15+1564KEIK V0200205N005752200059N0160935N5-00035-00935999999ADDGA1045+025915999GD12991+0259159GE19AGL   +99999+99999GF104995999999025911999999MA1102475084875OC100885REMMET09101/09/25 11:15:02 METAR KEIK 091815Z 02011G17KT 10SM SCT085 M00/M09 A3026 RMK AO2 T10031093EQDD01      0ADE726
0194720534001612025010918357+40017-105050FM-15+1564KEIK V0200105N00575027435MN0160935N5-00015-00885999999ADDGA1075+027435999GD13991+0274359GE19AGL   +99999+99999GF199999999999027431999999MA1102445084845REMMET08801/09/25 11:35:02 METAR KEIK 091835Z 01011KT 10SM BKN090 M00/M09 A3025 RMK AO2 T10011088
0261720534001612025010918557+40017-105050FM-15+1564KEIK V0200105N004152200059N0160935N5+00025-00845999999ADDGA1025+015245999GA2045+027435999GD11991+0152459GD22991+0274359GE19AGL   +99999+99999GF104995999999015241999999MA1102405084815OC100885REMMET09701/09/25 11:55:02 METAR KEIK 091855Z 01008G17KT 10SM FEW050 SCT090 00/M08 A3024 RMK AO2 T00021084EQDD01      0ADE726
0250720534001612025010919157+40017-105050FM-15+1564KEIK V0200205N005752200059N0160935N5+00025-00855999999ADDGA1045+014945999GA2045+028965999GD12991+0149459GD22991+0289659GE19AGL   +99999+99999GF104995999999014941999999MA1102375084785REMMET09401/09/25 12:15:02 METAR KEIK 091915Z 02011KT 10SM SCT049 SCT095 00/M08 A3023 RMK AO2 T00021085EQDD01      0ADE726
0212720534001612025010919357+40017-105050FM-15+1564KEIK V0203605N005152200059N0160935N5+00045-00835999999ADDGA1045+016765999GD12991+0167659GE19AGL   +99999+99999GF104995999999016761999999MA1102305084725REMMET08701/09/25 12:35:02 METAR KEIK 091935Z 36010KT 10SM SCT055 00/M08 A3021 RMK AO2 T00041083EQDD01      0ADE726
0223720534001612025010919557+40017-105050FM-15+1564KEIK V0203605N005152200059N0160935N5+00075-00825999999ADDGA1045+016765999GD12991+0167659GE19AGL   +99999+99999GF104995999999016761999999MA1102275084695OC100825REMMET09001/09/25 12:55:02 METAR KEIK 091955Z 36010G16KT 10SM SCT055 01/M08 A3020 RMK AO2 T00071082EQDD01      0ADE726
0223720534001612025010920157+40017-105050FM-15+1564KEIK V0203605N005752200059N0160935N5+00065-00855999999ADDGA1045+016765999GD12991+0167659GE19AGL   +99999+99999GF104995999999016761999999MA1102275084695OC100885REMMET09001/09/25 13:15:02 METAR KEIK 092015Z 36011G17KT 10SM SCT055 01/M09 A3020 RMK AO2 T00061085EQDD01      0ADE726
0223720534001612025010920357+40017-105050FM-15+1564KEIK V0200205N005752200059N0160935N5+00105-00755999999ADDGA1025+016765999GD11991+0167659GE19AGL   +99999+99999GF102995999999016761999999MA1102275084695OC100935REMMET09001/09/25 13:35:02 METAR KEIK 092035Z 02011G18KT 10SM FEW055 01/M07 A3020 RMK AO2 T00101075EQDD01      0ADE726
0261720534001612025010920557+40017-105050FM-15+1564KEIK V0200105N005752200059N0160935N5+00095-00685999999ADDGA1025+033535999GA2045+051825999GD11991+0335359GD22991+0518259GE19AGL   +99999+99999GF104995999999033531999999MA1102305084725OC100885REMMET09701/09/25 13:55:02 METAR KEIK 092055Z 01011G17KT 10SM FEW110 SCT170 01/M07 A3021 RMK AO2 T00091068EQDD01      0ADE726
0183720534001612025010921156+40017-105050FM-15+1564KEIK V0200405N00465033535MN0160935N5+00045-00705999999ADDGA1075+033535999GA2075+051825999GD13991+0335359GD23991+0518259MA1102305084725REMMET09401/09/25 14:15:02 METAR KEIK 092115Z 04009KT 10SM BKN110 BKN170 00/M07 A3021 RMK AO2 T00041070
0156720534001612025010921356+40017-105050FM-15+1564KEIK V0200405N00465033535MN0160935N5+00005-00665999999ADDGA1085+033535999GD14991+0335359MA1102345084755OC100825REMMET09001/09/25 14:35:02 METAR KEIK 092135Z 04009G16KT 10SM OVC110 00/M07 A3022 RMK AO2 T00001066
0232720534001612025010921557+40017-105050FM-15+1564KEIK V0200405N00515033535MN0160935N5-00045-00665999999ADDGA1025+016765999GA2075+033535999GD11991+0167659GD23991+0335359GE19AGL   +99999+99999GF199999999999016761999999MA1102375084785REMMET09501/09/25 14:55:02 METAR KEIK 092155Z 04010KT 10SM FEW055 BKN110 M00/M07 A3023 RMK AO2 T10041066
0270720534001612025010922157+40017-105050FM-15+1564KEIK V0200305N00415033535MN0160935N5-00035-00695999999ADDGA1025+016765999GA2075+033535999GA3075+054865999GD11991+0167659GD23991+0335359GD33991+0548659GE19AGL   +99999+99999GF199999999999016761999999MA1102405084815REMMET10201/09/25 15:15:02 METAR KEIK 092215Z 03008KT 10SM FEW055 BKN110 BKN180 M00/M07 A3024 RMK AO2 T10031069
0243720534001612025010922357+40017-105050FM-15+1564KEIK V0200305N00515057915MN0160935N5-00085-00675999999ADDGA1025+016765999GA2075+057915999GD11991+0167659GD23991+0579159GE19AGL   +99999+99999GF199999999999016761999999MA1102405084815OC100775REMMET09801/09/25 15:35:02 METAR KEIK 092235Z 03010G15KT 10SM FEW055 BKN190 M01/M07 A3024 RMK AO2 T10081067
0232720534001612025010922557+40017-105050FM-15+1564KEIK V0200205N00415057915MN0160935N5-00085-00695999999ADDGA1025+016765999GA2075+057915999GD11991+0167659GD23991+0579159GE19AGL   +99999+99999GF199999999999016761999999MA1102445084845REMMET09501/09/25 15:55:02 METAR KEIK 092255Z 02008KT 10SM FEW055 BKN190 M01/M07 A3025 RMK AO2 T10081069
0231720534001612025010923157+40017-105050FM-15+1564KEIK V0200305N00515057915MN0144845N5-00145-00765999999ADDGA1025+016765999GA2075+057915999GD11991+0167659GD23991+0579159GE19AGL   +99999+99999GF199999999999016761999999MA1102475084875REMMET09401/09/25 16:15:02 METAR KEIK 092315Z 03010KT 9SM FEW055 BKN190 M01/M08 A3026 RMK AO2 T10141076
0250720534001612025010923357+40017-105050FM-15+1564KEIK V0200305N005152200059N0144845N5-00225-00885999999ADDGA1025+016765999GA2045+060965999GD11991+0167659GD22991+0609659GE19AGL   +99999+99999GF104995999999016761999999MA1102515084905REMMET09401/09/25 16:35:02 METAR KEIK 092335Z 03010KT 9SM FEW055 SCT200 M02/M09 A3027 RMK AO2 T10221088EQDD01      0ADE726
0212720534001612025010923557+40017-105050FM-15+1564KEIK V0200305N004652200059N0128755N5-00265-00875999999ADDGA1025+018295999GD11991+0182959GE19AGL   +99999+99999GF102995999999018291999999MA1102575084965REMMET08701/09/25 16:55:02 METAR KEIK 092355Z 03009KT 8SM FEW060 M03/M09 A3029 RMK AO2 T10261087EQDD01      0ADE726
0212720534001612025011000157+40017-105050FM-15+1564KEIK V0200405N004652200059N0144845N5-00305-00875999999ADDGA1025+036585999GD11991+0365859GE19AGL   +99999+99999GF102995999999036581999999MA1102575084965REMMET08701/09/25 17:15:01 METAR KEIK 100015Z 04009KT 9SM FEW120 M03/M09 A3029 RMK AO2 T10301087EQDD01      0ADE726
0169720534001612025011000357+40017-105050FM-15+1564KEIK V0200305N004152200059N0160935N5-00305-00925999999ADDGA1005+999999999GD10991+9999999GF100991999999999999999999MA1102645085015REMMET08501/09/25 17:35:01 METAR KEIK 100035Z 03008KT 10SM CLR M03/M09 A3031 RMK AO2 T10301092
0169720534001612025011000557+40017-105050FM-15+1564KEIK V0200305N003152200059N0160935N5-00335-01025999999ADDGA1005+999999999GD10991+9999999GF100991999999999999999999MA1102645085015REMMET08501/09/25 17:55:01 METAR KEIK 100055Z 03006KT 10SM CLR M03/M10 A3031 RMK AO2 T10331102
0169720534001612025011001157+40017-105050FM-15+1564KEIK V0200105N003152200059N0160935N5-00315-01115999999ADDGA1005+999999999GD10991+9999999GF100991999999999999999999MA1102685085045REMMET08501/09/25 18:15:01 METAR KEIK 100115Z 01006KT 10SM CLR M03/M11 A3032 RMK AO2 T10311111
0169720534001612025011001357+40017-105050FM-15+1564KEIK V0200205N002152200059N0160935N5-00445-01005999999ADDGA1005+999999999GD10991+9999999GF100991999999999999999999MA1102685085045REMMET08501/09/25 18:35:01 METAR KEIK 100135Z 02004KT 10SM CLR M04/M10 A3032 RMK AO2 T10441100
0169720534001612025011001557+40017-105050FM-15+1564KEIK V0200405N001552200059N0160935N5-00475-01005999999ADDGA1005+999999999GD10991+9999999GF100991999999999999999999MA1102685085045REMMET08501/09/25 18:55:01 METAR KEIK 100155Z 04003KT 10SM CLR M05/M10 A3032 RMK AO2 T10471100
0169720534001612025011002157+40017-105050FM-15+1564KEIK V0200505N002152200059N0160935N5-00625-01015999999ADDGA1005+999999999GD10991+9999999GF100991999999999999999999MA1102685085045REMMET08501/09/25 19:15:01 METAR KEIK 100215Z 05004KT 10SM CLR M06/M10 A3032 RMK AO2 T10621101
0169720534001612025011002357+40017-105050FM-15+1564KEIK V0209999C000052200059N0160935N5-00585-01015999999ADDGA1005+999999999GD10991+9999999GF100991999999999999999999MA1102685085045REMMET08501/09/25 19:35:01 METAR KEIK 100235Z 00000KT 10SM CLR M06/M10 A3032 RMK AO2 T10581101
0169720534001612025011002557+40017-105050FM-15+1564KEIK V0200505N002652200059N0160935N5-00575-01025999999ADDGA1005+999999999GD10991+9999999GF100991999999999999999999MA1102685085045REMMET08501/09/25 19:55:01 METAR KEIK 100255Z 05005KT 10SM CLR M06/M10 A3032 RMK AO2 T10571102
0169720534001612025011003157+40017-105050FM-15+1564KEIK V0209999C000052200059N0160935N5-00615-01055999999ADDGA1005+999999999GD10991+9999999GF100991999999999999999999MA1102685085045REMMET08501/09/25 20:15:02 METAR KEIK 100315Z 00000KT 10SM CLR M06/M11 A3032 RMK AO2 T10611105
0168720534001612025011003357+40017-105050FM-15+1564KEIK V0202305N002652200059N0144845N5-00815-01065999999ADDGA1005+999999999GD10991+9999999GF100991999999999999999999MA1102645085015REMMET08401/09/25 20:35:02 METAR KEIK 100335Z 23005KT 9SM CLR M08/M11 A3031 RMK AO2 T10811106
0168720534001612025011003557+40017-105050FM-15+1564KEIK V0209999C000052200059N0144845N5-00785-01075999999ADDGA1005+999999999GD10991+9999999GF100991999999999999999999MA1102685085045REMMET08401/09/25 20:55:02 METAR KEIK 100355Z 00000KT 9SM CLR M08/M11 A3032 RMK AO2 T10781107
0168720534001612025011004157+40017-105050FM-15+1564KEIK V0209999C000052200059N0144845N5-00825-01095999999ADDGA1005+999999999GD10991+9999999GF100991999999999999999999MA1102645085015REMMET08401/09/25 21:15:02 METAR KEIK 100415Z 00000KT 9SM CLR M08/M11 A3031 RMK AO2 T10821109
0168720534001612025011004357+40017-105050FM-15+1564KEIK V0202305N002152200059N0144845N5-00935-01145999999ADDGA1005+999999999GD10991+9999999GF100991999999999999999999MA1102615084985REMMET08401/09/25 21:35:02 METAR KEIK 100435Z 23004KT 9SM CLR M09/M11 A3030 RMK AO2 T10931114
0168720534001612025011004557+40017-105050FM-15+1564KEIK V0201805N001552200059N0144845N5-00865-01155999999ADDGA1005+999999999GD10991+9999999GF100991999999999999999999MA1102615084985REMMET08401/09/25 21:55:02 METAR KEIK 100455Z 18003KT 9SM CLR M09/M11 A3030 RMK AO2 T10861115
0169720534001612025011005157+40017-105050FM-15+1564KEIK V0202305N001552200059N0160935N5-00875-01205999999ADDGA1005+999999999GD10991+9999999GF100991999999999999999999MA1102575084965REMMET08501/09/25 22:15:02 METAR KEIK 100515Z 23003KT 10SM CLR M09/M12 A3029 RMK AO2 T10871120
0168720534001612025011005357+40017-105050FM-15+1564KEIK V0201605N001552200059N0144845N5-00935-01225999999ADDGA1005+999999999GD10991+9999999GF100991999999999999999999MA1102575084965REMMET08401/09/25 22:35:02 METAR KEIK 100535Z 16003KT 9SM CLR M09/M12 A3029 RMK AO2 T10931122
0168720534001612025011005557+40017-105050FM-15+1564KEIK V0201705N001552200059N0144845N5-00925-01225999999ADDGA1005+999999999GD10991+9999999GF100991999999999999999999MA1102545084935REMMET08401/09/25 22:55:02 METAR KEIK 100555Z 17003KT 9SM CLR M09/M12 A3028 RMK AO2 T10921122
0168720534001612025011006157+40017-105050FM-15+1564KEIK V0209999C000052200059N0144845N5-00925-01265999999ADDGA1005+999999999GD10991+9999999GF100991999999999999999999MA1102515084905REMMET08401/09/25 23:15:02 METAR KEIK 100615Z 00000KT 9SM CLR M09/M13 A3027 RMK AO2 T10921126
0168720534001612025011006357+40017-105050FM-15+1564KEIK V0201905N002152200059N0144845N5-00855-01295999999ADDGA1005+999999999GD10991+9999999GF100991999999999999999999MA1102475084875REMMET08401/09/25 23:35:02 METAR KEIK 100635Z 19004KT 9SM CLR M08/M13 A3026 RMK AO2 T10851129
0169720534001612025011006557+40017-105050FM-15+1564KEIK V0209999C000052200059N0160935N5-01035-01325999999ADDGA1005+999999999GD10991+9999999GF100991999999999999999999MA1102445084845REMMET08501/09/25 23:55:02 METAR KEIK 100655Z 00000KT 10SM CLR M10/M13 A3025 RMK AO2 T11031132
001572053400161202501100659O+40017-105050SOD  +1564KEIK V020999999999999999999999999999+99999+99999999999ADDAT1AU19UP  5
0169720534001612025011007157+40017-105050FM-15+1564KEIK V0209999C000052200059N0160935N5-01045-01345999999ADDGA1005+999999999GD10991+9999999GF100991999999999999999999MA1102405084815REMMET08501/10/25 00:15:02 METAR KEIK 100715Z 00000KT 10SM CLR M10/M13 A3024 RMK AO2 T11041134
0168720534001612025011007357+40017-105050FM-15+1564KEIK V0209999C000052200059N0144845N5-01155-01415999999ADDGA1005+999999999GD10991+9999999GF100991999999999999999999MA1102375084785REMMET08401/10/25 00:35:02 METAR KEIK 100735Z 00000KT 9SM CLR M11/M14 A3023 RMK AO2 T11151141
0169720534001612025011007557+40017-105050FM-15+1564KEIK V0209999C000052200059N0160935N5-01195-01415999999ADDGA1005+999999999GD10991+9999999GF100991999999999999999999MA1102375084785REMMET08501/10/25 00:55:02 METAR KEIK 100755Z 00000KT 10SM CLR M12/M14 A3023 RMK AO2 T11191141
0168720534001612025011008157+40017-105050FM-15+1564KEIK V0209999C000052200059N0144845N5-01095-01515999999ADDGA1005+999999999GD10991+9999999GF100991999999999999999999MA1102345084755REMMET08401/10/25 01:15:02 METAR KEIK 100815Z 00000KT 9SM CLR M11/M15 A3022 RMK AO2 T11091151
0168720534001612025011008357+40017-105050FM-15+1564KEIK V0209999C000052200059N0144845N5-01195-01455999999ADDGA1005+999999999GD10991+9999999GF100991999999999999999999MA1102305084725REMMET08401/10/25 01:35:02 METAR KEIK 100835Z 00000KT 9SM CLR M12/M14 A3021 RMK AO2 T11191145
0168720534001612025011008557+40017-105050FM-15+1564KEIK V0209999C000052200059N0144845N5-01325-01545999999ADDGA1005+999999999GD10991+9999999GF100991999999999999999999MA1102305084725REMMET08401/10/25 01:55:02 METAR KEIK 100855Z 00000KT 9SM CLR M13/M15 A3021 RMK AO2 T11321154
0168720534001612025011009157+40017-105050FM-15+1564KEIK V0209999C000052200059N0144845N5-01285-01565999999ADDGA1005+999999999GD10991+9999999GF100991999999999999999999MA1102275084695REMMET08401/10/25 02:15:02 METAR KEIK 100915Z 00000KT 9SM CLR M13/M16 A3020 RMK AO2 T11281156
0168720534001612025011009357+40017-105050FM-15+1564KEIK V0209999C000052200059N0144845N5-01305-01575999999ADDGA1005+999999999GD10991+9999999GF100991999999999999999999MA1102275084695REMMET08401/10/25 02:35:02 METAR KEIK 100935Z 00000KT 9SM CLR M13/M16 A3020 RMK AO2 T11301157
0168720534001612025011009557+40017-105050FM-15+1564KEIK V0209999C000052200059N0144845N5-01275-01535999999ADDGA1005+999999999GD10991+9999999GF100991999999999999999999MA1102245084665REMMET08401/10/25 02:55:02 METAR KEIK 100955Z 00000KT 9SM CLR M13/M15 A3019 RMK AO2 T11271153
0168720534001612025011010157+40017-105050FM-15+1564KEIK V0209999C000052200059N0144845N5-01325-01615999999ADDGA1005+999999999GD10991+9999999GF100991999999999999999999MA1102245084665REMMET08401/10/25 03:15:02 METAR KEIK 101015Z 00000KT 9SM CLR M13/M16 A3019 RMK AO2 T11321161
0168720534001612025011010357+40017-105050FM-15+1564KEIK V0202205N001552200059N0144845N5-01285-01575999999ADDGA1005+999999999GD10991+9999999GF100991999999999999999999MA1102245084665REMMET08401/10/25 03:35:02 METAR KEIK 101035Z 22003KT 9SM CLR M13/M16 A3019 RMK AO2 T11281157
0168720534001612025011010557+40017-105050FM-15+1564KEIK V0209999C000052200059N0144845N5-01365-01605999999ADDGA1005+999999999GD10991+9999999GF100991999999999999999999MA1102175084615REMMET08401/10/25 03:55:02 METAR KEIK 101055Z 00000KT 9SM CLR M14/M16 A3017 RMK AO2 T11361160
0169720534001612025011011157+40017-105050FM-15+1564KEIK V0209999C000052200059N0160935N5-01375-01595999999ADDGA1005+999999999GD10991+9999999GF100991999999999999999999MA1102175084615REMMET08501/10/25 04:15:02 METAR KEIK 101115Z 00000KT 10SM CLR M14/M16 A3017 RMK AO2 T11371159
0169720534001612025011011357+40017-105050FM-15+1564KEIK V0209999C000052200059N0160935N5-01295-01595999999ADDGA1005+999999999GD10991+9999999GF100991999999999999999999MA1102135084585REMMET08501/10/25 04:35:02 METAR KEIK 101135Z 00000KT 10SM CLR M13/M16 A3016 RMK AO2 T11291159
0168720534001612025011011557+40017-105050FM-15+1564KEIK V0209999C000052200059N0144845N5-01315-01615999999ADDGA1005+999999999GD10991+9999999GF100991999999999999999999MA1102135084585REMMET08401/10/25 04:55:02 METAR KEIK 101155Z 00000KT 9SM CLR M13/M16 A3016 RMK AO2 T11311161
0169720534001612025011012157+40017-105050FM-15+1564KEIK V0209999C000052200059N0160935N5-01265-01605999999ADDGA1005+999999999GD10991+9999999GF100991999999999999999999MA1102105084555REMMET08501/10/25 05:15:02 METAR KEIK 101215Z 00000KT 10SM CLR M13/M16 A3015 RMK AO2 T11261160
0169720534001612025011012357+40017-105050FM-15+1564KEIK V0209999C000052200059N0160935N5-01295-01585999999ADDGA1005+999999999GD10991+9999999GF100991999999999999999999MA1102105084555REMMET08501/10/25 05:35:02 METAR KEIK 101235Z 00000KT 10SM CLR M13/M16 A3015 RMK AO2 T11291158
0169720534001612025011012557+40017-105050FM-15+1564KEIK V0201505N001552200059N0160935N5-01365-01645999999ADDGA1005+999999999GD10991+9999999GF100991999999999999999999MA1102075084525REMMET08501/10/25 05:55:02 METAR KEIK 101255Z 15003KT 10SM CLR M14/M16 A3014 RMK AO2 T11361164
0169720534001612025011013157+40017-105050FM-15+1564KEIK V0209999C000052200059N0160935N5-01445-01715999999ADDGA1005+999999999GD10991+9999999GF100991999999999999999999MA1102105084555REMMET08501/10/25 06:15:02 METAR KEIK 101315Z 00000KT 10SM CLR M14/M17 A3015 RMK AO2 T11441171
0169720534001612025011013357+40017-105050FM-15+1564KEIK V0209999C000052200059N0160935N5-01435-01665999999ADDGA1005+999999999GD10991+9999999GF100991999999999999999999MA1102075084525REMMET08501/10/25 06:35:02 METAR KEIK 101335Z 00000KT 10SM CLR M14/M17 A3014 RMK AO2 T11431166
0169720534001612025011013557+40017-105050FM-15+1564KEIK V0209999C000052200059N0160935N5-01465-01725999999ADDGA1005+999999999GD10991+9999999GF100991999999999999999999MA1102035084495REMMET08501/10/25 06:55:02 METAR KEIK 101355Z 00000KT 10SM CLR M15/M17 A3013 RMK AO2 T11461172
0169720534001612025011014157+40017-105050FM-15+1564KEIK V0209999C000052200059N0160935N5-01515-01735999999ADDGA1005+999999999GD10991+9999999GF100991999999999999999999MA1102035084495REMMET08501/10/25 07:15:02 METAR KEIK 101415Z 00000KT 10SM CLR M15/M17 A3013 RMK AO2 T11511173
0169720534001612025011014357+40017-105050FM-15+1564KEIK V0209999C000052200059N0160935N5-01515-01715999999ADDGA1005+999999999GD10991+9999999GF100991999999999999999999MA1101965084435REMMET08501/10/25 07:35:02 METAR KEIK 101435Z 00000KT 10SM CLR M15/M17 A3011 RMK AO2 T11511171
0169720534001612025011014557+40017-105050FM-15+1564KEIK V0209999C000052200059N0160935N5-01425-01655999999ADDGA1005+999999999GD10991+9999999GF100991999999999999999999MA1101965084435REMMET08501/10/25 07:55:02 METAR KEIK 101455Z 00000KT 10SM CLR M14/M16 A3011 RMK AO2 T11421165
0169720534001612025011015157+40017-105050FM-15+1564KEIK V0209999C000052200059N0160935N5-01115-01405999999ADDGA1005+999999999GD10991+9999999GF100991999999999999999999MA1101935084405REMMET08501/10/25 08:15:02 METAR KEIK 101515Z 00000KT 10SM CLR M11/M14 A3010 RMK AO2 T11111140
0169720534001612025011015357+40017-105050FM-15+1564KEIK V0209999C000052200059N0160935N5-00885-01275999999ADDGA1005+999999999GD10991+9999999GF100991999999999999999999MA1101905084375REMMET08501/10/25 08:35:02 METAR KEIK 101535Z 00000KT 10SM CLR M09/M13 A3009 RMK AO2 T10881127
0169720534001612025011015557+40017-105050FM-15+1564KEIK V0209999C000052200059N0160935N5-00675-01145999999ADDGA1005+999999999GD10991+9999999GF100991999999999999999999MA1101865084345REMMET08501/10/25 08:55:02 METAR KEIK 101555Z 00000KT 10SM CLR M07/M11 A3008 RMK AO2 T10671114
0169720534001612025011016157+40017-105050FM-15+1564KEIK V0209999C000052200059N0160935N5-00415-00925999999ADDGA1005+999999999GD10991+9999999GF100991999999999999999999MA1101865084345REMMET08501/10/25 09:15:02 METAR KEIK 101615Z 00000KT 10SM CLR M04/M09 A3008 RMK AO2 T10411092
0169720534001612025011016357+40017-105050FM-15+1564KEIK V0201805N002152200059N0160935N5-00035-01285999999ADDGA1005+999999999GD10991+9999999GF100991999999999999999999MA1101835084325REMMET08501/10/25 09:35:02 METAR KEIK 101635Z 18004KT 10SM CLR M00/M13 A3007 RMK AO2 T10031128
0168720534001612025011016557+40017-105050FM-15+1564KEIK V0201505N002152200059N0160935N5+00065-01165999999ADDGA1005+999999999GD10991+9999999GF100991999999999999999999MA1101795084295REMMET08401/10/25 09:55:02 METAR KEIK 101655Z 15004KT 10SM CLR 01/M12 A3006 RMK AO2 T00061116
0168720534001612025011017157+40017-105050FM-15+1564KEIK V0201405N002652200059N0160935N5+00155-01275999999ADDGA1005+999999999GD10991+9999999GF100991999999999999999999MA1101765084265REMMET08401/10/25 10:15:02 METAR KEIK 101715Z 14005KT 10SM CLR 02/M13 A3005 RMK AO2 T00151127
0168720534001612025011017357+40017-105050FM-15+1564KEIK V0201505N002152200059N0160935N5+00245-01305999999ADDGA1005+999999999GD10991+9999999GF100991999999999999999999MA1101765084265REMMET08401/10/25 10:35:02 METAR KEIK 101735Z 15004KT 10SM CLR 02/M13 A3005 RMK AO2 T00241130
0168720534001612025011017557+40017-105050FM-15+1564KEIK V0201505N003152200059N0160935N5+00335-01375999999ADDGA1005+999999999GD10991+9999999GF100991999999999999999999MA1101695084205REMMET08401/10/25 10:55:02 METAR KEIK 101755Z 15006KT 10SM CLR 03/M14 A3003 RMK AO2 T00331137
0168720534001612025011018157+40017-105050FM-15+1564KEIK V0201305N002652200059N0160935N5+00395-01295999999ADDGA1005+999999999GD10991+9999999GF100991999999999999999999MA1101635084145REMMET08401/10/25 11:15:02 METAR KEIK 101815Z 13005KT 10SM CLR 04/M13 A3001 RMK AO2 T00391129
0168720534001612025011018357+40017-105050FM-15+1564KEIK V0201405N002652200059N0160935N5+00445-01335999999ADDGA1005+999999999GD10991+9999999GF100991999999999999999999MA1101565084085REMMET08401/10/25 11:35:02 METAR KEIK 101835Z 14005KT 10SM CLR 04/M13 A2999 RMK AO2 T00441133
0168720534001612025011018557+40017-105050FM-15+1564KEIK V0201305N003152200059N0160935N5+00465-01475999999ADDGA1005+999999999GD10991+9999999GF100991999999999999999999MA1101525084055REMMET08401/10/25 11:55:02 METAR KEIK 101855Z 13006KT 10SM CLR 05/M15 A2998 RMK AO2 T00461147
0168720534001612025011019157+40017-105050FM-15+1564KEIK V0201105N003152200059N0160935N5+00515-01395999999ADDGA1005+999999999GD10991+9999999GF100991999999999999999999MA1101495084035REMMET08401/10/25 12:15:02 METAR KEIK 101915Z 11006KT 10SM CLR 05/M14 A2997 RMK AO2 T00511139
0168720534001612025011019357+40017-105050FM-15+1564KEIK V0201505N002652200059N0160935N5+00575-01365999999ADDGA1005+999999999GD10991+9999999GF100991999999999999999999MA1101425083975REMMET08401/10/25 12:35:02 METAR KEIK 101935Z 15005KT 10SM CLR 06/M14 A2995 RMK AO2 T00571136
0168720534001612025011019557+40017-105050FM-15+1564KEIK V0201305N003152200059N0160935N5+00625-01355999999ADDGA1005+999999999GD10991+9999999GF100991999999999999999999MA1101355083915REMMET08401/10/25 12:55:02 METAR KEIK 101955Z 13006KT 10SM CLR 06/M14 A2993 RMK AO2 T00621135
0168720534001612025011020157+40017-105050FM-15+1564KEIK V0201505N003652200059N0160935N5+00665-01335999999ADDGA1005+999999999GD10991+9999999GF100991999999999999999999MA1101295083855REMMET08401/10/25 13:15:02 METAR KEIK 102015Z 15007KT 10SM CLR 07/M13 A2991 RMK AO2 T00661133
0168720534001612025011020357+40017-105050FM-15+1564KEIK V0201305N004152200059N0160935N5+00685-01415999999ADDGA1005+999999999GD10991+9999999GF100991999999999999999999MA1101255083825REMMET08401/10/25 13:35:02 METAR KEIK 102035Z 13008KT 10SM CLR 07/M14 A2990 RMK AO2 T00681141
0193720534001612025011020557+40017-105050FM-15+1564KEIK V0201405N00415030485MN0160935N5+00685-01385999999ADDGA1075+030485999GD13991+0304859GE19AGL   +99999+99999GF199999999999030481999999MA1101225083795REMMET08701/10/25 13:55:02 METAR KEIK 102055Z 14008KT 10SM BKN100 07/M14 A2989 RMK AO2 T00681138
0193720534001612025011021157+40017-105050FM-15+1564KEIK V0201505N00265030485MN0160935N5+00746-01405999999ADDGA1085+030485999GD14991+0304859GE19AGL   +99999+99999GF199999999999030481999999MA1101225083795REMMET08701/10/25 14:15:02 METAR KEIK 102115Z 15005KT 10SM OVC100 07/M14 A2989 RMK AO2 T00741140
0193720534001612025011021357+40017-105050FM-15+1564KEIK V0201505N00265030485MN0160935N5+00705-01395999999ADDGA1085+030485999GD14991+0304859GE19AGL   +99999+99999GF199999999999030481999999MA1101225083795REMMET08701/10/25 14:35:02 METAR KEIK 102135Z 15005KT 10SM OVC100 07/M14 A2989 RMK AO2 T00701139
0193720534001612025011021557+40017-105050FM-15+1564KEIK V0201305N00155030485MN0160935N5+00735-01445999999ADDGA1075+030485999GD13991+0304859GE19AGL   +99999+99999GF199999999999030481999999MA1101225083795REMMET08701/10/25 14:55:02 METAR KEIK 102155Z 13003KT 10SM BKN100 07/M14 A2989 RMK AO2 T00731144
0193720534001612025011022157+40017-105050FM-15+1564KEIK V0201505N00215030485MN0160935N5+00685-01285999999ADDGA1075+030485999GD13991+0304859GE19AGL   +99999+99999GF199999999999030481999999MA1101195083765REMMET08701/10/25 15:15:02 METAR KEIK 102215Z 15004KT 10SM BKN100 07/M13 A2988 RMK AO2 T00681128
0212720534001612025011022357+40017-105050FM-15+1564KEIK V0202105N003152200059N0160935N5+00635-01005999999ADDGA1025+030485999GD11991+0304859GE19AGL   +99999+99999GF102995999999030481999999MA1101125083715REMMET08701/10/25 15:35:02 METAR KEIK 102235Z 21006KT 10SM FEW100 06/M10 A2986 RMK AO2 T00631100EQDD01      0ADE726
0212720534001612025011022557+40017-105050FM-15+1564KEIK V0202405N002652200059N0160935N5+00715-01035999999ADDGA1045+033535999GD12991+0335359GE19AGL   +99999+99999GF104995999999033531999999MA1101085083685REMMET08701/10/25 15:55:02 METAR KEIK 102255Z 24005KT 10SM SCT110 07/M10 A2985 RMK AO2 T00711103EQDD01      0ADE726
0212720534001612025011023157+40017-105050FM-15+1564KEIK V0202205N001552200059N0160935N5+00645-01085999999ADDGA1025+033535999GD11991+0335359GE19AGL   +99999+99999GF102995999999033531999999MA1101055083655REMMET08701/10/25 16:15:02 METAR KEIK 102315Z 22003KT 10SM FEW110 06/M11 A2984 RMK AO2 T00641108EQDD01      0ADE726
0168720534001612025011023357+40017-105050FM-15+1564KEIK V0201805N002652200059N0160935N5+00445-00925999999ADDGA1005+999999999GD10991+9999999GF100991999999999999999999MA1101025083625REMMET08401/10/25 16:35:02 METAR KEIK 102335Z 18005KT 10SM CLR 04/M09 A2983 RMK AO2 T00441092
0168720534001612025011023557+40017-105050FM-15+1564KEIK V0202005N002652200059N0160935N5+00295-00945999999ADDGA1005+999999999GD10991+9999999GF100991999999999999999999MA1101025083625REMMET08401/10/25 16:55:02 METAR KEIK 102355Z 20005KT 10SM CLR 03/M09 A2983 RMK AO2 T00291094
0168720534001612025011100157+40017-105050FM-15+1564KEIK V0203005N002152200059N0160935N5+00115-00715999999ADDGA1005+999999999GD10991+9999999GF100991999999999999999999MA1101025083625REMMET08401/10/25 17:15:01 METAR KEIK 110015Z 30004KT 10SM CLR 01/M07 A2983 RMK AO2 T00111071
0169720534001612025011100357+40017-105050FM-15+1564KEIK V0209999C000052200059N0160935N5-00035-00655999999ADDGA1005+999999999GD10991+9999999GF100991999999999999999999MA1101025083625REMMET08501/10/25 17:35:01 METAR KEIK 110035Z 00000KT 10SM CLR M00/M07 A2983 RMK AO2 T10031065
0169720534001612025011100557+40017-105050FM-15+1564KEIK V0209999C000052200059N0160935N5-00135-00655999999ADDGA1005+999999999GD10991+9999999GF100991999999999999999999MA1100985083595REMMET08501/10/25 17:55:01 METAR KEIK 110055Z 00000KT 10SM CLR M01/M07 A2982 RMK AO2 T10131065
0176720534001612025011101157+40017-105050FM-15+1564KEIK V0201705N002652200059N0160935N5-00015-00775999999ADDGA1005+999999999GD10991+9999999GF100991999999999999999999MA1100915083535REMMET09201/10/25 18:15:01 METAR KEIK 110115Z 17005KT 10SM CLR M00/M08 A2980 RMK AO2 PRESFR T10011077
0168720534001612025011101357+40017-105050FM-15+1564KEIK V0202105N002652200059N0160935N5+00235-00935999999ADDGA1005+999999999GD10991+9999999GF100991999999999999999999MA1100885083505REMMET08401/10/25 18:35:01 METAR KEIK 110135Z 21005KT 10SM CLR 02/M09 A2979 RMK AO2 T00231093
0168720534001612025011101557+40017-105050FM-15+1564KEIK V0201805N004152200059N0160935N5+00355-00955999999ADDGA1005+999999999GD10991+9999999GF100991999999999999999999MA1100855083475REMMET08401/10/25 18:55:01 METAR KEIK 110155Z 18008KT 10SM CLR 03/M10 A2978 RMK AO2 T00351095
0168720534001612025011102157+40017-105050FM-15+1564KEIK V0202105N002652200059N0160935N5+00335-00895999999ADDGA1005+999999999GD10991+9999999GF100991999999999999999999MA1100815083445REMMET08401/10/25 19:15:01 METAR KEIK 110215Z 21005KT 10SM CLR 03/M09 A2977 RMK AO2 T00331089
0168720534001612025011102357+40017-105050FM-15+1564KEIK V0202405N003652200059N0160935N5+00365-00865999999ADDGA1005+999999999GD10991+9999999GF100991999999999999999999MA1100815083445REMMET08401/10/25 19:35:01 METAR KEIK 110235Z 24007KT 10SM CLR 04/M09 A2977 RMK AO2 T00361086
0193720534001612025011102557+40017-105050FM-15+1564KEIK V0202405N00265036585MN0160935N5+00335-00775999999ADDGA1075+036585999GD13991+0365859GE19AGL   +99999+99999GF199999999999036581999999MA1100785083425REMMET08701/10/25 19:55:01 METAR KEIK 110255Z 24005KT 10SM BKN120 03/M08 A2976 RMK AO2 T00331077
0193720534001612025011103157+40017-105050FM-15+1564KEIK V0203605N00265039625MN0160935N5+00085-00785999999ADDGA1075+039625999GD13991+0396259GE19AGL   +99999+99999GF199999999999039621999999MA1100785083425REMMET08701/10/25 20:15:02 METAR KEIK 110315Z 36005KT 10SM BKN130 01/M08 A2976 RMK AO2 T00081078
0213720534001612025011103357+40017-105050FM-15+1564KEIK V0209999C000052200059N0160935N5-00065-00745999999ADDGA1025+039625999GD11991+0396259GE19AGL   +99999+99999GF102995999999039621999999MA1100755083395REMMET08801/10/25 20:35:02 METAR KEIK 110335Z 00000KT 10SM FEW130 M01/M07 A2975 RMK AO2 T10061074EQDD01      0ADE726
0169720534001612025011103557+40017-105050FM-15+1564KEIK V0209999C000052200059N0160935N5-00255-00705999999ADDGA1005+999999999GD10991+9999999GF100991999999999999999999MA1100715083365REMMET08501/10/25 20:55:02 METAR KEIK 110355Z 00000KT 10SM CLR M02/M07 A2974 RMK AO2 T10251070
0213720534001612025011104157+40017-105050FM-15+1564KEIK V0200905N002152200059N0160935N5-00255-00655999999ADDGA1025+067065999GD11991+0670659GE19AGL   +99999+99999GF102995999999067061999999MA1100685083335REMMET08801/10/25 21:15:02 METAR KEIK 110415Z 09004KT 10SM FEW220 M03/M06 A2973 RMK AO2 T10251065EQDD01      0ADE726
0213720534001612025011104357+40017-105050FM-15+1564KEIK V0209999C000052200059N0160935N5-00155-00585999999ADDGA1025+067065999GD11991+0670659GE19AGL   +99999+99999GF102995999999067061999999MA1100685083335REMMET08801/10/25 21:35:02 METAR KEIK 110435Z 00000KT 10SM FEW220 M02/M06 A2973 RMK AO2 T10151058EQDD01      0ADE726
0168720534001612025011104557+40017-105050FM-15+1564KEIK V0202405N003152200059N0160935N5+00195-00565999999ADDGA1005+999999999GD10991+9999999GF100991999999999999999999MA1100615083275REMMET08401/10/25 21:55:02 METAR KEIK 110455Z 24006KT 10SM CLR 02/M06 A2971 RMK AO2 T00191056
0168720534001612025011105157+40017-105050FM-15+1564KEIK V0202005N002652200059N0160935N5+00445-00545999999ADDGA1005+999999999GD10991+9999999GF100991999999999999999999MA1100545083215REMMET08401/10/25 22:15:02 METAR KEIK 110515Z 20005KT 10SM CLR 04/M05 A2969 RMK AO2 T00441054
0168720534001612025011105357+40017-105050FM-15+1564KEIK V0201705N004152200059N0160935N5+00575-00605999999ADDGA1005+999999999GD10991+9999999GF100991999999999999999999MA1100515083185REMMET08401/10/25 22:35:02 METAR KEIK 110535Z 17008KT 10SM CLR 06/M06 A2968 RMK AO2 T00571060
0250720534001612025011105557+40017-105050FM-15+1564KEIK V0202005N003152200059N0160935N5+00445-00475999999ADDGA1025+039625999GA2045+048775999GD11991+0396259GD22991+0487759GE19AGL   +99999+99999GF104995999999039621999999MA1100475083155REMMET09401/10/25 22:55:02 METAR KEIK 110555Z 20006KT 10SM FEW130 SCT160 04/M05 A2967 RMK AO2 T00441047EQDD01      0ADE726
0231720534001612025011106157+40017-105050FM-15+1564KEIK V0209999C00005039625MN0160935N5+00445-00435999999ADDGA1075+039625999GA2085+048775999GD13991+0396259GD24991+0487759GE19AGL   +99999+99999GF199999999999039621999999MA1100445083125REMMET09401/10/25 23:15:02 METAR KEIK 110615Z 00000KT 10SM BKN130 OVC160 04/M04 A2966 RMK AO2 T00441043
0231720534001612025011106357+40017-105050FM-15+1564KEIK V0202305N00265039625MN0160935N5+00465-00425999999ADDGA1075+039625999GA2085+070105999GD13991+0396259GD24991+0701059GE19AGL   +99999+99999GF199999999999039621999999MA1100375083075REMMET09401/10/25 23:35:02 METAR KEIK 110635Z 23005KT 10SM BKN130 OVC230 05/M04 A2964 RMK AO2 T00461042
0231720534001612025011106557+40017-105050FM-15+1564KEIK V0209999C00005067065MN0160935N5+00575-00425999999ADDGA1025+039625999GA2075+067065999GD11991+0396259GD23991+0670659GE19AGL   +99999+99999GF199999999999039621999999MA1100305083015REMMET09401/10/25 23:55:02 METAR KEIK 110655Z 00000KT 10SM FEW130 BKN220 06/M04 A2962 RMK AO2 T00571042
0250720534001612025011107157+40017-105050FM-15+1564KEIK V0209999C000052200059N0160935N5+00675-00415999999ADDGA1025+042675999GA2045+067065999GD11991+0426759GD22991+0670659GE19AGL   +99999+99999GF104995999999042671999999MA1100275082985REMMET09401/11/25 00:15:02 METAR KEIK 110715Z 00000KT 10SM FEW140 SCT220 07/M04 A2961 RMK AO2 T00671041EQDD01      0ADE726
0212720534001612025011107357+40017-105050FM-15+1564KEIK V0209999V002152200059N0160935N5+00575-00405999999ADDGA1025+070105999GD11991+0701059GE19AGL   +99999+99999GF102995999999070101999999MA1100205082925REMMET08701/11/25 00:35:02 METAR KEIK 110735Z VRB04KT 10SM FEW230 06/M04 A2959 RMK AO2 T00571040EQDD01      0ADE726
0212720534001612025011107557+40017-105050FM-15+1564KEIK V0209999C000052200059N0160935N5+00525-00555999999ADDGA1025+064015999GD11991+0640159GE19AGL   +99999+99999GF102995999999064011999999MA1100175082895REMMET08701/11/25 00:55:02 METAR KEIK 110755Z 00000KT 10SM FEW210 05/M06 A2958 RMK AO2 T00521055EQDD01      0ADE726
0168720534001612025011108157+40017-105050FM-15+1564KEIK V0200805N001552200059N0160935N5+00415-00515999999ADDGA1005+999999999GD10991+9999999GF100991999999999999999999MA1100145082865REMMET08401/11/25 01:15:02 METAR KEIK 110815Z 08003KT 10SM CLR 04/M05 A2957 RMK AO2 T00411051
0168720534001612025011108357+40017-105050FM-15+1564KEIK V0209999C000052200059N0160935N5+00045-00565999999ADDGA1005+999999999GD10991+9999999GF100991999999999999999999MA1100175082895REMMET08401/11/25 01:35:02 METAR KEIK 110835Z 00000KT 10SM CLR 00/M06 A2958 RMK AO2 T00041056
0219720534001612025011108557+40017-105050FM-15+1564KEIK V0203605N002652200059N0160935N5+00065-00515999999ADDGA1045+027435999GD12991+0274359GE19AGL   +99999+99999GF104995999999027431999999MA1100275082985REMMET09401/11/25 01:55:02 METAR KEIK 110855Z 36005KT 10SM SCT090 01/M05 A2961 RMK AO2 PRESRR T00061051EQDD01      0ADE726
0200720534001612025011109157+40017-105050FM-15+1564KEIK V0202805N00625027435MN0160935N5+00215-00455999999ADDGA1075+027435999GD13991+0274359GE19AGL   +99999+99999GF199999999999027431999999MA1100475083155REMMET09401/11/25 02:15:02 METAR KEIK 110915Z 28012KT 10SM BKN090 02/M04 A2967 RMK AO2 PRESRR T00211045
0242720534001612025011109357+40017-105050FM-15+1564KEIK V0202705N00725033535MN0160935N5+00685-00535999999ADDGA1045+024385999GA2075+033535999GD12991+0243859GD23991+0335359GE19AGL   +99999+99999GF199999999999024381999999MA1100475083155OC100935REMMET09701/11/25 02:35:02 METAR KEIK 110935Z 27014G18KT 10SM SCT080 BKN110 07/M05 A2967 RMK AO2 T00681053
0212720534001612025011109557+40017-105050FM-15+1564KEIK V0202305N004152200059N0160935N5+00575-00655999999ADDGA1025+033535999GD11991+0335359GE19AGL   +99999+99999GF102995999999033531999999MA1100475083155REMMET08701/11/25 02:55:02 METAR KEIK 110955Z 23008KT 10SM FEW110 06/M07 A2967 RMK AO2 T00571065EQDD01      0ADE726
0179720534001612025011110157+40017-105050FM-15+1564KEIK V0202605N007252200059N0160935N5+00635-00795999999ADDGA1005+999999999GD10991+9999999GF100991999999999999999999MA1100445083125OC101185REMMET08701/11/25 03:15:02 METAR KEIK 111015Z 26014G23KT 10SM CLR 06/M08 A2966 RMK AO2 T00631079
0168720534001612025011110357+40017-105050FM-15+1564KEIK V0202705N003652200059N0160935N5+00535-00735999999ADDGA1005+999999999GD10991+9999999GF100991999999999999999999MA1100415083105REMMET08401/11/25 03:35:02 METAR KEIK 111035Z 27007KT 10SM CLR 05/M07 A2965 RMK AO2 T00531073
0212720534001612025011110557+40017-105050FM-15+1564KEIK V0203105N004152200059N0160935N5+00525-00755999999ADDGA1025+048775999GD11991+0487759GE19AGL   +99999+99999GF102995999999048771999999MA1100415083105REMMET08701/11/25 03:55:02 METAR KEIK 111055Z 31008KT 10SM FEW160 05/M07 A2965 RMK AO2 T00521075EQDD01      0ADE726
0212720534001612025011111157+40017-105050FM-15+1564KEIK V0202705N004152200059N0160935N5+00595-00815999999ADDGA1025+054865999GD11991+0548659GE19AGL   +99999+99999GF102995999999054861999999MA1100445083125REMMET08701/11/25 04:15:02 METAR KEIK 111115Z 27008KT 10SM FEW180 06/M08 A2966 RMK AO2 T00591081EQDD01      0ADE726
0168720534001612025011111357+40017-105050FM-15+1564KEIK V0209999V001552200059N0160935N5+00465-00835999999ADDGA1005+999999999GD10991+9999999GF100991999999999999999999MA1100415083105REMMET08401/11/25 04:35:02 METAR KEIK 111135Z VRB03KT 10SM CLR 05/M08 A2965 RMK AO2 T00461083
0168720534001612025011111557+40017-105050FM-15+1564KEIK V0202305N002652200059N0160935N5+00395-00855999999ADDGA1005+999999999GD10991+9999999GF100991999999999999999999MA1100445083125REMMET08401/11/25 04:55:02 METAR KEIK 111155Z 23005KT 10SM CLR 04/M08 A2966 RMK AO2 T00391085
0168720534001612025011112157+40017-105050FM-15+1564KEIK V0202205N001552200059N0160935N5+00195-00865999999ADDGA1005+999999999GD10991+9999999GF100991999999999999999999MA1100445083125REMMET08401/11/25 05:15:02 METAR KEIK 111215Z 22003KT 10SM CLR 02/M09 A2966 RMK AO2 T00191086
0168720534001612025011112357+40017-105050FM-15+1564KEIK V0202205N002152200059N0160935N5+00385-00915999999ADDGA1005+999999999GD10991+9999999GF100991999999999999999999MA1100475083155REMMET08401/11/25 05:35:02 METAR KEIK 111235Z 22004KT 10SM CLR 04/M09 A2967 RMK AO2 T00381091
0168720534001612025011112557+40017-105050FM-15+1564KEIK V0200605N001552200059N0160935N5+00235-00895999999ADDGA1005+999999999GD10991+9999999GF100991999999999999999999MA1100515083185REMMET08401/11/25 05:55:02 METAR KEIK 111255Z 06003KT 10SM CLR 02/M09 A2968 RMK AO2 T00231089
0168720534001612025011113157+40017-105050FM-15+1564KEIK V0200605N002652200059N0160935N5+00245-00825999999ADDGA1005+999999999GD10991+9999999GF100991999999999999999999MA1100545083215REMMET08401/11/25 06:15:02 METAR KEIK 111315Z 06005KT 10SM CLR 02/M08 A2969 RMK AO2 T00241082
0169720534001612025011113357+40017-105050FM-15+1564KEIK V0200205N001552200059N0160935N5-00025-00915999999ADDGA1005+999999999GD10991+9999999GF100991999999999999999999MA1100545083215REMMET08501/11/25 06:35:02 METAR KEIK 111335Z 02003KT 10SM CLR M00/M09 A2969 RMK AO2 T10021091
0169720534001612025011113557+40017-105050FM-15+1564KEIK V0201505N001552200059N0160935N5-00175-00905999999ADDGA1005+999999999GD10991+9999999GF100991999999999999999999MA1100545083215REMMET08501/11/25 06:55:02 METAR KEIK 111355Z 15003KT 10SM CLR M02/M09 A2969 RMK AO2 T10171090
0167720534001612025011114157+40017-105050FM-15+1564KEIK V0201005N001552200059N0144845N5+00075-00885999999ADDGA1005+999999999GD10991+9999999GF100991999999999999999999MA1100615083275REMMET08301/11/25 07:15:02 METAR KEIK 111415Z 10003KT 9SM CLR 01/M09 A2971 RMK AO2 T00071088
0168720534001612025011114357+40017-105050FM-15+1564KEIK V0201005N002652200059N0128755N5-00145-00795999999ADDGA1005+999999999GD10991+9999999GF100991999999999999999999MA1100615083275REMMET08401/11/25 07:35:02 METAR KEIK 111435Z 10005KT 8SM CLR M01/M08 A2971 RMK AO2 T10141079
0167720534001612025011114557+40017-105050FM-15+1564KEIK V0201305N004652200059N0144845N5+00015-00735999999ADDGA1005+999999999GD10991+9999999GF100991999999999999999999MA1100645083305REMMET08301/11/25 07:55:02 METAR KEIK 111455Z 13009KT 9SM CLR 00/M07 A2972 RMK AO2 T00011073
0167720534001612025011115157+40017-105050FM-15+1564KEIK V0201005N003652200059N0144845N5+00175-00735999999ADDGA1005+999999999GD10991+9999999GF100991999999999999999999MA1100645083305REMMET08301/11/25 08:15:02 METAR KEIK 111515Z 10007KT 9SM CLR 02/M07 A2972 RMK AO2 T00171073
0167720534001612025011115357+40017-105050FM-15+1564KEIK V0201205N002652200059N0144845N5+00205-00745999999ADDGA1005+999999999GD10991+9999999GF100991999999999999999999MA1100685083335REMMET08301/11/25 08:35:02 METAR KEIK 111535Z 12005KT 9SM CLR 02/M07 A2973 RMK AO2 T00201074
0168720534001612025011115557+40017-105050FM-15+1564KEIK V0202005N001552200059N0160935N5+00355-00705999999ADDGA1005+999999999GD10991+9999999GF100991999999999999999999MA1100715083365REMMET08401/11/25 08:55:02 METAR KEIK 111555Z 20003KT 10SM CLR 03/M07 A2974 RMK AO2 T00351070
0168720534001612025011116157+40017-105050FM-15+1564KEIK V0201805N001552200059N0160935N5+00415-00715999999ADDGA1005+999999999GD10991+9999999GF100991999999999999999999MA1100785083425REMMET08401/11/25 09:15:02 METAR KEIK 111615Z 18003KT 10SM CLR 04/M07 A2976 RMK AO2 T00411071
0168720534001612025011116357+40017-105050FM-15+1564KEIK V0201905N002152200059N0160935N5+00395-00695999999ADDGA1005+999999999GD10991+9999999GF100991999999999999999999MA1100785083425REMMET08401/11/25 09:35:02 METAR KEIK 111635Z 19004KT 10SM CLR 04/M07 A2976 RMK AO2 T00391069
0168720534001612025011116557+40017-105050FM-15+1564KEIK V0201205N002652200059N0160935N5+00515-00735999999ADDGA1005+999999999GD10991+9999999GF100991999999999999999999MA1100785083425REMMET08401/11/25 09:55:02 METAR KEIK 111655Z 12005KT 10SM CLR 05/M07 A2976 RMK AO2 T00511073
0168720534001612025011117157+40017-105050FM-15+1564KEIK V0201305N005152200059N0160935N5+00535-00745999999ADDGA1005+999999999GD10991+9999999GF100991999999999999999999MA1100785083425REMMET08401/11/25 10:15:02 METAR KEIK 111715Z 13010KT 10SM CLR 05/M07 A2976 RMK AO2 T00531074
0168720534001612025011117357+40017-105050FM-15+1564KEIK V0209999V001552200059N0160935N5+00645-00985999999ADDGA1005+999999999GD10991+9999999GF100991999999999999999999MA1100755083395REMMET08401/11/25 10:35:02 METAR KEIK 111735Z VRB03KT 10SM CLR 06/M10 A2975 RMK AO2 T00641098
0168720534001612025011117557+40017-105050FM-15+1564KEIK V0209999V003152200059N0160935N5+00705-01075999999ADDGA1005+999999999GD10991+9999999GF100991999999999999999999MA1100755083395REMMET08401/11/25 10:55:02 METAR KEIK 111755Z VRB06KT 10SM CLR 07/M11 A2975 RMK AO2 T00701107
0168720534001612025011118157+40017-105050FM-15+1564KEIK V0200305N004152200059N0160935N5+00725-00995999999ADDGA1005+999999999GD10991+9999999GF100991999999999999999999MA1100755083395REMMET08401/11/25 11:15:02 METAR KEIK 111815Z 03008KT 10SM CLR 07/M10 A2975 RMK AO2 T00721099
0168720534001612025011118357+40017-105050FM-15+1564KEIK V0209999V001552200059N0160935N5+00645-01085999999ADDGA1005+999999999GD10991+9999999GF100991999999999999999999MA1100715083365REMMET08401/11/25 11:35:02 METAR KEIK 111835Z VRB03KT 10SM CLR 06/M11 A2974 RMK AO2 T00641108
0212720534001612025011118557+40017-105050FM-15+1564KEIK V0200405N003152200059N0160935N5+00655-01165999999ADDGA1025+030485999GD11991+0304859GE19AGL   +99999+99999GF102995999999030481999999MA1100715083365REMMET08701/11/25 11:55:02 METAR KEIK 111855Z 04006KT 10SM FEW100 06/M12 A2974 RMK AO2 T00651116EQDD01      0ADE726
0269720534001612025011119157+40017-105050FM-15+1564KEIK V0200105N00215030485MN0160935N5+00645-00905999999ADDGA1045+024385999GA2075+030485999GA3075+112785999GD12991+0243859GD23991+0304859GD33991+1127859GE19AGL   +99999+99999GF199999999999024381999999MA1100715083365REMMET10101/11/25 12:15:02 METAR KEIK 111915Z 01004KT 10SM SCT080 BKN100 BKN370 06/M09 A2974 RMK AO2 T00641090
0231720534001612025011119357+40017-105050FM-15+1564KEIK V0200205N00155022865MN0160935N5+00645-00935999999ADDGA1075+022865999GA2085+027435999GD13991+0228659GD24991+0274359GE19AGL   +99999+99999GF199999999999022861999999MA1100715083365REMMET09401/11/25 12:35:02 METAR KEIK 111935Z 02003KT 10SM BKN075 OVC090 06/M09 A2974 RMK AO2 T00641093
0231720534001612025011119557+40017-105050FM-15+1564KEIK V0202905V00415027435MN0160935N5+00675-01095999999ADDGA1045+024385999GA2075+027435999GD12991+0243859GD23991+0274359GE19AGL   +99999+99999GF199999999999024381999999MA1100715083365REMMET09401/11/25 12:55:02 METAR KEIK 111955Z 29008KT 10SM SCT080 BKN090 07/M11 A2974 RMK AO2 T00671109
0212720534001612025011120157+40017-105050FM-15+1564KEIK V0202505N006752200059N0160935N5+00595-01425999999ADDGA1025+027435999GD11991+0274359GE19AGL   +99999+99999GF102995999999027431999999MA1100715083365REMMET08701/11/25 13:15:02 METAR KEIK 112015Z 25013KT 10SM FEW090 06/M14 A2974 RMK AO2 T00591142EQDD01      0ADE726
0168720534001612025011120357+40017-105050FM-15+1564KEIK V0203005N007252200059N0160935N5+00705-01475999999ADDGA1005+999999999GD10991+9999999GF100991999999999999999999MA1100715083365REMMET08401/11/25 13:35:02 METAR KEIK 112035Z 30014KT 10SM CLR 07/M15 A2974 RMK AO2 T00701147
0168720534001612025011120557+40017-105050FM-15+1564KEIK V0202905N008852200059N0160935N5+00665-01415999999ADDGA1005+999999999GD10991+9999999GF100991999999999999999999MA1100755083395REMMET08401/11/25 13:55:02 METAR KEIK 112055Z 29017KT 10SM CLR 07/M14 A2975 RMK AO2 T00661141
0179720534001612025011121157+40017-105050FM-15+1564KEIK V0202905N007752200059N0160935N5+00625-01395999999ADDGA1005+999999999GD10991+9999999GF100991999999999999999999MA1100755083395OC101295REMMET08701/11/25 14:15:02 METAR KEIK 112115Z 29015G25KT 10SM CLR 06/M14 A2975 RMK AO2 T00621139
0168720534001612025011121357+40017-105050FM-15+1564KEIK V0203005N005752200059N0160935N5+00675-01385999999ADDGA1005+999999999GD10991+9999999GF100991999999999999999999MA1100785083425REMMET08401/11/25 14:35:02 METAR KEIK 112135Z 30011KT 10SM CLR 07/M14 A2976 RMK AO2 T00671138
0179720534001612025011121557+40017-105050FM-15+1564KEIK V0202905N006752200059N0160935N5+00665-01455999999ADDGA1005+999999999GD10991+9999999GF100991999999999999999999MA1100815083445OC101035REMMET08701/11/25 14:55:02 METAR KEIK 112155Z 29013G20KT 10SM CLR 07/M15 A2977 RMK AO2 T00661145
0253720534001612025011122157+40017-105050FM-15+1564KEIK V0203605N00515025915MN0160935N5+00545-00855999999ADDGA1025+019815999GA2075+025915999GD11991+0198159GD23991+0259159GE19AGL   +99999+99999GF199999999999019811999999MA1100885083505OC100985REMMET10801/11/25 15:15:02 METAR KEIK 112215Z 36010G19KT 10SM FEW065 BKN085 05/M09 A2979 RMK AO2 WSHFT 2159 T00541085
0253720534001612025011122357+40017-105050FM-15+1564KEIK V0200205N00515025915MN0160935N5+00405-00895999999ADDGA1025+021345999GA2085+025915999GD11991+0213459GD24991+0259159GE19AGL   +99999+99999GF199999999999021341999999MA1100915083535OC101245REMMET10801/11/25 15:35:02 METAR KEIK 112235Z 02010G24KT 10SM FEW070 OVC085 04/M09 A2980 RMK AO2 WSHFT 2159 T00401089
0204720534001612025011122557+40017-105050FM-15+1564KEIK V0200205N00575025915MN0160935N5+00415-00945999999ADDGA1085+025915999GD14991+0259159GE19AGL   +99999+99999GF199999999999025911999999MA1100955083565OC100985REMMET09001/11/25 15:55:02 METAR KEIK 112255Z 02011G19KT 10SM OVC085 04/M09 A2981 RMK AO2 T00411094
0212720534001612025011123157+40017-105050FM-15+1564KEIK V0200305N004652200059N0160935N5+00335-00935999999ADDGA1045+027435999GD12991+0274359GE19AGL   +99999+99999GF104995999999027431999999MA1100985083595REMMET08701/11/25 16:15:02 METAR KEIK 112315Z 03009KT 10SM SCT090 03/M09 A2982 RMK AO2 T00331093EQDD01      0ADE726
0212720534001612025011123357+40017-105050FM-15+1564KEIK V0200105N002152200059N0160935N5+00305-00905999999ADDGA1025+039625999GD11991+0396259GE19AGL   +99999+99999GF102995999999039621999999MA1101025083625REMMET08701/11/25 16:35:02 METAR KEIK 112335Z 01004KT 10SM FEW130 03/M09 A2983 RMK AO2 T00301090EQDD01      0ADE726
0211720534001612025011123557+40017-105050FM-15+1564KEIK V0209999V003152200059N0144845N5+00265-00925999999ADDGA1025+021345999GD11991+0213459GE19AGL   +99999+99999GF102995999999021341999999MA1101025083625REMMET08601/11/25 16:55:02 METAR KEIK 112355Z VRB06KT 9SM FEW070 03/M09 A2983 RMK AO2 T00261092EQDD01      0ADE726
0168720534001612025011200157+40017-105050FM-15+1564KEIK V0209999C000052200059N0160935N5+00085-00965999999ADDGA1005+999999999GD10991+9999999GF100991999999999999999999MA1101055083655REMMET08401/11/25 17:15:01 METAR KEIK 120015Z 00000KT 10SM CLR 01/M10 A2984 RMK AO2 T00081096
0169720534001612025011200357+40017-105050FM-15+1564KEIK V0209999C000052200059N0160935N5-00135-00955999999ADDGA1005+999999999GD10991+9999999GF100991999999999999999999MA1101085083685REMMET08501/11/25 17:35:01 METAR KEIK 120035Z 00000KT 10SM CLR M01/M09 A2985 RMK AO2 T10131095
0169720534001612025011200557+40017-105050FM-15+1564KEIK V0209999C000052200059N0160935N5-00225-00955999999ADDGA1005+999999999GD10991+9999999GF100991999999999999999999MA1101125083715REMMET08501/11/25 17:55:01 METAR KEIK 120055Z 00000KT 10SM CLR M02/M10 A2986 RMK AO2 T10221095
0169720534001612025011201157+40017-105050FM-15+1564KEIK V0201205N001552200059N0160935N5-00415-00895999999ADDGA1005+999999999GD10991+9999999GF100991999999999999999999MA1101155083735REMMET08501/11/25 18:15:01 METAR KEIK 120115Z 12003KT 10SM CLR M04/M09 A2987 RMK AO2 T10411089
0169720534001612025011201357+40017-105050FM-15+1564KEIK V0209999C000052200059N0160935N5-00135-00895999999ADDGA1005+999999999GD10991+9999999GF100991999999999999999999MA1101155083735REMMET08501/11/25 18:35:01 METAR KEIK 120135Z 00000KT 10SM CLR M01/M09 A2987 RMK AO2 T10131089
0169720534001612025011201557+40017-105050FM-15+1564KEIK V0209999C000052200059N0160935N5-00025-00915999999ADDGA1005+999999999GD10991+9999999GF100991999999999999999999MA1101195083765REMMET08501/11/25 18:55:01 METAR KEIK 120155Z 00000KT 10SM CLR M00/M09 A2988 RMK AO2 T10021091
0169720534001612025011202157+40017-105050FM-15+1564KEIK V0209999C000052200059N0160935N5-00035-00895999999ADDGA1005+999999999GD10991+9999999GF100991999999999999999999MA1101195083765REMMET08501/11/25 19:15:01 METAR KEIK 120215Z 00000KT 10SM CLR M00/M09 A2988 RMK AO2 T10031089
0213720534001612025011202357+40017-105050FM-15+1564KEIK V0209999C000052200059N0160935N5-00165-00865999999ADDGA1025+033535999GD11991+0335359GE19AGL   +99999+99999GF102995999999033531999999MA1101225083795REMMET08801/11/25 19:35:01 METAR KEIK 120235Z 00000KT 10SM FEW110 M02/M09 A2989 RMK AO2 T10161086EQDD01      0ADE726
0213720534001612025011202557+40017-105050FM-15+1564KEIK V0202105N001552200059N0160935N5-00175-00845999999ADDGA1025+033535999GD11991+0335359GE19AGL   +99999+99999GF102995999999033531999999MA1101225083795REMMET08801/11/25 19:55:01 METAR KEIK 120255Z 21003KT 10SM FEW110 M02/M08 A2989 RMK AO2 T10171084EQDD01      0ADE726
0169720534001612025011203157+40017-105050FM-15+1564KEIK V0209999C000052200059N0160935N5-00345-00875999999ADDGA1005+999999999GD10991+9999999GF100991999999999999999999MA1101255083825REMMET08501/11/25 20:15:02 METAR KEIK 120315Z 00000KT 10SM CLR M03/M09 A2990 RMK AO2 T10341087
0213720534001612025011203357+40017-105050FM-15+1564KEIK V0209999C000052200059N0160935N5-00445-00855999999ADDGA1045+028965999GD12991+0289659GE19AGL   +99999+99999GF104995999999028961999999MA1101255083825REMMET08801/11/25 20:35:02 METAR KEIK 120335Z 00000KT 10SM SCT095 M04/M09 A2990 RMK AO2 T10441085EQDD01      0ADE726
0212720534001612025011203557+40017-105050FM-15+1564KEIK V0202105N001552200059N0144845N5-00425-00845999999ADDGA1025+028965999GD11991+0289659GE19AGL   +99999+99999GF102995999999028961999999MA1101295083855REMMET08701/11/25 20:55:02 METAR KEIK 120355Z 21003KT 9SM FEW095 M04/M08 A2991 RMK AO2 T10421084EQDD01      0ADE726
0169720534001612025011204157+40017-105050FM-15+1564KEIK V0209999C000052200059N0160935N5-00385-00895999999ADDGA1005+999999999GD10991+9999999GF100991999999999999999999MA1101295083855REMMET08501/11/25 21:15:02 METAR KEIK 120415Z 00000KT 10SM CLR M04/M09 A2991 RMK AO2 T10381089
0169720534001612025011204357+40017-105050FM-15+1564KEIK V0202005N002152200059N0160935N5-00505-00915999999ADDGA1005+999999999GD10991+9999999GF100991999999999999999999MA1101295083855REMMET08501/11/25 21:35:02 METAR KEIK 120435Z 20004KT 10SM CLR M05/M09 A2991 RMK AO2 T10501091
0169720534001612025011204557+40017-105050FM-15+1564KEIK V0202105N003152200059N0160935N5-00495-00895999999ADDGA1005+999999999GD10991+9999999GF100991999999999999999999MA1101325083885REMMET08501/11/25 21:55:02 METAR KEIK 120455Z 21006KT 10SM CLR M05/M09 A2992 RMK AO2 T10491089
0168720534001612025011205157+40017-105050FM-15+1564KEIK V0201905N001552200059N0144845N5-00405-00925999999ADDGA1005+999999999GD10991+9999999GF100991999999999999999999MA1101325083885REMMET08401/11/25 22:15:02 METAR KEIK 120515Z 19003KT 9SM CLR M04/M09 A2992 RMK AO2 T10401092
0169720534001612025011205357+40017-105050FM-15+1564KEIK V0209999C000052200059N0160935N5-00505-00955999999ADDGA1005+999999999GD10991+9999999GF100991999999999999999999MA1101325083885REMMET08501/11/25 22:35:02 METAR KEIK 120535Z 00000KT 10SM CLR M05/M09 A2992 RMK AO2 T10501095
0169720534001612025011205557+40017-105050FM-15+1564KEIK V0201305N001552200059N0160935N5-00505-00965999999ADDGA1005+999999999GD10991+9999999GF100991999999999999999999MA1101325083885REMMET08501/11/25 22:55:02 METAR KEIK 120555Z 13003KT 10SM CLR M05/M10 A2992 RMK AO2 T10501096
0169720534001612025011206157+40017-105050FM-15+1564KEIK V0209999C000052200059N0160935N5-00605-00975999999ADDGA1005+999999999GD10991+9999999GF100991999999999999999999MA1101325083885REMMET08501/11/25 23:15:02 METAR KEIK 120615Z 00000KT 10SM CLR M06/M10 A2992 RMK AO2 T10601097
0168720534001612025011206357+40017-105050FM-15+1564KEIK V0209999C000052200059N0144845N5-00745-01055999999ADDGA1005+999999999GD10991+9999999GF100991999999999999999999MA1101325083885REMMET08401/11/25 23:35:02 METAR KEIK 120635Z 00000KT 9SM CLR M07/M10 A2992 RMK AO2 T10741105
0168720534001612025011206557+40017-105050FM-15+1564KEIK V0209999C000052200059N0144845N5-00765-01015999999ADDGA1005+999999999GD10991+9999999GF100991999999999999999999MA1101325083885REMMET08401/11/25 23:55:02 METAR KEIK 120655Z 00000KT 9SM CLR M08/M10 A2992 RMK AO2 T10761101
0169720534001612025011207157+40017-105050FM-15+1564KEIK V0209999C000052200059N0160935N5-00835-01055999999ADDGA1005+999999999GD10991+9999999GF100991999999999999999999MA1101325083885REMMET08501/12/25 00:15:02 METAR KEIK 120715Z 00000KT 10SM CLR M08/M10 A2992 RMK AO2 T10831105
0169720534001612025011207357+40017-105050FM-15+1564KEIK V0209999C000052200059N0160935N5-00815-01035999999ADDGA1005+999999999GD10991+9999999GF100991999999999999999999MA1101325083885REMMET08501/12/25 00:35:02 METAR KEIK 120735Z 00000KT 10SM CLR M08/M10 A2992 RMK AO2 T10811103
0169720534001612025011207557+40017-105050FM-15+1564KEIK V0209999C000052200059N0160935N5-00835-01085999999ADDGA1005+999999999GD10991+9999999GF100991999999999999999999MA1101355083915REMMET08501/12/25 00:55:02 METAR KEIK 120755Z 00000KT 10SM CLR M08/M11 A2993 RMK AO2 T10831108
0169720534001612025011208157+40017-105050FM-15+1564KEIK V0209999C000052200059N0160935N5-00965-01165999999ADDGA1005+999999999GD10991+9999999GF100991999999999999999999MA1101355083915REMMET08501/12/25 01:15:02 METAR KEIK 120815Z 00000KT 10SM CLR M10/M12 A2993 RMK AO2 T10961116
0168720534001612025011208357+40017-105050FM-15+1564KEIK V0202205N001552200059N0144845N5-00905-01115999999ADDGA1005+999999999GD10991+9999999GF100991999999999999999999MA1101395083945REMMET08401/12/25 01:35:02 METAR KEIK 120835Z 22003KT 9SM CLR M09/M11 A2994 RMK AO2 T10901111
0169720534001612025011208557+40017-105050FM-15+1564KEIK V0202005N002652200059N0160935N5-00865-01065999999ADDGA1005+999999999GD10991+9999999GF100991999999999999999999MA1101395083945REMMET08501/12/25 01:55:02 METAR KEIK 120855Z 20005KT 10SM CLR M09/M11 A2994 RMK AO2 T10861106
0169720534001612025011209157+40017-105050FM-15+1564KEIK V0209999C000052200059N0160935N5-00855-01055999999ADDGA1005+999999999GD10991+9999999GF100991999999999999999999MA1101425083975REMMET08501/12/25 02:15:02 METAR KEIK 120915Z 00000KT 10SM CLR M08/M11 A2995 RMK AO2 T10851105
0168720534001612025011209357+40017-105050FM-15+1564KEIK V0209999C000052200059N0144845N5-00825-01065999999ADDGA1005+999999999GD10991+9999999GF100991999999999999999999MA1101425083975REMMET08401/12/25 02:35:02 METAR KEIK 120935Z 00000KT 9SM CLR M08/M11 A2995 RMK AO2 T10821106
0169720534001612025011209557+40017-105050FM-15+1564KEIK V0209999C000052200059N0160935N5-00885-01105999999ADDGA1005+999999999GD10991+9999999GF100991999999999999999999MA1101465084005REMMET08501/12/25 02:55:02 METAR KEIK 120955Z 00000KT 10SM CLR M09/M11 A2996 RMK AO2 T10881110
0168720534001612025011210157+40017-105050FM-15+1564KEIK V0209999C000052200059N0144845N5-00805-01055999999ADDGA1005+999999999GD10991+9999999GF100991999999999999999999MA1101465084005REMMET08401/12/25 03:15:02 METAR KEIK 121015Z 00000KT 9SM CLR M08/M10 A2996 RMK AO2 T10801105
0169720534001612025011210357+40017-105050FM-15+1564KEIK V0209999C000052200059N0160935N5-00915-01135999999ADDGA1005+999999999GD10991+9999999GF100991999999999999999999MA1101465084005REMMET08501/12/25 03:35:02 METAR KEIK 121035Z 00000KT 10SM CLR M09/M11 A2996 RMK AO2 T10911113
0169720534001612025011210557+40017-105050FM-15+1564KEIK V0201705N001552200059N0160935N5-00805-01075999999ADDGA1005+999999999GD10991+9999999GF100991999999999999999999MA1101465084005REMMET08501/12/25 03:55:02 METAR KEIK 121055Z 17003KT 10SM CLR M08/M11 A2996 RMK AO2 T10801107
0169720534001612025011211157+40017-105050FM-15+1564KEIK V0209999C000052200059N0160935N5-00905-01135999999ADDGA1005+999999999GD10991+9999999GF100991999999999999999999MA1101465084005REMMET08501/12/25 04:15:02 METAR KEIK 121115Z 00000KT 10SM CLR M09/M11 A2996 RMK AO2 T10901113
0169720534001612025011211357+40017-105050FM-15+1564KEIK V0201705N002652200059N0160935N5-00705-01145999999ADDGA1005+999999999GD10991+9999999GF100991999999999999999999MA1101465084005REMMET08501/12/25 04:35:02 METAR KEIK 121135Z 17005KT 10SM CLR M07/M11 A2996 RMK AO2 T10701114
0169720534001612025011211557+40017-105050FM-15+1564KEIK V0209999C000052200059N0160935N5-00845-01185999999ADDGA1005+999999999GD10991+9999999GF100991999999999999999999MA1101465084005REMMET08501/12/25 04:55:02 METAR KEIK 121155Z 00000KT 10SM CLR M08/M12 A2996 RMK AO2 T10841118
0169720534001612025011212157+40017-105050FM-15+1564KEIK V0209999C000052200059N0160935N5-00905-01215999999ADDGA1005+999999999GD10991+9999999GF100991999999999999999999MA1101495084035REMMET08501/12/25 05:15:02 METAR KEIK 121215Z 00000KT 10SM CLR M09/M12 A2997 RMK AO2 T10901121
0169720534001612025011212357+40017-105050FM-15+1564KEIK V0202305N001552200059N0160935N5-00915-01225999999ADDGA1005+999999999GD10991+9999999GF100991999999999999999999MA1101525084055REMMET08501/12/25 05:35:02 METAR KEIK 121235Z 23003KT 10SM CLR M09/M12 A2998 RMK AO2 T10911122
0169720534001612025011212557+40017-105050FM-15+1564KEIK V0209999C000052200059N0160935N5-01005-01285999999ADDGA1005+999999999GD10991+9999999GF100991999999999999999999MA1101565084085REMMET08501/12/25 05:55:02 METAR KEIK 121255Z 00000KT 10SM CLR M10/M13 A2999 RMK AO2 T11001128
0169720534001612025011213157+40017-105050FM-15+1564KEIK V0201505N001552200059N0160935N5-01045-01285999999ADDGA1005+999999999GD10991+9999999GF100991999999999999999999MA1101595084115REMMET08501/12/25 06:15:02 METAR KEIK 121315Z 15003KT 10SM CLR M10/M13 A3000 RMK AO2 T11041128
0169720534001612025011213357+40017-105050FM-15+1564KEIK V0202205N001552200059N0160935N5-00825-01235999999ADDGA1005+999999999GD10991+9999999GF100991999999999999999999MA1101635084145REMMET08501/12/25 06:35:02 METAR KEIK 121335Z 22003KT 10SM CLR M08/M12 A3001 RMK AO2 T10821123
0169720534001612025011213557+40017-105050FM-15+1564KEIK V0202005N001552200059N0160935N5-00915-01255999999ADDGA1005+999999999GD10991+9999999GF100991999999999999999999MA1101635084145REMMET08501/12/25 06:55:02 METAR KEIK 121355Z 20003KT 10SM CLR M09/M13 A3001 RMK AO2 T10911125
0169720534001612025011214157+40017-105050FM-15+1564KEIK V0202005N001552200059N0160935N5-00825-01275999999ADDGA1005+999999999GD10991+9999999GF100991999999999999999999MA1101665084175REMMET08501/12/25 07:15:02 METAR KEIK 121415Z 20003KT 10SM CLR M08/M13 A3002 RMK AO2 T10821127
0169720534001612025011214357+40017-105050FM-15+1564KEIK V0202005N002652200059N0160935N5-00785-01265999999ADDGA1005+999999999GD10991+9999999GF100991999999999999999999MA1101665084175REMMET08501/12/25 07:35:02 METAR KEIK 121435Z 20005KT 10SM CLR M08/M13 A3002 RMK AO2 T10781126
0169720534001612025011214557+40017-105050FM-15+1564KEIK V0201905N003652200059N0160935N5-00685-01215999999ADDGA1005+999999999GD10991+9999999GF100991999999999999999999MA1101665084175REMMET08501/12/25 07:55:02 METAR KEIK 121455Z 19007KT 10SM CLR M07/M12 A3002 RMK AO2 T10681121
0169720534001612025011215157+40017-105050FM-15+1564KEIK V0201905N001552200059N0160935N5-00535-01075999999ADDGA1005+999999999GD10991+9999999GF100991999999999999999999MA1101665084175REMMET08501/12/25 08:15:02 METAR KEIK 121515Z 19003KT 10SM CLR M05/M11 A3002 RMK AO2 T10531107
0169720534001612025011215357+40017-105050FM-15+1564KEIK V0202005N003152200059N0160935N5-00355-00945999999ADDGA1005+999999999GD10991+9999999GF100991999999999999999999MA1101695084205REMMET08501/12/25 08:35:02 METAR KEIK 121535Z 20006KT 10SM CLR M04/M09 A3003 RMK AO2 T10351094
0169720534001612025011215557+40017-105050FM-15+1564KEIK V0202205N002152200059N0160935N5-00205-00925999999ADDGA1005+999999999GD10991+9999999GF100991999999999999999999MA1101735084235REMMET08501/12/25 08:55:02 METAR KEIK 121555Z 22004KT 10SM CLR M02/M09 A3004 RMK AO2 T10201092
0169720534001612025011216157+40017-105050FM-15+1564KEIK V0202005N003152200059N0160935N5-00095-00995999999ADDGA1005+999999999GD10991+9999999GF100991999999999999999999MA1101735084235REMMET08501/12/25 09:15:02 METAR KEIK 121615Z 20006KT 10SM CLR M01/M10 A3004 RMK AO2 T10091099
0168720534001612025011216357+40017-105050FM-15+1564KEIK V0202005N003152200059N0160935N5+00045-00985999999ADDGA1005+999999999GD10991+9999999GF100991999999999999999999MA1101735084235REMMET08401/12/25 09:35:02 METAR KEIK 121635Z 20006KT 10SM CLR 00/M10 A3004 RMK AO2 T00041098
0168720534001612025011216557+40017-105050FM-15+1564KEIK V0201705N002652200059N0160935N5+00085-01125999999ADDGA1005+999999999GD10991+9999999GF100991999999999999999999MA1101765084265REMMET08401/12/25 09:55:02 METAR KEIK 121655Z 17005KT 10SM CLR 01/M11 A3005 RMK AO2 T00081112
0168720534001612025011217157+40017-105050FM-15+1564KEIK V0201905N001552200059N0160935N5+00225-01305999999ADDGA1005+999999999GD10991+9999999GF100991999999999999999999MA1101765084265REMMET08401/12/25 10:15:02 METAR KEIK 121715Z 19003KT 10SM CLR 02/M13 A3005 RMK AO2 T00221130
0168720534001612025011217357+40017-105050FM-15+1564KEIK V0201205N002652200059N0160935N5+00275-01255999999ADDGA1005+999999999GD10991+9999999GF100991999999999999999999MA1101735084235REMMET08401/12/25 10:35:02 METAR KEIK 121735Z 12005KT 10SM CLR 03/M12 A3004 RMK AO2 T00271125
0168720534001612025011217557+40017-105050FM-15+1564KEIK V0209999V001552200059N0160935N5+00345-01255999999ADDGA1005+999999999GD10991+9999999GF100991999999999999999999MA1101695084205REMMET08401/12/25 10:55:02 METAR KEIK 121755Z VRB03KT 10SM CLR 03/M13 A3003 RMK AO2 T00341125
0168720534001612025011218157+40017-105050FM-15+1564KEIK V0209999C000052200059N0160935N5+00325-01455999999ADDGA1005+999999999GD10991+9999999GF100991999999999999999999MA1101695084205REMMET08401/12/25 11:15:02 METAR KEIK 121815Z 00000KT 10SM CLR 03/M15 A3003 RMK AO2 T00321145
0168720534001612025011218357+40017-105050FM-15+1564KEIK V0209999V002652200059N0160935N5+00345-01555999999ADDGA1005+999999999GD10991+9999999GF100991999999999999999999MA1101665084175REMMET08401/12/25 11:35:02 METAR KEIK 121835Z VRB05KT 10SM CLR 03/M16 A3002 RMK AO2 T00341155
0212720534001612025011218557+40017-105050FM-15+1564KEIK V0209999V001552200059N0160935N5+00355-01595999999ADDGA1025+028965999GD11991+0289659GE19AGL   +99999+99999GF102995999999028961999999MA1101665084175REMMET08701/12/25 11:55:02 METAR KEIK 121855Z VRB03KT 10SM FEW095 04/M16 A3002 RMK AO2 T00351159EQDD01      0ADE726
0193720534001612025011219157+40017-105050FM-15+1564KEIK V0200505N00415028965MN0160935N5+00415-01545999999ADDGA1075+028965999GD13991+0289659GE19AGL   +99999+99999GF199999999999028961999999MA1101635084145REMMET08701/12/25 12:15:02 METAR KEIK 121915Z 05008KT 10SM BKN095 04/M15 A3001 RMK AO2 T00411154
0193720534001612025011219357+40017-105050FM-15+1564KEIK V0203605N00465027435MN0160935N5+00415-01455999999ADDGA1085+027435999GD14991+0274359GE19AGL   +99999+99999GF199999999999027431999999MA1101635084145REMMET08701/12/25 12:35:02 METAR KEIK 121935Z 36009KT 10SM OVC090 04/M15 A3001 RMK AO2 T00411145
0231720534001612025011219557+40017-105050FM-15+1564KEIK V0200105N00415022865MN0160935N5+00365-01495999999ADDGA1075+022865999GA2085+027435999GD13991+0228659GD24991+0274359GE19AGL   +99999+99999GF199999999999022861999999MA1101595084115REMMET09401/12/25 12:55:02 METAR KEIK 121955Z 01008KT 10SM BKN075 OVC090 04/M15 A3000 RMK AO2 T00361149
0231720534001612025011220157+40017-105050FM-15+1564KEIK V0209999V00315030485MN0160935N5+00315-01455999999ADDGA1045+024385999GA2085+030485999GD12991+0243859GD24991+0304859GE19AGL   +99999+99999GF199999999999024381999999MA1101595084115REMMET09401/12/25 13:15:02 METAR KEIK 122015Z VRB06KT 10SM SCT080 OVC100 03/M15 A3000 RMK AO2 T00311145
0231720534001612025011220357+40017-105050FM-15+1564KEIK V0200505N00465030485MN0160935N5+00335-01475999999ADDGA1025+024385999GA2085+030485999GD11991+0243859GD24991+0304859GE19AGL   +99999+99999GF199999999999024381999999MA1101595084115REMMET09401/12/25 13:35:02 METAR KEIK 122035Z 05009KT 10SM FEW080 OVC100 03/M15 A3000 RMK AO2 T00331147
0231720534001612025011220557+40017-105050FM-15+1564KEIK V0200305N00415028965MN0160935N5+00335-01435999999ADDGA1045+021345999GA2075+028965999GD12991+0213459GD23991+0289659GE19AGL   +99999+99999GF199999999999021341999999MA1101595084115REMMET09401/12/25 13:55:02 METAR KEIK 122055Z 03008KT 10SM SCT070 BKN095 03/M14 A3000 RMK AO2 T00331143
0231720534001612025011221157+40017-105050FM-15+1564KEIK V0203605N00315030485MN0160935N5+00315-01445999999ADDGA1045+021345999GA2075+030485999GD12991+0213459GD23991+0304859GE19AGL   +99999+99999GF199999999999021341999999MA1101595084115REMMET09401/12/25 14:15:02 METAR KEIK 122115Z 36006KT 10SM SCT070 BKN100 03/M14 A3000 RMK AO2 T00311144
0193720534001612025011221357+40017-105050FM-15+1564KEIK V0200205N00215030485MN0160935N5+00305-01465999999ADDGA1075+030485999GD13991+0304859GE19AGL   +99999+99999GF199999999999030481999999MA1101595084115REMMET08701/12/25 14:35:02 METAR KEIK 122135Z 02004KT 10SM BKN100 03/M15 A3000 RMK AO2 T00301146
0231720534001612025011221557+40017-105050FM-15+1564KEIK V0200505N00215030485MN0160935N5+00315-01425999999ADDGA1025+024385999GA2075+030485999GD11991+0243859GD23991+0304859GE19AGL   +99999+99999GF199999999999024381999999MA1101635084145REMMET09401/12/25 14:55:02 METAR KEIK 122155Z 05004KT 10SM FEW080 BKN100 03/M14 A3001 RMK AO2 T00311142
0269720534001612025011222157+40017-105050FM-15+1564KEIK V0200405N00265030485MN0160935N5+00275-01455999999ADDGA1025+019815999GA2045+024385999GA3075+030485999GD11991+0198159GD22991+0243859GD33991+0304859GE19AGL   +99999+99999GF199999999999019811999999MA1101665084175REMMET10101/12/25 15:15:02 METAR KEIK 122215Z 04005KT 10SM FEW065 SCT080 BKN100 03/M14 A3002 RMK AO2 T00271145
0231720534001612025011222357+40017-105050FM-15+1564KEIK V0200405N00215024385MN0160935N5+00275-01445999999ADDGA1045+021345999GA2075+024385999GD12991+0213459GD23991+0243859GE19AGL   +99999+99999GF199999999999021341999999MA1101695084205REMMET09401/12/25 15:35:02 METAR KEIK 122235Z 04004KT 10SM SCT070 BKN080 03/M14 A3003 RMK AO2 T00271144
0231720534001612025011222557+40017-105050FM-15+1564KEIK V0200205N00215025915MN0160935N5+00305-01425999999ADDGA1045+021345999GA2075+025915999GD12991+0213459GD23991+0259159GE19AGL   +99999+99999GF199999999999021341999999MA1101695084205REMMET09401/12/25 15:55:02 METAR KEIK 122255Z 02004KT 10SM SCT070 BKN085 03/M14 A3003 RMK AO2 T00301142
0231720534001612025011223157+40017-105050FM-15+1564KEIK V0209999C00005021345MN0160935N5+00245-01465999999ADDGA1075+021345999GA2075+027435999GD13991+0213459GD23991+0274359GE19AGL   +99999+99999GF199999999999021341999999MA1101695084205REMMET09401/12/25 16:15:02 METAR KEIK 122315Z 00000KT 10SM BKN070 BKN090 02/M15 A3003 RMK AO2 T00241146
0212720534001612025011223357+40017-105050FM-15+1564KEIK V0200205N001552200059N0160935N5+00205-01435999999ADDGA1025+019815999GD11991+0198159GE19AGL   +99999+99999GF102995999999019811999999MA1101735084235REMMET08701/12/25 16:35:02 METAR KEIK 122335Z 02003KT 10SM FEW065 02/M14 A3004 RMK AO2 T00201143EQDD01      0ADE726
0168720534001612025011223557+40017-105050FM-15+1564KEIK V0200305N001552200059N0160935N5+00105-01405999999ADDGA1005+999999999GD10991+9999999GF100991999999999999999999MA1101735084235REMMET08401/12/25 16:55:02 METAR KEIK 122355Z 03003KT 10SM CLR 01/M14 A3004 RMK AO2 T00101140
0194720534001612025011300157+40017-105050FM-15+1564KEIK V0200505N00155030485MN0160935N5-00105-01365999999ADDGA1075+030485999GD13991+0304859GE19AGL   +99999+99999GF199999999999030481999999MA1101765084265REMMET08801/12/25 17:15:01 METAR KEIK 130015Z 05003KT 10SM BKN100 M01/M14 A3005 RMK AO2 T10101136
0213720534001612025011300357+40017-105050FM-15+1564KEIK V0200305N003152200059N0160935N5-00055-01105999999ADDGA1045+030485999GD12991+0304859GE19AGL   +99999+99999GF104995999999030481999999MA1101795084295REMMET08801/12/25 17:35:01 METAR KEIK 130035Z 03006KT 10SM SCT100 M01/M11 A3006 RMK AO2 T10051110EQDD01      0ADE726
0213720534001612025011300557+40017-105050FM-15+1564KEIK V0200305N001552200059N0160935N5-00105-01075999999ADDGA1025+030485999GD11991+0304859GE19AGL   +99999+99999GF102995999999030481999999MA1101795084295REMMET08801/12/25 17:55:01 METAR KEIK 130055Z 03003KT 10SM FEW100 M01/M11 A3006 RMK AO2 T10101107EQDD01      0ADE726
0169720534001612025011301157+40017-105050FM-15+1564KEIK V0201705N002652200059N0160935N5-00285-01075999999ADDGA1005+999999999GD10991+9999999GF100991999999999999999999MA1101835084325REMMET08501/12/25 18:15:01 METAR KEIK 130115Z 17005KT 10SM CLR M03/M11 A3007 RMK AO2 T10281107
0169720534001612025011301357+40017-105050FM-15+1564KEIK V0200405N002152200059N0160935N5-00175-01135999999ADDGA1005+999999999GD10991+9999999GF100991999999999999999999MA1101865084345REMMET08501/12/25 18:35:01 METAR KEIK 130135Z 04004KT 10SM CLR M02/M11 A3008 RMK AO2 T10171113
0213720534001612025011301557+40017-105050FM-15+1564KEIK V0201905N002152200059N0160935N5-00375-01105999999ADDGA1025+022865999GD11991+0228659GE19AGL   +99999+99999GF102995999999022861999999MA1101935084405REMMET08801/12/25 18:55:01 METAR KEIK 130155Z 19004KT 10SM FEW075 M04/M11 A3010 RMK AO2 T10371110EQDD01      0ADE726
0213720534001612025011302157+40017-105050FM-15+1564KEIK V0201505N002652200059N0160935N5-00315-01065999999ADDGA1025+022865999GD11991+0228659GE19AGL   +99999+99999GF102995999999022861999999MA1101935084405REMMET08801/12/25 19:15:01 METAR KEIK 130215Z 15005KT 10SM FEW075 M03/M11 A3010 RMK AO2 T10311106EQDD01      0ADE726
0169720534001612025011302357+40017-105050FM-15+1564KEIK V0209999C000052200059N0160935N5-00495-01095999999ADDGA1005+999999999GD10991+9999999GF100991999999999999999999MA1101935084405REMMET08501/12/25 19:35:01 METAR KEIK 130235Z 00000KT 10SM CLR M05/M11 A3010 RMK AO2 T10491109
0213720534001612025011302557+40017-105050FM-15+1564KEIK V0209999C000052200059N0160935N5-00695-01185999999ADDGA1025+030485999GD11991+0304859GE19AGL   +99999+99999GF102995999999030481999999MA1101965084435REMMET08801/12/25 19:55:02 METAR KEIK 130255Z 00000KT 10SM FEW100 M07/M12 A3011 RMK AO2 T10691118EQDD01      0ADE726
0213720534001612025011303157+40017-105050FM-15+1564KEIK V0209999C000052200059N0160935N5-00685-01085999999ADDGA1045+028965999GD12991+0289659GE19AGL   +99999+99999GF104995999999028961999999MA1101965084435REMMET08801/12/25 20:15:02 METAR KEIK 130315Z 00000KT 10SM SCT095 M07/M11 A3011 RMK AO2 T10681108EQDD01      0ADE726
0194720534001612025011303357+40017-105050FM-15+1564KEIK V0201905N00155027435MN0160935N5-00595-01105999999ADDGA1075+027435999GD13991+0274359GE19AGL   +99999+99999GF199999999999027431999999MA1102005084465REMMET08801/12/25 20:35:02 METAR KEIK 130335Z 19003KT 10SM BKN090 M06/M11 A3012 RMK AO2 T10591110
0213720534001612025011303557+40017-105050FM-15+1564KEIK V0201705N003152200059N0160935N5-00515-01055999999ADDGA1045+027435999GD12991+0274359GE19AGL   +99999+99999GF104995999999027431999999MA1102005084465REMMET08801/12/25 20:55:02 METAR KEIK 130355Z 17006KT 10SM SCT090 M05/M11 A3012 RMK AO2 T10511105EQDD01      0ADE726
0213720534001612025011304157+40017-105050FM-15+1564KEIK V0201805N002152200059N0160935N5-00485-01055999999ADDGA1045+028965999GD12991+0289659GE19AGL   +99999+99999GF104995999999028961999999MA1102035084495REMMET08801/12/25 21:15:02 METAR KEIK 130415Z 18004KT 10SM SCT095 M05/M10 A3013 RMK AO2 T10481105EQDD01      0ADE726
0194720534001612025011304357+40017-105050FM-15+1564KEIK V0209999C00005027435MN0160935N5-00585-01045999999ADDGA1075+027435999GD13991+0274359GE19AGL   +99999+99999GF199999999999027431999999MA1102035084495REMMET08801/12/25 21:35:02 METAR KEIK 130435Z 00000KT 10SM BKN090 M06/M10 A3013 RMK AO2 T10581104
0213720534001612025011304557+40017-105050FM-15+1564KEIK V0201805N001552200059N0160935N5-00615-01045999999ADDGA1025+027435999GD11991+0274359GE19AGL   +99999+99999GF102995999999027431999999MA1102075084525REMMET08801/12/25 21:55:02 METAR KEIK 130455Z 18003KT 10SM FEW090 M06/M10 A3014 RMK AO2 T10611104EQDD01      0ADE726
0194720534001612025011305157+40017-105050FM-15+1564KEIK V0201805N00215025915MN0160935N5-00555-01055999999ADDGA1075+025915999GD13991+0259159GE19AGL   +99999+99999GF199999999999025911999999MA1102075084525REMMET08801/12/25 22:15:02 METAR KEIK 130515Z 18004KT 10SM BKN085 M05/M11 A3014 RMK AO2 T10551105
0213720534001612025011305357+40017-105050FM-15+1564KEIK V0209999C000052200059N0160935N5-00785-01165999999ADDGA1025+025915999GD11991+0259159GE19AGL   +99999+99999GF102995999999025911999999MA1102105084555REMMET08801/12/25 22:35:02 METAR KEIK 130535Z 00000KT 10SM FEW085 M08/M12 A3015 RMK AO2 T10781116EQDD01      0ADE726
0169720534001612025011305557+40017-105050FM-15+1564KEIK V0209999C000052200059N0160935N5-00795-01105999999ADDGA1005+999999999GD10991+9999999GF100991999999999999999999MA1102105084555REMMET08501/12/25 22:55:02 METAR KEIK 130555Z 00000KT 10SM CLR M08/M11 A3015 RMK AO2 T10791110
0169720534001612025011306157+40017-105050FM-15+1564KEIK V0201805N002152200059N0160935N5-00745-01105999999ADDGA1005+999999999GD10991+9999999GF100991999999999999999999MA1102105084555REMMET08501/12/25 23:15:02 METAR KEIK 130615Z 18004KT 10SM CLR M07/M11 A3015 RMK AO2 T10741110
0169720534001612025011306357+40017-105050FM-15+1564KEIK V0201605N001552200059N0160935N5-00805-01165999999ADDGA1005+999999999GD10991+9999999GF100991999999999999999999MA1102135084585REMMET08501/12/25 23:35:02 METAR KEIK 130635Z 16003KT 10SM CLR M08/M12 A3016 RMK AO2 T10801116
0213720534001612025011306557+40017-105050FM-15+1564KEIK V0209999C000052200059N0160935N5-00935-01215999999ADDGA1025+027435999GD11991+0274359GE19AGL   +99999+99999GF102995999999027431999999MA1102135084585REMMET08801/12/25 23:55:02 METAR KEIK 130655Z 00000KT 10SM FEW090 M09/M12 A3016 RMK AO2 T10931121EQDD01      0ADE726
0213720534001612025011307157+40017-105050FM-15+1564KEIK V0209999C000052200059N0160935N5-00985-01245999999ADDGA1025+027435999GD11991+0274359GE19AGL   +99999+99999GF102995999999027431999999MA1102105084555REMMET08801/13/25 00:15:02 METAR KEIK 130715Z 00000KT 10SM FEW090 M10/M12 A3015 RMK AO2 T10981124EQDD01      0ADE726
0169720534001612025011307357+40017-105050FM-15+1564KEIK V0209999C000052200059N0160935N5-00985-01245999999ADDGA1005+999999999GD10991+9999999GF100991999999999999999999MA1102105084555REMMET08501/13/25 00:35:02 METAR KEIK 130735Z 00000KT 10SM CLR M10/M12 A3015 RMK AO2 T10981124
0168720534001612025011307557+40017-105050FM-15+1564KEIK V0201605N001552200059N0144845N5-01005-01315999999ADDGA1005+999999999GD10991+9999999GF100991999999999999999999MA1102105084555REMMET08401/13/25 00:55:02 METAR KEIK 130755Z 16003KT 9SM CLR M10/M13 A3015 RMK AO2 T11001131
0169720534001612025011308157+40017-105050FM-15+1564KEIK V0209999C000052200059N0160935N5-01005-01325999999ADDGA1005+999999999GD10991+9999999GF100991999999999999999999MA1102105084555REMMET08501/13/25 01:15:02 METAR KEIK 130815Z 00000KT 10SM CLR M10/M13 A3015 RMK AO2 T11001132
0168720534001612025011308357+40017-105050FM-15+1564KEIK V0209999C000052200059N0144845N5-01025-01295999999ADDGA1005+999999999GD10991+9999999GF100991999999999999999999MA1102105084555REMMET08401/13/25 01:35:02 METAR KEIK 130835Z 00000KT 9SM CLR M10/M13 A3015 RMK AO2 T11021129
0168720534001612025011308557+40017-105050FM-15+1564KEIK V0209999C000052200059N0144845N5-01055-01365999999ADDGA1005+999999999GD10991+9999999GF100991999999999999999999MA1102135084585REMMET08401/13/25 01:55:02 METAR KEIK 130855Z 00000KT 9SM CLR M10/M14 A3016 RMK AO2 T11051136
0169720534001612025011309157+40017-105050FM-15+1564KEIK V0209999C000052200059N0160935N5-01075-01345999999ADDGA1005+999999999GD10991+9999999GF100991999999999999999999MA1102175084615REMMET08501/13/25 02:15:02 METAR KEIK 130915Z 00000KT 10SM CLR M11/M13 A3017 RMK AO2 T11071134
0169720534001612025011309357+40017-105050FM-15+1564KEIK V0209999C000052200059N0160935N5-01205-01435999999ADDGA1005+999999999GD10991+9999999GF100991999999999999999999MA1102175084615REMMET08501/13/25 02:35:02 METAR KEIK 130935Z 00000KT 10SM CLR M12/M14 A3017 RMK AO2 T11201143
0168720534001612025011309557+40017-105050FM-15+1564KEIK V0201805N001552200059N0144845N5-01145-01415999999ADDGA1005+999999999GD10991+9999999GF100991999999999999999999MA1102175084615REMMET08401/13/25 02:55:02 METAR KEIK 130955Z 18003KT 9SM CLR M11/M14 A3017 RMK AO2 T11141141
0169720534001612025011310157+40017-105050FM-15+1564KEIK V0209999C000052200059N0160935N5-01185-01435999999ADDGA1005+999999999GD10991+9999999GF100991999999999999999999MA1102175084615REMMET08501/13/25 03:15:02 METAR KEIK 131015Z 00000KT 10SM CLR M12/M14 A3017 RMK AO2 T11181143
0169720534001612025011310357+40017-105050FM-15+1564KEIK V0201805N001552200059N0160935N5-01175-01405999999ADDGA1005+999999999GD10991+9999999GF100991999999999999999999MA1102135084585REMMET08501/13/25 03:35:02 METAR KEIK 131035Z 18003KT 10SM CLR M12/M14 A3016 RMK AO2 T11171140
0169720534001612025011310557+40017-105050FM-15+1564KEIK V0209999C000052200059N0160935N5-01105-01425999999ADDGA1005+999999999GD10991+9999999GF100991999999999999999999MA1102135084585REMMET08501/13/25 03:55:02 METAR KEIK 131055Z 00000KT 10SM CLR M11/M14 A3016 RMK AO2 T11101142
0169720534001612025011311157+40017-105050FM-15+1564KEIK V0209999C000052200059N0160935N5-01115-01435999999ADDGA1005+999999999GD10991+9999999GF100991999999999999999999MA1102135084585REMMET08501/13/25 04:15:02 METAR KEIK 131115Z 00000KT 10SM CLR M11/M14 A3016 RMK AO2 T11111143
0169720534001612025011311357+40017-105050FM-15+1564KEIK V0209999C000052200059N0160935N5-01225-01515999999ADDGA1005+999999999GD10991+9999999GF100991999999999999999999MA1102105084555REMMET08501/13/25 04:35:02 METAR KEIK 131135Z 00000KT 10SM CLR M12/M15 A3015 RMK AO2 T11221151
0169720534001612025011311557+40017-105050FM-15+1564KEIK V0209999C000052200059N0160935N5-01195-01445999999ADDGA1005+999999999GD10991+9999999GF100991999999999999999999MA1102105084555REMMET08501/13/25 04:55:02 METAR KEIK 131155Z 00000KT 10SM CLR M12/M14 A3015 RMK AO2 T11191144
0169720534001612025011312157+40017-105050FM-15+1564KEIK V0209999C000052200059N0160935N5-01235-01485999999ADDGA1005+999999999GD10991+9999999GF100991999999999999999999MA1102105084555REMMET08501/13/25 05:15:02 METAR KEIK 131215Z 00000KT 10SM CLR M12/M15 A3015 RMK AO2 T11231148
0169720534001612025011312357+40017-105050FM-15+1564KEIK V0201805N002152200059N0160935N5-01305-01575999999ADDGA1005+999999999GD10991+9999999GF100991999999999999999999MA1102105084555REMMET08501/13/25 05:35:02 METAR KEIK 131235Z 18004KT 10SM CLR M13/M16 A3015 RMK AO2 T11301157
0169720534001612025011312557+40017-105050FM-15+1564KEIK V0209999C000052200059N0160935N5-01175-01505999999ADDGA1005+999999999GD10991+9999999GF100991999999999999999999MA1102105084555REMMET08501/13/25 05:55:02 METAR KEIK 131255Z 00000KT 10SM CLR M12/M15 A3015 RMK AO2 T11171150
0169720534001612025011313157+40017-105050FM-15+1564KEIK V0209999C000052200059N0160935N5-01245-01575999999ADDGA1005+999999999GD10991+9999999GF100991999999999999999999MA1102105084555REMMET08501/13/25 06:15:02 METAR KEIK 131315Z 00000KT 10SM CLR M12/M16 A3015 RMK AO2 T11241157
0169720534001612025011313357+40017-105050FM-15+1564KEIK V0209999C000052200059N0160935N5-01225-01525999999ADDGA1005+999999999GD10991+9999999GF100991999999999999999999MA1102105084555REMMET08501/13/25 06:35:02 METAR KEIK 131335Z 00000KT 10SM CLR M12/M15 A3015 RMK AO2 T11221152
0169720534001612025011313557+40017-105050FM-15+1564KEIK V0209999C000052200059N0160935N5-01265-01565999999ADDGA1005+999999999GD10991+9999999GF100991999999999999999999MA1102075084525REMMET08501/13/25 06:55:02 METAR KEIK 131355Z 00000KT 10SM CLR M13/M16 A3014 RMK AO2 T11261156
0169720534001612025011314157+40017-105050FM-15+1564KEIK V0209999C000052200059N0160935N5-01275-01575999999ADDGA1005+999999999GD10991+9999999GF100991999999999999999999MA1102105084555REMMET08501/13/25 07:15:02 METAR KEIK 131415Z 00000KT 10SM CLR M13/M16 A3015 RMK AO2 T11271157
0169720534001612025011314357+40017-105050FM-15+1564KEIK V0209999C000052200059N0160935N5-01245-01515999999ADDGA1005+999999999GD10991+9999999GF100991999999999999999999MA1102135084585REMMET08501/13/25 07:35:02 METAR KEIK 131435Z 00000KT 10SM CLR M12/M15 A3016 RMK AO2 T11241151
0169720534001612025011314557+40017-105050FM-15+1564KEIK V0209999C000052200059N0160935N5-01185-01485999999ADDGA1005+999999999GD10991+9999999GF100991999999999999999999MA1102135084585REMMET08501/13/25 07:55:02 METAR KEIK 131455Z 00000KT 10SM CLR M12/M15 A3016 RMK AO2 T11181148
0169720534001612025011315157+40017-105050FM-15+1564KEIK V0201905N001552200059N0160935N5-00925-01265999999ADDGA1005+999999999GD10991+9999999GF100991999999999999999999MA1102135084585REMMET08501/13/25 08:15:02 METAR KEIK 131515Z 19003KT 10SM CLR M09/M13 A3016 RMK AO2 T10921126
0169720534001612025011315357+40017-105050FM-15+1564KEIK V0209999C000052200059N0160935N5-00645-01085999999ADDGA1005+999999999GD10991+9999999GF100991999999999999999999MA1102105084555REMMET08501/13/25 08:35:02 METAR KEIK 131535Z 00000KT 10SM CLR M06/M11 A3015 RMK AO2 T10641108
0169720534001612025011315557+40017-105050FM-15+1564KEIK V0209999C000052200059N0160935N5-00475-00935999999ADDGA1005+999999999GD10991+9999999GF100991999999999999999999MA1102105084555REMMET08501/13/25 08:55:02 METAR KEIK 131555Z 00000KT 10SM CLR M05/M09 A3015 RMK AO2 T10471093
0169720534001612025011316157+40017-105050FM-15+1564KEIK V0209999C000052200059N0160935N5-00265-01235999999ADDGA1005+999999999GD10991+9999999GF100991999999999999999999MA1102105084555REMMET08501/13/25 09:15:02 METAR KEIK 131615Z 00000KT 10SM CLR M03/M12 A3015 RMK AO2 T10261123
0169720534001612025011316357+40017-105050FM-15+1564KEIK V0201605N002152200059N0160935N5-00145-01215999999ADDGA1005+999999999GD10991+9999999GF100991999999999999999999MA1102105084555REMMET08501/13/25 09:35:02 METAR KEIK 131635Z 16004KT 10SM CLR M01/M12 A3015 RMK AO2 T10141121
0169720534001612025011316557+40017-105050FM-15+1564KEIK V0201805N002152200059N0160935N5-00035-01285999999ADDGA1005+999999999GD10991+9999999GF100991999999999999999999MA1102075084525REMMET08501/13/25 09:55:02 METAR KEIK 131655Z 18004KT 10SM CLR M00/M13 A3014 RMK AO2 T10031128
0168720534001612025011317157+40017-105050FM-15+1564KEIK V0201705N003652200059N0160935N5+00055-01395999999ADDGA1005+999999999GD10991+9999999GF100991999999999999999999MA1102075084525REMMET08401/13/25 10:15:02 METAR KEIK 131715Z 17007KT 10SM CLR 01/M14 A3014 RMK AO2 T00051139
0168720534001612025011317357+40017-105050FM-15+1564KEIK V0201705N003152200059N0160935N5+00095-01435999999ADDGA1005+999999999GD10991+9999999GF100991999999999999999999MA1102075084525REMMET08401/13/25 10:35:02 METAR KEIK 131735Z 17006KT 10SM CLR 01/M14 A3014 RMK AO2 T00091143
0168720534001612025011317557+40017-105050FM-15+1564KEIK V0201505N003152200059N0160935N5+00155-01415999999ADDGA1005+999999999GD10991+9999999GF100991999999999999999999MA1102005084465REMMET08401/13/25 10:55:02 METAR KEIK 131755Z 15006KT 10SM CLR 01/M14 A3012 RMK AO2 T00151141
0168720534001612025011318157+40017-105050FM-15+1564KEIK V0201505N005752200059N0160935N5+00165-01435999999ADDGA1005+999999999GD10991+9999999GF100991999999999999999999MA1101965084435REMMET08401/13/25 11:15:02 METAR KEIK 131815Z 15011KT 10SM CLR 02/M14 A3011 RMK AO2 T00161143
0168720534001612025011318357+40017-105050FM-15+1564KEIK V0201505N005152200059N0160935N5+00225-01425999999ADDGA1005+999999999GD10991+9999999GF100991999999999999999999MA1101935084405REMMET08401/13/25 11:35:02 METAR KEIK 131835Z 15010KT 10SM CLR 02/M14 A3010 RMK AO2 T00221142
0168720534001612025011318557+40017-105050FM-15+1564KEIK V0201505N005152200059N0160935N5+00245-01445999999ADDGA1005+999999999GD10991+9999999GF100991999999999999999999MA1101905084375REMMET08401/13/25 11:55:02 METAR KEIK 131855Z 15010KT 10SM CLR 02/M14 A3009 RMK AO2 T00241144
0168720534001612025011319157+40017-105050FM-15+1564KEIK V0201505N003652200059N0160935N5+00295-01495999999ADDGA1005+999999999GD10991+9999999GF100991999999999999999999MA1101865084345REMMET08401/13/25 12:15:02 METAR KEIK 131915Z 15007KT 10SM CLR 03/M15 A3008 RMK AO2 T00291149
0168720534001612025011319357+40017-105050FM-15+1564KEIK V0201405N003152200059N0160935N5+00285-01495999999ADDGA1005+999999999GD10991+9999999GF100991999999999999999999MA1101865084345REMMET08401/13/25 12:35:02 METAR KEIK 131935Z 14006KT 10SM CLR 03/M15 A3008 RMK AO2 T00281149
0168720534001612025011319557+40017-105050FM-15+1564KEIK V0201305N003152200059N0160935N5+00335-01475999999ADDGA1005+999999999GD10991+9999999GF100991999999999999999999MA1101865084345REMMET08401/13/25 12:55:02 METAR KEIK 131955Z 13006KT 10SM CLR 03/M15 A3008 RMK AO2 T00331147
0168720534001612025011320157+40017-105050FM-15+1564KEIK V0201905N002652200059N0160935N5+00365-01535999999ADDGA1005+999999999GD10991+9999999GF100991999999999999999999MA1101835084325REMMET08401/13/25 13:15:02 METAR KEIK 132015Z 19005KT 10SM CLR 04/M15 A3007 RMK AO2 T00361153
0168720534001612025011320357+40017-105050FM-15+1564KEIK V0203105N002652200059N0160935N5+00405-01595999999ADDGA1005+999999999GD10991+9999999GF100991999999999999999999MA1101835084325REMMET08401/13/25 13:35:02 METAR KEIK 132035Z 31005KT 10SM CLR 04/M16 A3007 RMK AO2 T00401159
0168720534001612025011320557+40017-105050FM-15+1564KEIK V0209999C000052200059N0160935N5+00375-01675999999ADDGA1005+999999999GD10991+9999999GF100991999999999999999999MA1101835084325REMMET08401/13/25 13:55:02 METAR KEIK 132055Z 00000KT 10SM CLR 04/M17 A3007 RMK AO2 T00371167
0212720534001612025011321157+40017-105050FM-15+1564KEIK V0209999V001552200059N0160935N5+00375-01645999999ADDGA1025+025915999GD11991+0259159GE19AGL   +99999+99999GF102995999999025911999999MA1101835084325REMMET08701/13/25 14:15:02 METAR KEIK 132115Z VRB03KT 10SM FEW085 04/M16 A3007 RMK AO2 T00371164EQDD01      0ADE726
0193720534001612025011321357+40017-105050FM-15+1564KEIK V0209999C00005025915MN0160935N5+00365-01625999999ADDGA1075+025915999GD13991+0259159GE19AGL   +99999+99999GF199999999999025911999999MA1101865084345REMMET08701/13/25 14:35:02 METAR KEIK 132135Z 00000KT 10SM BKN085 04/M16 A3008 RMK AO2 T00361162
0193720534001612025011321557+40017-105050FM-15+1564KEIK V0209999V00265027435MN0160935N5+00395-01635999999ADDGA1075+027435999GD13991+0274359GE19AGL   +99999+99999GF199999999999027431999999MA1101865084345REMMET08701/13/25 14:55:02 METAR KEIK 132155Z VRB05KT 10SM BKN090 04/M16 A3008 RMK AO2 T00391163
0212720534001612025011322157+40017-105050FM-15+1564KEIK V0202705N004152200059N0160935N5+00375-01725999999ADDGA1045+030485999GD12991+0304859GE19AGL   +99999+99999GF104995999999030481999999MA1101865084345REMMET08701/13/25 15:15:02 METAR KEIK 132215Z 27008KT 10SM SCT100 04/M17 A3008 RMK AO2 T00371172EQDD01      0ADE726
0231720534001612025011322357+40017-105050FM-15+1564KEIK V0200305N00315030485MN0160935N5+00345-01635999999ADDGA1045+024385999GA2075+030485999GD12991+0243859GD23991+0304859GE19AGL   +99999+99999GF199999999999024381999999MA1101905084375REMMET09401/13/25 15:35:02 METAR KEIK 132235Z 03006KT 10SM SCT080 BKN100 03/M16 A3009 RMK AO2 T00341163
0212720534001612025011322557+40017-105050FM-15+1564KEIK V0202905N007752200059N0160935N5+00325-01825999999ADDGA1045+024385999GD12991+0243859GE19AGL   +99999+99999GF104995999999024381999999MA1101905084375REMMET08701/13/25 15:55:02 METAR KEIK 132255Z 29015KT 10SM SCT080 03/M18 A3009 RMK AO2 T00321182EQDD01      0ADE726
0212720534001612025011323157+40017-105050FM-15+1564KEIK V0202905N005752200059N0160935N5+00235-01785999999ADDGA1025+024385999GD11991+0243859GE19AGL   +99999+99999GF102995999999024381999999MA1101905084375REMMET08701/13/25 16:15:02 METAR KEIK 132315Z 29011KT 10SM FEW080 02/M18 A3009 RMK AO2 T00231178EQDD01      0ADE726
0179720534001612025011323357+40017-105050FM-15+1564KEIK V0202805N006752200059N0160935N5+00115-01855999999ADDGA1005+999999999GD10991+9999999GF100991999999999999999999MA1101865084345OC101185REMMET08701/13/25 16:35:02 METAR KEIK 132335Z 28013G23KT 10SM CLR 01/M19 A3008 RMK AO2 T00111185
0168720534001612025011323557+40017-105050FM-15+1564KEIK V0202605N003652200059N0160935N5+00025-01785999999ADDGA1005+999999999GD10991+9999999GF100991999999999999999999MA1101905084375REMMET08401/13/25 16:55:02 METAR KEIK 132355Z 26007KT 10SM CLR 00/M18 A3009 RMK AO2 T00021178
0169720534001612025011400157+40017-105050FM-15+1564KEIK V0202605N002152200059N0160935N5-00125-01705999999ADDGA1005+999999999GD10991+9999999GF100991999999999999999999MA1101905084375REMMET08501/13/25 17:15:01 METAR KEIK 140015Z 26004KT 10SM CLR M01/M17 A3009 RMK AO2 T10121170
0169720534001612025011400357+40017-105050FM-15+1564KEIK V0209999C000052200059N0160935N5-00405-01705999999ADDGA1005+999999999GD10991+9999999GF100991999999999999999999MA1101935084405REMMET08501/13/25 17:35:01 METAR KEIK 140035Z 00000KT 10SM CLR M04/M17 A3010 RMK AO2 T10401170
0169720534001612025011400557+40017-105050FM-15+1564KEIK V0202005N001552200059N0160935N5-00275-01605999999ADDGA1005+999999999GD10991+9999999GF100991999999999999999999MA1101935084405REMMET08501/13/25 17:55:01 METAR KEIK 140055Z 20003KT 10SM CLR M03/M16 A3010 RMK AO2 T10271160
0169720534001612025011401157+40017-105050FM-15+1564KEIK V0202405N002152200059N0160935N5-00275-01625999999ADDGA1005+999999999GD10991+9999999GF100991999999999999999999MA1101935084405REMMET08501/13/25 18:15:01 METAR KEIK 140115Z 24004KT 10SM CLR M03/M16 A3010 RMK AO2 T10271162
0169720534001612025011401357+40017-105050FM-15+1564KEIK V0202105N002152200059N0160935N5-00485-01565999999ADDGA1005+999999999GD10991+9999999GF100991999999999999999999MA1101965084435REMMET08501/13/25 18:35:01 METAR KEIK 140135Z 21004KT 10SM CLR M05/M16 A3011 RMK AO2 T10481156
0169720534001612025011401557+40017-105050FM-15+1564KEIK V0209999C000052200059N0160935N5-00555-01565999999ADDGA1005+999999999GD10991+9999999GF100991999999999999999999MA1101965084435REMMET08501/13/25 18:55:01 METAR KEIK 140155Z 00000KT 10SM CLR M05/M16 A3011 RMK AO2 T10551156
0169720534001612025011402157+40017-105050FM-15+1564KEIK V0202205N002152200059N0160935N5-00585-01595999999ADDGA1005+999999999GD10991+9999999GF100991999999999999999999MA1101965084435REMMET08501/13/25 19:15:01 METAR KEIK 140215Z 22004KT 10SM CLR M06/M16 A3011 RMK AO2 T10581159
0169720534001612025011402357+40017-105050FM-15+1564KEIK V0209999C000052200059N0160935N5-00665-01585999999ADDGA1005+999999999GD10991+9999999GF100991999999999999999999MA1102005084465REMMET08501/13/25 19:35:01 METAR KEIK 140235Z 00000KT 10SM CLR M07/M16 A3012 RMK AO2 T10661158
0169720534001612025011402557+40017-105050FM-15+1564KEIK V0209999C000052200059N0160935N5-00625-01645999999ADDGA1005+999999999GD10991+9999999GF100991999999999999999999MA1102005084465REMMET08501/13/25 19:55:01 METAR KEIK 140255Z 00000KT 10SM CLR M06/M16 A3012 RMK AO2 T10621164
0169720534001612025011403157+40017-105050FM-15+1564KEIK V0203005N002652200059N0160935N5-00555-01655999999ADDGA1005+999999999GD10991+9999999GF100991999999999999999999MA1102035084495REMMET08501/13/25 20:15:02 METAR KEIK 140315Z 30005KT 10SM CLR M05/M16 A3013 RMK AO2 T10551165
0169720534001612025011403357+40017-105050FM-15+1564KEIK V0209999C000052200059N0160935N5-00685-01565999999ADDGA1005+999999999GD10991+9999999GF100991999999999999999999MA1102075084525REMMET08501/13/25 20:35:02 METAR KEIK 140335Z 00000KT 10SM CLR M07/M16 A3014 RMK AO2 T10681156
0169720534001612025011403557+40017-105050FM-15+1564KEIK V0209999C000052200059N0160935N5-00765-01665999999ADDGA1005+999999999GD10991+9999999GF100991999999999999999999MA1102105084555REMMET08501/13/25 20:55:02 METAR KEIK 140355Z 00000KT 10SM CLR M08/M17 A3015 RMK AO2 T10761166
0169720534001612025011404157+40017-105050FM-15+1564KEIK V0200905N001552200059N0160935N5-00735-01625999999ADDGA1005+999999999GD10991+9999999GF100991999999999999999999MA1102105084555REMMET08501/13/25 21:15:02 METAR KEIK 140415Z 09003KT 10SM CLR M07/M16 A3015 RMK AO2 T10731162
0169720534001612025011404357+40017-105050FM-15+1564KEIK V0209999C000052200059N0160935N5-00505-01455999999ADDGA1005+999999999GD10991+9999999GF100991999999999999999999MA1102135084585REMMET08501/13/25 21:35:02 METAR KEIK 140435Z 00000KT 10SM CLR M05/M14 A3016 RMK AO2 T10501145
0169720534001612025011404557+40017-105050FM-15+1564KEIK V0201805N001552200059N0160935N5-00675-01395999999ADDGA1005+999999999GD10991+9999999GF100991999999999999999999MA1102175084615REMMET08501/13/25 21:55:02 METAR KEIK 140455Z 18003KT 10SM CLR M07/M14 A3017 RMK AO2 T10671139
0169720534001612025011405157+40017-105050FM-15+1564KEIK V0202105N001552200059N0160935N5-00685-01265999999ADDGA1005+999999999GD10991+9999999GF100991999999999999999999MA1102205084645REMMET08501/13/25 22:15:02 METAR KEIK 140515Z 21003KT 10SM CLR M07/M13 A3018 RMK AO2 T10681126
0169720534001612025011405357+40017-105050FM-15+1564KEIK V0209999C000052200059N0160935N5-00755-01275999999ADDGA1005+999999999GD10991+9999999GF100991999999999999999999MA1102205084645REMMET08501/13/25 22:35:02 METAR KEIK 140535Z 00000KT 10SM CLR M07/M13 A3018 RMK AO2 T10751127
0169720534001612025011405557+40017-105050FM-15+1564KEIK V0201105N003152200059N0160935N5-00745-01225999999ADDGA1005+999999999GD10991+9999999GF100991999999999999999999MA1102205084645REMMET08501/13/25 22:55:02 METAR KEIK 140555Z 11006KT 10SM CLR M07/M12 A3018 RMK AO2 T10741122
0169720534001612025011406157+40017-105050FM-15+1564KEIK V0209999C000052200059N0160935N5-00705-01225999999ADDGA1005+999999999GD10991+9999999GF100991999999999999999999MA1102275084695REMMET08501/13/25 23:15:02 METAR KEIK 140615Z 00000KT 10SM CLR M07/M12 A3020 RMK AO2 T10701122
0169720534001612025011406357+40017-105050FM-15+1564KEIK V0202005N002152200059N0160935N5-00825-01275999999ADDGA1005+999999999GD10991+9999999GF100991999999999999999999MA1102275084695REMMET08501/13/25 23:35:02 METAR KEIK 140635Z 20004KT 10SM CLR M08/M13 A3020 RMK AO2 T10821127
0169720534001612025011406557+40017-105050FM-15+1564KEIK V0202405N001552200059N0160935N5-00825-01285999999ADDGA1005+999999999GD10991+9999999GF100991999999999999999999MA1102305084725REMMET08501/13/25 23:55:02 METAR KEIK 140655Z 24003KT 10SM CLR M08/M13 A3021 RMK AO2 T10821128
0169720534001612025011407157+40017-105050FM-15+1564KEIK V0209999C000052200059N0160935N5-00885-01305999999ADDGA1005+999999999GD10991+9999999GF100991999999999999999999MA1102305084725REMMET08501/14/25 00:15:02 METAR KEIK 140715Z 00000KT 10SM CLR M09/M13 A3021 RMK AO2 T10881130
0169720534001612025011407357+40017-105050FM-15+1564KEIK V0200105N001552200059N0160935N5-00855-01235999999ADDGA1005+999999999GD10991+9999999GF100991999999999999999999MA1102345084755REMMET08501/14/25 00:35:02 METAR KEIK 140735Z 01003KT 10SM CLR M08/M12 A3022 RMK AO2 T10851123
0169720534001612025011407557+40017-105050FM-15+1564KEIK V0201605N002152200059N0160935N5-00885-01275999999ADDGA1005+999999999GD10991+9999999GF100991999999999999999999MA1102305084725REMMET08501/14/25 00:55:02 METAR KEIK 140755Z 16004KT 10SM CLR M09/M13 A3021 RMK AO2 T10881127
0169720534001612025011408157+40017-105050FM-15+1564KEIK V0209999C000052200059N0160935N5-00955-01325999999ADDGA1005+999999999GD10991+9999999GF100991999999999999999999MA1102305084725REMMET08501/14/25 01:15:02 METAR KEIK 140815Z 00000KT 10SM CLR M10/M13 A3021 RMK AO2 T10951132
0169720534001612025011408357+40017-105050FM-15+1564KEIK V0209999C000052200059N0160935N5-01025-01355999999ADDGA1005+999999999GD10991+9999999GF100991999999999999999999MA1102305084725REMMET08501/14/25 01:35:02 METAR KEIK 140835Z 00000KT 10SM CLR M10/M13 A3021 RMK AO2 T11021135
0169720534001612025011408557+40017-105050FM-15+1564KEIK V0209999C000052200059N0160935N5-01145-01385999999ADDGA1005+999999999GD10991+9999999GF100991999999999999999999MA1102305084725REMMET08501/14/25 01:55:02 METAR KEIK 140855Z 00000KT 10SM CLR M11/M14 A3021 RMK AO2 T11141138
0169720534001612025011409157+40017-105050FM-15+1564KEIK V0202305N002152200059N0160935N5-01095-01335999999ADDGA1005+999999999GD10991+9999999GF100991999999999999999999MA1102305084725REMMET08501/14/25 02:15:02 METAR KEIK 140915Z 23004KT 10SM CLR M11/M13 A3021 RMK AO2 T11091133
0169720534001612025011409357+40017-105050FM-15+1564KEIK V0209999C000052200059N0160935N5-01105-01345999999ADDGA1005+999999999GD10991+9999999GF100991999999999999999999MA1102305084725REMMET08501/14/25 02:35:02 METAR KEIK 140935Z 00000KT 10SM CLR M11/M13 A3021 RMK AO2 T11101134
0169720534001612025011409557+40017-105050FM-15+1564KEIK V0203205N001552200059N0160935N5-01115-01365999999ADDGA1005+999999999GD10991+9999999GF100991999999999999999999MA1102305084725REMMET08501/14/25 02:55:02 METAR KEIK 140955Z 32003KT 10SM CLR M11/M14 A3021 RMK AO2 T11111136
0169720534001612025011410157+40017-105050FM-15+1564KEIK V0209999C000052200059N0160935N5-01245-01455999999ADDGA1005+999999999GD10991+9999999GF100991999999999999999999MA1102275084695REMMET08501/14/25 03:15:02 METAR KEIK 141015Z 00000KT 10SM CLR M12/M14 A3020 RMK AO2 T11241145
0169720534001612025011410357+40017-105050FM-15+1564KEIK V0201805N002152200059N0160935N5-01115-01395999999ADDGA1005+999999999GD10991+9999999GF100991999999999999999999MA1102245084665REMMET08501/14/25 03:35:02 METAR KEIK 141035Z 18004KT 10SM CLR M11/M14 A3019 RMK AO2 T11111139
0169720534001612025011410557+40017-105050FM-15+1564KEIK V0202105N001552200059N0160935N5-01205-01475999999ADDGA1005+999999999GD10991+9999999GF100991999999999999999999MA1102245084665REMMET08501/14/25 03:55:02 METAR KEIK 141055Z 21003KT 10SM CLR M12/M15 A3019 RMK AO2 T11201147
0169720534001612025011411157+40017-105050FM-15+1564KEIK V0209999C000052200059N0160935N5-01175-01445999999ADDGA1005+999999999GD10991+9999999GF100991999999999999999999MA1102245084665REMMET08501/14/25 04:15:02 METAR KEIK 141115Z 00000KT 10SM CLR M12/M14 A3019 RMK AO2 T11171144
0169720534001612025011411357+40017-105050FM-15+1564KEIK V0201705N001552200059N0160935N5-01245-01465999999ADDGA1005+999999999GD10991+9999999GF100991999999999999999999MA1102245084665REMMET08501/14/25 04:35:02 METAR KEIK 141135Z 17003KT 10SM CLR M12/M15 A3019 RMK AO2 T11241146
0169720534001612025011411557+40017-105050FM-15+1564KEIK V0201605N002652200059N0160935N5-01115-01415999999ADDGA1005+999999999GD10991+9999999GF100991999999999999999999MA1102245084665REMMET08501/14/25 04:55:02 METAR KEIK 141155Z 16005KT 10SM CLR M11/M14 A3019 RMK AO2 T11111141
0213720534001612025011412157+40017-105050FM-15+1564KEIK V0209999C000052200059N0160935N5-01235-01485999999ADDGA1025+039625999GD11991+0396259GE19AGL   +99999+99999GF102995999999039621999999MA1102275084695REMMET08801/14/25 05:15:02 METAR KEIK 141215Z 00000KT 10SM FEW130 M12/M15 A3020 RMK AO2 T11231148EQDD01      0ADE726
0194720534001612025011412357+40017-105050FM-15+1564KEIK V0209999C00005039625MN0160935N5-01175-01415999999ADDGA1075+039625999GD13991+0396259GE19AGL   +99999+99999GF199999999999039621999999MA1102305084725REMMET08801/14/25 05:35:02 METAR KEIK 141235Z 00000KT 10SM BKN130 M12/M14 A3021 RMK AO2 T11171141
0194720534001612025011412557+40017-105050FM-15+1564KEIK V0201805N00155039625MN0160935N5-01115-01385999999ADDGA1075+039625999GD13991+0396259GE19AGL   +99999+99999GF199999999999039621999999MA1102305084725REMMET08801/14/25 05:55:02 METAR KEIK 141255Z 18003KT 10SM BKN130 M11/M14 A3021 RMK AO2 T11111138
0251720534001612025011413157+40017-105050FM-15+1564KEIK V0209999C000052200059N0160935N5-00935-01315999999ADDGA1045+030485999GA2045+039625999GD12991+0304859GD22991+0396259GE19AGL   +99999+99999GF104995999999030481999999MA1102345084755REMMET09501/14/25 06:15:02 METAR KEIK 141315Z 00000KT 10SM SCT100 SCT130 M09/M13 A3022 RMK AO2 T10931131EQDD01      0ADE726
0251720534001612025011413357+40017-105050FM-15+1564KEIK V0209999C000052200059N0160935N5-00955-01235999999ADDGA1025+030485999GA2045+039625999GD11991+0304859GD22991+0396259GE19AGL   +99999+99999GF104995999999030481999999MA1102345084755REMMET09501/14/25 06:35:02 METAR KEIK 141335Z 00000KT 10SM FEW100 SCT130 M09/M12 A3022 RMK AO2 T10951123EQDD01      0ADE726
0232720534001612025011413557+40017-105050FM-15+1564KEIK V0209999C00005039625MN0160935N5-00995-01265999999ADDGA1045+030485999GA2075+039625999GD12991+0304859GD23991+0396259GE19AGL   +99999+99999GF199999999999030481999999MA1102375084785REMMET09501/14/25 06:55:02 METAR KEIK 141355Z 00000KT 10SM SCT100 BKN130 M10/M13 A3023 RMK AO2 T10991126
0270720534001612025011414157+40017-105050FM-15+1564KEIK V0209999C00005025915MN0160935N5-01005-01335999999ADDGA1075+025915999GA2075+030485999GA3075+039625999GD13991+0259159GD23991+0304859GD33991+0396259GE19AGL   +99999+99999GF199999999999025911999999MA1102405084815REMMET10201/14/25 07:15:02 METAR KEIK 141415Z 00000KT 10SM BKN085 BKN100 BKN130 M10/M13 A3024 RMK AO2 T11001133
0213720534001612025011414357+40017-105050FM-15+1564KEIK V0209999C000052200059N0160935N5-01175-01385999999ADDGA1025+024385999GD11991+0243859GE19AGL   +99999+99999GF102995999999024381999999MA1102405084815REMMET08801/14/25 07:35:02 METAR KEIK 141435Z 00000KT 10SM FEW080 M12/M14 A3024 RMK AO2 T11171138EQDD01      0ADE726
0251720534001612025011414557+40017-105050FM-15+1564KEIK V0209999C000052200059N0160935N5-01075-01315999999ADDGA1025+018295999GA2045+022865999GD11991+0182959GD22991+0228659GE19AGL   +99999+99999GF104995999999018291999999MA1102405084815REMMET09501/14/25 07:55:02 METAR KEIK 141455Z 00000KT 10SM FEW060 SCT075 M11/M13 A3024 RMK AO2 T11071131EQDD01      0ADE726
0231720534001612025011415157+40017-105050FM-15+1564KEIK V0209999C00005019815MN0144845N5-00805-01125999999ADDGA1075+019815999GA2075+024385999GD13991+0198159GD23991+0243859GE19AGL   +99999+99999GF199999999999019811999999MA1102405084815REMMET09401/14/25 08:15:02 METAR KEIK 141515Z 00000KT 9SM BKN065 BKN080 M08/M11 A3024 RMK AO2 T10801112
0213720534001612025011415357+40017-105050FM-15+1564KEIK V0209999C000052200059N0160935N5-00555-01045999999ADDGA1045+021345999GD12991+0213459GE19AGL   +99999+99999GF104995999999021341999999MA1102405084815REMMET08801/14/25 08:35:02 METAR KEIK 141535Z 00000KT 10SM SCT070 M05/M10 A3024 RMK AO2 T10551104EQDD01      0ADE726
0251720534001612025011415557+40017-105050FM-15+1564KEIK V0209999C000052200059N0160935N5-00325-00925999999ADDGA1025+021345999GA2045+025915999GD11991+0213459GD22991+0259159GE19AGL   +99999+99999GF104995999999021341999999MA1102405084815REMMET09501/14/25 08:55:02 METAR KEIK 141555Z 00000KT 10SM FEW070 SCT085 M03/M09 A3024 RMK AO2 T10321092EQDD01      0ADE726
0231720534001612025011416157+40017-105050FM-15+1564KEIK V0202105N00215027435MN0160935N5+00035-01095999999ADDGA1045+022865999GA2075+027435999GD12991+0228659GD23991+0274359GE19AGL   +99999+99999GF199999999999022861999999MA1102445084845REMMET09401/14/25 09:15:02 METAR KEIK 141615Z 21004KT 10SM SCT075 BKN090 00/M11 A3025 RMK AO2 T00031109
0193720534001612025011416357+40017-105050FM-15+1564KEIK V0202005N00215025915MN0160935N5+00195-01305999999ADDGA1085+025915999GD14991+0259159GE19AGL   +99999+99999GF199999999999025911999999MA1102445084845REMMET08701/14/25 09:35:02 METAR KEIK 141635Z 20004KT 10SM OVC085 02/M13 A3025 RMK AO2 T00191130
0193720534001612025011416557+40017-105050FM-15+1564KEIK V0202305N00265025915MN0160935N5+00215-01435999999ADDGA1085+025915999GD14991+0259159GE19AGL   +99999+99999GF199999999999025911999999MA1102445084845REMMET08701/14/25 09:55:02 METAR KEIK 141655Z 23005KT 10SM OVC085 02/M14 A3025 RMK AO2 T00211143
0193720534001612025011417157+40017-105050FM-15+1564KEIK V0202405N00315024385MN0160935N5+00315-01535999999ADDGA1075+024385999GD13991+0243859GE19AGL   +99999+99999GF199999999999024381999999MA1102445084845REMMET08701/14/25 10:15:02 METAR KEIK 141715Z 24006KT 10SM BKN080 03/M15 A3025 RMK AO2 T00311153
0212720534001612025011417357+40017-105050FM-15+1564KEIK V0202405N004152200059N0160935N5+00375-01685999999ADDGA1045+021345999GD12991+0213459GE19AGL   +99999+99999GF104995999999021341999999MA1102445084845REMMET08701/14/25 10:35:02 METAR KEIK 141735Z 24008KT 10SM SCT070 04/M17 A3025 RMK AO2 T00371168EQDD01      0ADE726
0168720534001612025011417557+40017-105050FM-15+1564KEIK V0202105N002652200059N0160935N5+00425-01735999999ADDGA1005+999999999GD10991+9999999GF100991999999999999999999MA1102405084815REMMET08401/14/25 10:55:02 METAR KEIK 141755Z 21005KT 10SM CLR 04/M17 A3024 RMK AO2 T00421173
0168720534001612025011418157+40017-105050FM-15+1564KEIK V0209999V001552200059N0160935N5+00415-01765999999ADDGA1005+999999999GD10991+9999999GF100991999999999999999999MA1102405084815REMMET08401/14/25 11:15:02 METAR KEIK 141815Z VRB03KT 10SM CLR 04/M18 A3024 RMK AO2 T00411176
0168720534001612025011418357+40017-105050FM-15+1564KEIK V0209999C000052200059N0160935N5+00435-01735999999ADDGA1005+999999999GD10991+9999999GF100991999999999999999999MA1102375084785REMMET08401/14/25 11:35:02 METAR KEIK 141835Z 00000KT 10SM CLR 04/M17 A3023 RMK AO2 T00431173
0168720534001612025011418557+40017-105050FM-15+1564KEIK V0209999V002652200059N0160935N5+00425-01695999999ADDGA1005+999999999GD10991+9999999GF100991999999999999999999MA1102375084785REMMET08401/14/25 11:55:02 METAR KEIK 141855Z VRB05KT 10SM CLR 04/M17 A3023 RMK AO2 T00421169
0193720534001612025011419157+40017-105050FM-15+1564KEIK V0209999V00155030485MN0160935N5+00455-01665999999ADDGA1075+030485999GD13991+0304859GE19AGL   +99999+99999GF199999999999030481999999MA1102345084755REMMET08701/14/25 12:15:02 METAR KEIK 141915Z VRB03KT 10SM BKN100 04/M17 A3022 RMK AO2 T00451166
0193720534001612025011419357+40017-105050FM-15+1564KEIK V0200405N00465030485MN0160935N5+00405-01635999999ADDGA1075+030485999GD13991+0304859GE19AGL   +99999+99999GF199999999999030481999999MA1102345084755REMMET08701/14/25 12:35:02 METAR KEIK 141935Z 04009KT 10SM BKN100 04/M16 A3022 RMK AO2 T00401163
0212720534001612025011419557+40017-105050FM-15+1564KEIK V0200305N004152200059N0160935N5+00405-01595999999ADDGA1045+030485999GD12991+0304859GE19AGL   +99999+99999GF104995999999030481999999MA1102305084725REMMET08701/14/25 12:55:02 METAR KEIK 141955Z 03008KT 10SM SCT100 04/M16 A3021 RMK AO2 T00401159EQDD01      0ADE726
0168720534001612025011420157+40017-105050FM-15+1564KEIK V0209999V002652200059N0160935N5+00385-01605999999ADDGA1005+999999999GD10991+9999999GF100991999999999999999999MA1102275084695REMMET08401/14/25 13:15:02 METAR KEIK 142015Z VRB05KT 10SM CLR 04/M16 A3020 RMK AO2 T00381160
0168720534001612025011420357+40017-105050FM-15+1564KEIK V0200305N002652200059N0160935N5+00435-01575999999ADDGA1005+999999999GD10991+9999999GF100991999999999999999999MA1102275084695REMMET08401/14/25 13:35:02 METAR KEIK 142035Z 03005KT 10SM CLR 04/M16 A3020 RMK AO2 T00431157
0212720534001612025011420557+40017-105050FM-15+1564KEIK V0209999V002652200059N0160935N5+00435-01525999999ADDGA1025+030485999GD11991+0304859GE19AGL   +99999+99999GF102995999999030481999999MA1102275084695REMMET08701/14/25 13:55:02 METAR KEIK 142055Z VRB05KT 10SM FEW100 04/M15 A3020 RMK AO2 T00431152EQDD01      0ADE726
0250720534001612025011421157+40017-105050FM-15+1564KEIK V0209999C000052200059N0160935N5+00415-01545999999ADDGA1025+024385999GA2045+028965999GD11991+0243859GD22991+0289659GE19AGL   +99999+99999GF104995999999024381999999MA1102305084725REMMET09401/14/25 14:15:02 METAR KEIK 142115Z 00000KT 10SM FEW080 SCT095 04/M15 A3021 RMK AO2 T00411154EQDD01      0ADE726
0212720534001612025011421357+40017-105050FM-15+1564KEIK V0209999C000052200059N0160935N5+00475-01545999999ADDGA1025+028965999GD11991+0289659GE19AGL   +99999+99999GF102995999999028961999999MA1102305084725REMMET08701/14/25 14:35:02 METAR KEIK 142135Z 00000KT 10SM FEW095 05/M15 A3021 RMK AO2 T00471154EQDD01      0ADE726
0212720534001612025011421557+40017-105050FM-15+1564KEIK V0200505N001552200059N0160935N5+00475-01525999999ADDGA1025+027435999GD11991+0274359GE19AGL   +99999+99999GF102995999999027431999999MA1102305084725REMMET08701/14/25 14:55:02 METAR KEIK 142155Z 05003KT 10SM FEW090 05/M15 A3021 RMK AO2 T00471152EQDD01      0ADE726
0193720534001612025011422157+40017-105050FM-15+1564KEIK V0209999V00215027435MN0160935N5+00475-01525999999ADDGA1075+027435999GD13991+0274359GE19AGL   +99999+99999GF199999999999027431999999MA1102305084725REMMET08701/14/25 15:15:02 METAR KEIK 142215Z VRB04KT 10SM BKN090 05/M15 A3021 RMK AO2 T00471152
0212720534001612025011422357+40017-105050FM-15+1564KEIK V0200205N001552200059N0160935N5+00385-01475999999ADDGA1045+028965999GD12991+0289659GE19AGL   +99999+99999GF104995999999028961999999MA1102305084725REMMET08701/14/25 15:35:02 METAR KEIK 142235Z 02003KT 10SM SCT095 04/M15 A3021 RMK AO2 T00381147EQDD01      0ADE726
0193720534001612025011422557+40017-105050FM-15+1564KEIK V0200805N00155027435MN0160935N5+00435-01515999999ADDGA1075+027435999GD13991+0274359GE19AGL   +99999+99999GF199999999999027431999999MA1102305084725REMMET08701/14/25 15:55:02 METAR KEIK 142255Z 08003KT 10SM BKN090 04/M15 A3021 RMK AO2 T00431151
0193720534001612025011423157+40017-105050FM-15+1564KEIK V0200605N00215027435MN0160935N5+00435-01515999999ADDGA1085+027435999GD14991+0274359GE19AGL   +99999+99999GF199999999999027431999999MA1102345084755REMMET08701/14/25 16:15:02 METAR KEIK 142315Z 06004KT 10SM OVC090 04/M15 A3022 RMK AO2 T00431151
0212720534001612025011423357+40017-105050FM-15+1564KEIK V0200805N004152200059N0160935N5+00305-01415999999ADDGA1045+027435999GD12991+0274359GE19AGL   +99999+99999GF104995999999027431999999MA1102345084755REMMET08701/14/25 16:35:02 METAR KEIK 142335Z 08008KT 10SM SCT090 03/M14 A3022 RMK AO2 T00301141EQDD01      0ADE726
0231720534001612025011423557+40017-105050FM-15+1564KEIK V0200705N00315027435MN0160935N5+00215-01405999999ADDGA1025+024385999GA2075+027435999GD11991+0243859GD23991+0274359GE19AGL   +99999+99999GF199999999999024381999999MA1102375084785REMMET09401/14/25 16:55:02 METAR KEIK 142355Z 07006KT 10SM FEW080 BKN090 02/M14 A3023 RMK AO2 T00211140
0193720534001612025011500157+40017-105050FM-15+1564KEIK V0201105N00265027435MN0160935N5+00075-01335999999ADDGA1075+027435999GD13991+0274359GE19AGL   +99999+99999GF199999999999027431999999MA1102405084815REMMET08701/14/25 17:15:01 METAR KEIK 150015Z 11005KT 10SM BKN090 01/M13 A3024 RMK AO2 T00071133
0193720534001612025011500357+40017-105050FM-15+1564KEIK V0200905N00155027435MN0160935N5+00075-01315999999ADDGA1085+027435999GD14991+0274359GE19AGL   +99999+99999GF199999999999027431999999MA1102445084845REMMET08701/14/25 17:35:01 METAR KEIK 150035Z 09003KT 10SM OVC090 01/M13 A3025 RMK AO2 T00071131
0193720534001612025011500557+40017-105050FM-15+1564KEIK V0201305N00265027435MN0160935N5+00045-01255999999ADDGA1085+027435999GD14991+0274359GE19AGL   +99999+99999GF199999999999027431999999MA1102475084875REMMET08701/14/25 17:55:01 METAR KEIK 150055Z 13005KT 10SM OVC090 00/M13 A3026 RMK AO2 T00041125
0193720534001612025011501157+40017-105050FM-15+1564KEIK V0201505N00215027435MN0160935N5+00095-01255999999ADDGA1085+027435999GD14991+0274359GE19AGL   +99999+99999GF199999999999027431999999MA1102515084905REMMET08701/14/25 18:15:01 METAR KEIK 150115Z 15004KT 10SM OVC090 01/M12 A3027 RMK AO2 T00091125
0231720534001612025011501357+40017-105050FM-15+1564KEIK V0201405N00265027435MN0160935N5+00075-01225999999ADDGA1045+022865999GA2085+027435999GD12991+0228659GD24991+0274359GE19AGL   +99999+99999GF199999999999022861999999MA1102515084905REMMET09401/14/25 18:35:01 METAR KEIK 150135Z 14005KT 10SM SCT075 OVC090 01/M12 A3027 RMK AO2 T00071122
0232720534001612025011501557+40017-105050FM-15+1564KEIK V0202505N00365027435MN0160935N5-00035-01245999999ADDGA1025+022865999GA2085+027435999GD11991+0228659GD24991+0274359GE19AGL   +99999+99999GF199999999999022861999999MA1102545084935REMMET09501/14/25 18:55:01 METAR KEIK 150155Z 25007KT 10SM FEW075 OVC090 M00/M12 A3028 RMK AO2 T10031124
0194720534001612025011502157+40017-105050FM-15+1564KEIK V0209999C00005027435MN0160935N5-00025-01355999999ADDGA1085+027435999GD14991+0274359GE19AGL   +99999+99999GF199999999999027431999999MA1102545084935REMMET08801/14/25 19:15:01 METAR KEIK 150215Z 00000KT 10SM OVC090 M00/M13 A3028 RMK AO2 T10021135
0213720534001612025011502357+40017-105050FM-15+1564KEIK V0202105N002652200059N0160935N5-00305-01385999999ADDGA1045+027435999GD12991+0274359GE19AGL   +99999+99999GF104995999999027431999999MA1102575084965REMMET08801/14/25 19:35:01 METAR KEIK 150235Z 21005KT 10SM SCT090 M03/M14 A3029 RMK AO2 T10301138EQDD01      0ADE726
0194720534001612025011502557+40017-105050FM-15+1564KEIK V0201705N00155028965MN0160935N5-00265-01365999999ADDGA1075+028965999GD13991+0289659GE19AGL   +99999+99999GF199999999999028961999999MA1102575084965REMMET08801/14/25 19:55:01 METAR KEIK 150255Z 17003KT 10SM BKN095 M03/M14 A3029 RMK AO2 T10261136
0213720534001612025011503157+40017-105050FM-15+1564KEIK V0202005N002652200059N0160935N5-00225-01415999999ADDGA1045+028965999GD12991+0289659GE19AGL   +99999+99999GF104995999999028961999999MA1102575084965REMMET08801/14/25 20:15:01 METAR KEIK 150315Z 20005KT 10SM SCT095 M02/M14 A3029 RMK AO2 T10221141EQDD01      0ADE726
0169720534001612025011503357+40017-105050FM-15+1564KEIK V0202005N002152200059N0160935N5-00415-01495999999ADDGA1005+999999999GD10991+9999999GF100991999999999999999999MA1102575084965REMMET08501/14/25 20:35:01 METAR KEIK 150335Z 20004KT 10SM CLR M04/M15 A3029 RMK AO2 T10411149
0213720534001612025011503557+40017-105050FM-15+1564KEIK V0201805N001552200059N0160935N5-00575-01495999999ADDGA1045+027435999GD12991+0274359GE19AGL   +99999+99999GF104995999999027431999999MA1102575084965REMMET08801/14/25 20:55:01 METAR KEIK 150355Z 18003KT 10SM SCT090 M06/M15 A3029 RMK AO2 T10571149EQDD01      0ADE726
0194720534001612025011504157+40017-105050FM-15+1564KEIK V0201805N00215027435MN0160935N5-00375-01455999999ADDGA1075+027435999GD13991+0274359GE19AGL   +99999+99999GF199999999999027431999999MA1102575084965REMMET08801/14/25 21:15:01 METAR KEIK 150415Z 18004KT 10SM BKN090 M04/M15 A3029 RMK AO2 T10371145
0194720534001612025011504357+40017-105050FM-15+1564KEIK V0209999C00005027435MN0160935N5-00545-01415999999ADDGA1075+027435999GD13991+0274359GE19AGL   +99999+99999GF199999999999027431999999MA1102575084965REMMET08801/14/25 21:35:01 METAR KEIK 150435Z 00000KT 10SM BKN090 M05/M14 A3029 RMK AO2 T10541141
0194720534001612025011504557+40017-105050FM-15+1564KEIK V0209999C00005027435MN0160935N5-00425-01395999999ADDGA1085+027435999GD14991+0274359GE19AGL   +99999+99999GF199999999999027431999999MA1102575084965REMMET08801/14/25 21:55:01 METAR KEIK 150455Z 00000KT 10SM OVC090 M04/M14 A3029 RMK AO2 T10421139
0194720534001612025011505157+40017-105050FM-15+1564KEIK V0209999C00005027435MN0160935N5-00485-01435999999ADDGA1085+027435999GD14991+0274359GE19AGL   +99999+99999GF199999999999027431999999MA1102575084965REMMET08801/14/25 22:15:01 METAR KEIK 150515Z 00000KT 10SM OVC090 M05/M14 A3029 RMK AO2 T10481143
0213720534001612025011505357+40017-105050FM-15+1564KEIK V0201705N001552200059N0160935N5-00675-01425999999ADDGA1025+027435999GD11991+0274359GE19AGL   +99999+99999GF102995999999027431999999MA1102575084965REMMET08801/14/25 22:35:01 METAR KEIK 150535Z 17003KT 10SM FEW090 M07/M14 A3029 RMK AO2 T10671142EQDD01      0ADE726
0169720534001612025011505557+40017-105050FM-15+1564KEIK V0201805N001552200059N0160935N5-00595-01465999999ADDGA1005+999999999GD10991+9999999GF100991999999999999999999MA1102575084965REMMET08501/14/25 22:55:01 METAR KEIK 150555Z 18003KT 10SM CLR M06/M15 A3029 RMK AO2 T10591146
0169720534001612025011506157+40017-105050FM-15+1564KEIK V0209999C000052200059N0160935N5-00895-01425999999ADDGA1005+999999999GD10991+9999999GF100991999999999999999999MA1102545084935REMMET08501/14/25 23:15:01 METAR KEIK 150615Z 00000KT 10SM CLR M09/M14 A3028 RMK AO2 T10891142
0169720534001612025011506357+40017-105050FM-15+1564KEIK V0209999C000052200059N0160935N5-00795-01495999999ADDGA1005+999999999GD10991+9999999GF100991999999999999999999MA1102545084935REMMET08501/14/25 23:35:01 METAR KEIK 150635Z 00000KT 10SM CLR M08/M15 A3028 RMK AO2 T10791149
0169720534001612025011506557+40017-105050FM-15+1564KEIK V0209999C000052200059N0160935N5-00935-01415999999ADDGA1005+999999999GD10991+9999999GF100991999999999999999999MA1102545084935REMMET08501/14/25 23:55:01 METAR KEIK 150655Z 00000KT 10SM CLR M09/M14 A3028 RMK AO2 T10931141
0169720534001612025011507157+40017-105050FM-15+1564KEIK V0209999C000052200059N0160935N5-00995-01425999999ADDGA1005+999999999GD10991+9999999GF100991999999999999999999MA1102515084905REMMET08501/15/25 00:15:01 METAR KEIK 150715Z 00000KT 10SM CLR M10/M14 A3027 RMK AO2 T10991142
0169720534001612025011507357+40017-105050FM-15+1564KEIK V0209999C000052200059N0160935N5-00965-01425999999ADDGA1005+999999999GD10991+9999999GF100991999999999999999999MA1102515084905REMMET08501/15/25 00:35:01 METAR KEIK 150735Z 00000KT 10SM CLR M10/M14 A3027 RMK AO2 T10961142
0169720534001612025011507557+40017-105050FM-15+1564KEIK V0209999C000052200059N0160935N5-01035-01435999999ADDGA1005+999999999GD10991+9999999GF100991999999999999999999MA1102475084875REMMET08501/15/25 00:55:01 METAR KEIK 150755Z 00000KT 10SM CLR M10/M14 A3026 RMK AO2 T11031143
0169720534001612025011508157+40017-105050FM-15+1564KEIK V0209999C000052200059N0160935N5-01015-01425999999ADDGA1005+999999999GD10991+9999999GF100991999999999999999999MA1102475084875REMMET08501/15/25 01:15:01 METAR KEIK 150815Z 00000KT 10SM CLR M10/M14 A3026 RMK AO2 T11011142
0169720534001612025011508357+40017-105050FM-15+1564KEIK V0209999C000052200059N0160935N5-01005-01395999999ADDGA1005+999999999GD10991+9999999GF100991999999999999999999MA1102475084875REMMET08501/15/25 01:35:01 METAR KEIK 150835Z 00000KT 10SM CLR M10/M14 A3026 RMK AO2 T11001139
0169720534001612025011508557+40017-105050FM-15+1564KEIK V0202105N001552200059N0160935N5-01075-01435999999ADDGA1005+999999999GD10991+9999999GF100991999999999999999999MA1102475084875REMMET08501/15/25 01:55:01 METAR KEIK 150855Z 21003KT 10SM CLR M11/M14 A3026 RMK AO2 T11071143
0169720534001612025011509157+40017-105050FM-15+1564KEIK V0203205N001552200059N0160935N5-01025-01415999999ADDGA1005+999999999GD10991+9999999GF100991999999999999999999MA1102515084905REMMET08501/15/25 02:15:02 METAR KEIK 150915Z 32003KT 10SM CLR M10/M14 A3027 RMK AO2 T11021141
0169720534001612025011509357+40017-105050FM-15+1564KEIK V0209999C000052200059N0160935N5-01035-01395999999ADDGA1005+999999999GD10991+9999999GF100991999999999999999999MA1102515084905REMMET08501/15/25 02:35:02 METAR KEIK 150935Z 00000KT 10SM CLR M10/M14 A3027 RMK AO2 T11031139
0169720534001612025011509557+40017-105050FM-15+1564KEIK V0209999C000052200059N0160935N5-01115-01475999999ADDGA1005+999999999GD10991+9999999GF100991999999999999999999MA1102515084905REMMET08501/15/25 02:55:02 METAR KEIK 150955Z 00000KT 10SM CLR M11/M15 A3027 RMK AO2 T11111147
0169720534001612025011510157+40017-105050FM-15+1564KEIK V0209999C000052200059N0160935N5-01195-01475999999ADDGA1005+999999999GD10991+9999999GF100991999999999999999999MA1102515084905REMMET08501/15/25 03:15:02 METAR KEIK 151015Z 00000KT 10SM CLR M12/M15 A3027 RMK AO2 T11191147
0168720534001612025011510357+40017-105050FM-15+1564KEIK V0209999C000052200059N0144845N5-01185-01475999999ADDGA1005+999999999GD10991+9999999GF100991999999999999999999MA1102515084905REMMET08401/15/25 03:35:02 METAR KEIK 151035Z 00000KT 9SM CLR M12/M15 A3027 RMK AO2 T11181147
0169720534001612025011510557+40017-105050FM-15+1564KEIK V0209999C000052200059N0160935N5-01255-01555999999ADDGA1005+999999999GD10991+9999999GF100991999999999999999999MA1102545084935REMMET08501/15/25 03:55:02 METAR KEIK 151055Z 00000KT 10SM CLR M13/M15 A3028 RMK AO2 T11251155
0169720534001612025011511157+40017-105050FM-15+1564KEIK V0209999C000052200059N0160935N5-01275-01555999999ADDGA1005+999999999GD10991+9999999GF100991999999999999999999MA1102575084965REMMET08501/15/25 04:15:02 METAR KEIK 151115Z 00000KT 10SM CLR M13/M15 A3029 RMK AO2 T11271155
0169720534001612025011511357+40017-105050FM-15+1564KEIK V0209999C000052200059N0160935N5-01235-01495999999ADDGA1005+999999999GD10991+9999999GF100991999999999999999999MA1102615084985REMMET08501/15/25 04:35:02 METAR KEIK 151135Z 00000KT 10SM CLR M12/M15 A3030 RMK AO2 T11231149
0169720534001612025011511557+40017-105050FM-15+1564KEIK V0201905N001552200059N0160935N5-01255-01505999999ADDGA1005+999999999GD10991+9999999GF100991999999999999999999MA1102615084985REMMET08501/15/25 04:55:02 METAR KEIK 151155Z 19003KT 10SM CLR M13/M15 A3030 RMK AO2 T11251150
0169720534001612025011512157+40017-105050FM-15+1564KEIK V0209999C000052200059N0160935N5-01295-01525999999ADDGA1005+999999999GD10991+9999999GF100991999999999999999999MA1102615084985REMMET08501/15/25 05:15:02 METAR KEIK 151215Z 00000KT 10SM CLR M13/M15 A3030 RMK AO2 T11291152
0169720534001612025011512357+40017-105050FM-15+1564KEIK V0209999C000052200059N0160935N5-01245-01485999999ADDGA1005+999999999GD10991+9999999GF100991999999999999999999MA1102615084985REMMET08501/15/25 05:35:02 METAR KEIK 151235Z 00000KT 10SM CLR M12/M15 A3030 RMK AO2 T11241148
0169720534001612025011512557+40017-105050FM-15+1564KEIK V0209999C000052200059N0160935N5-01165-01485999999ADDGA1005+999999999GD10991+9999999GF100991999999999999999999MA1102615084985REMMET08501/15/25 05:55:02 METAR KEIK 151255Z 00000KT 10SM CLR M12/M15 A3030 RMK AO2 T11161148
0169720534001612025011513157+40017-105050FM-15+1564KEIK V0209999C000052200059N0160935N5-01245-01535999999ADDGA1005+999999999GD10991+9999999GF100991999999999999999999MA1102615084985REMMET08501/15/25 06:15:02 METAR KEIK 151315Z 00000KT 10SM CLR M12/M15 A3030 RMK AO2 T11241153
0168720534001612025011513357+40017-105050FM-15+1564KEIK V0209999C000052200059N0144845N5-01145-01485999999ADDGA1005+999999999GD10991+9999999GF100991999999999999999999MA1102575084965REMMET08401/15/25 06:35:02 METAR KEIK 151335Z 00000KT 9SM CLR M11/M15 A3029 RMK AO2 T11141148
0168720534001612025011513557+40017-105050FM-15+1564KEIK V0209999C000052200059N0144845N5-01255-01555999999ADDGA1005+999999999GD10991+9999999GF100991999999999999999999MA1102575084965REMMET08401/15/25 06:55:02 METAR KEIK 151355Z 00000KT 9SM CLR M13/M15 A3029 RMK AO2 T11251155
0168720534001612025011514157+40017-105050FM-15+1564KEIK V0209999C000052200059N0128755N5-01185-01495999999ADDGA1005+999999999GD10991+9999999GF100991999999999999999999MA1102575084965REMMET08401/15/25 07:15:02 METAR KEIK 151415Z 00000KT 8SM CLR M12/M15 A3029 RMK AO2 T11181149
0168720534001612025011514357+40017-105050FM-15+1564KEIK V0209999C000052200059N0128755N5-01185-01505999999ADDGA1005+999999999GD10991+9999999GF100991999999999999999999MA1102575084965REMMET08401/15/25 07:35:02 METAR KEIK 151435Z 00000KT 8SM CLR M12/M15 A3029 RMK AO2 T11181150
0168720534001612025011514557+40017-105050FM-15+1564KEIK V0209999C000052200059N0128755N5-01095-01435999999ADDGA1005+999999999GD10991+9999999GF100991999999999999999999MA1102615084985REMMET08401/15/25 07:55:02 METAR KEIK 151455Z 00000KT 8SM CLR M11/M14 A3030 RMK AO2 T11091143
0168720534001612025011515157+40017-105050FM-15+1564KEIK V0209999C000052200059N0144845N5-00705-01165999999ADDGA1005+999999999GD10991+9999999GF100991999999999999999999MA1102615084985REMMET08401/15/25 08:15:02 METAR KEIK 151515Z 00000KT 9SM CLR M07/M12 A3030 RMK AO2 T10701116
0169720534001612025011515357+40017-105050FM-15+1564KEIK V0209999C000052200059N0160935N5-00395-01135999999ADDGA1005+999999999GD10991+9999999GF100991999999999999999999MA1102645085015REMMET08501/15/25 08:35:02 METAR KEIK 151535Z 00000KT 10SM CLR M04/M11 A3031 RMK AO2 T10391113
0169720534001612025011515557+40017-105050FM-15+1564KEIK V0202205N002152200059N0160935N5-00185-01085999999ADDGA1005+999999999GD10991+9999999GF100991999999999999999999MA1102645085015REMMET08501/15/25 08:55:02 METAR KEIK 151555Z 22004KT 10SM CLR M02/M11 A3031 RMK AO2 T10181108
0168720534001612025011516157+40017-105050FM-15+1564KEIK V0202205N002152200059N0160935N5+00005-01135999999ADDGA1005+999999999GD10991+9999999GF100991999999999999999999MA1102645085015REMMET08401/15/25 09:15:02 METAR KEIK 151615Z 22004KT 10SM CLR 00/M11 A3031 RMK AO2 T00001113
0168720534001612025011516357+40017-105050FM-15+1564KEIK V0203105N001552200059N0160935N5+00075-01075999999ADDGA1005+999999999GD10991+9999999GF100991999999999999999999MA1102685085045REMMET08401/15/25 09:35:02 METAR KEIK 151635Z 31003KT 10SM CLR 01/M11 A3032 RMK AO2 T00071107
0168720534001612025011516557+40017-105050FM-15+1564KEIK V0209999C000052200059N0160935N5+00095-01075999999ADDGA1005+999999999GD10991+9999999GF100991999999999999999999MA1102685085045REMMET08401/15/25 09:55:02 METAR KEIK 151655Z 00000KT 10SM CLR 01/M11 A3032 RMK AO2 T00091107
0168720534001612025011517157+40017-105050FM-15+1564KEIK V0209999C000052200059N0160935N5+00215-01165999999ADDGA1005+999999999GD10991+9999999GF100991999999999999999999MA1102685085045REMMET08401/15/25 10:15:02 METAR KEIK 151715Z 00000KT 10SM CLR 02/M12 A3032 RMK AO2 T00211116
0168720534001612025011517357+40017-105050FM-15+1564KEIK V0209999C000052200059N0160935N5+00405-01155999999ADDGA1005+999999999GD10991+9999999GF100991999999999999999999MA1102645085015REMMET08401/15/25 10:35:02 METAR KEIK 151735Z 00000KT 10SM CLR 04/M11 A3031 RMK AO2 T00401115
0168720534001612025011517557+40017-105050FM-15+1564KEIK V0202105N001552200059N0160935N5+00585-01335999999ADDGA1005+999999999GD10991+9999999GF100991999999999999999999MA1102615084985REMMET08401/15/25 10:55:02 METAR KEIK 151755Z 21003KT 10SM CLR 06/M13 A3030 RMK AO2 T00581133
0168720534001612025011518157+40017-105050FM-15+1564KEIK V0201405N003152200059N0160935N5+00635-01405999999ADDGA1005+999999999GD10991+9999999GF100991999999999999999999MA1102575084965REMMET08401/15/25 11:15:02 METAR KEIK 151815Z 14006KT 10SM CLR 06/M14 A3029 RMK AO2 T00631140
0168720534001612025011518357+40017-105050FM-15+1564KEIK V0201705N002152200059N0160935N5+00765-01435999999ADDGA1005+999999999GD10991+9999999GF100991999999999999999999MA1102575084965REMMET08401/15/25 11:35:02 METAR KEIK 151835Z 17004KT 10SM CLR 08/M14 A3029 RMK AO2 T00761143
0168720534001612025011518557+40017-105050FM-15+1564KEIK V0201905N002152200059N0160935N5+00805-01585999999ADDGA1005+999999999GD10991+9999999GF100991999999999999999999MA1102545084935REMMET08401/15/25 11:55:02 METAR KEIK 151855Z 19004KT 10SM CLR 08/M16 A3028 RMK AO2 T00801158
0168720534001612025011519157+40017-105050FM-15+1564KEIK V0201705N002652200059N0160935N5+00855-01595999999ADDGA1005+999999999GD10991+9999999GF100991999999999999999999MA1102515084905REMMET08401/15/25 12:15:02 METAR KEIK 151915Z 17005KT 10SM CLR 08/M16 A3027 RMK AO2 T00851159
0168720534001612025011519357+40017-105050FM-15+1564KEIK V0201505N002652200059N0160935N5+00885-01585999999ADDGA1005+999999999GD10991+9999999GF100991999999999999999999MA1102515084905REMMET08401/15/25 12:35:02 METAR KEIK 151935Z 15005KT 10SM CLR 09/M16 A3027 RMK AO2 T00881158
0168720534001612025011519557+40017-105050FM-15+1564KEIK V0201905N003152200059N0160935N5+00955-01565999999ADDGA1005+999999999GD10991+9999999GF100991999999999999999999MA1102475084875REMMET08401/15/25 12:55:02 METAR KEIK 151955Z 19006KT 10SM CLR 10/M16 A3026 RMK AO2 T00951156
0168720534001612025011520157+40017-105050FM-15+1564KEIK V0201505N003152200059N0160935N5+00985-01575999999ADDGA1005+999999999GD10991+9999999GF100991999999999999999999MA1102475084875REMMET08401/15/25 13:15:02 METAR KEIK 152015Z 15006KT 10SM CLR 10/M16 A3026 RMK AO2 T00981157
0168720534001612025011520357+40017-105050FM-15+1564KEIK V0201705N002652200059N0160935N5+01005-01605999999ADDGA1005+999999999GD10991+9999999GF100991999999999999999999MA1102445084845REMMET08401/15/25 13:35:02 METAR KEIK 152035Z 17005KT 10SM CLR 10/M16 A3025 RMK AO2 T01001160
0168720534001612025011520557+40017-105050FM-15+1564KEIK V0201605V003652200059N0160935N5+01045-01605999999ADDGA1005+999999999GD10991+9999999GF100991999999999999999999MA1102445084845REMMET08401/15/25 13:55:02 METAR KEIK 152055Z 16007KT 10SM CLR 10/M16 A3025 RMK AO2 T01041160
0168720534001612025011521157+40017-105050FM-15+1564KEIK V0201405N003152200059N0160935N5+01035-01615999999ADDGA1005+999999999GD10991+9999999GF100991999999999999999999MA1102445084845REMMET08401/15/25 14:15:02 METAR KEIK 152115Z 14006KT 10SM CLR 10/M16 A3025 RMK AO2 T01031161
0168720534001612025011521357+40017-105050FM-15+1564KEIK V0201305N002652200059N0160935N5+01065-01585999999ADDGA1005+999999999GD10991+9999999GF100991999999999999999999MA1102475084875REMMET08401/15/25 14:35:02 METAR KEIK 152135Z 13005KT 10SM CLR 11/M16 A3026 RMK AO2 T01061158
0168720534001612025011521557+40017-105050FM-15+1564KEIK V0201405N002652200059N0160935N5+01075-01585999999ADDGA1005+999999999GD10991+9999999GF100991999999999999999999MA1102515084905REMMET08401/15/25 14:55:02 METAR KEIK 152155Z 14005KT 10SM CLR 11/M16 A3027 RMK AO2 T01071158
0168720534001612025011522157+40017-105050FM-15+1564KEIK V0201705N003152200059N0160935N5+01055-01535999999ADDGA1005+999999999GD10991+9999999GF100991999999999999999999MA1102515084905REMMET08401/15/25 15:15:02 METAR KEIK 152215Z 17006KT 10SM CLR 10/M15 A3027 RMK AO2 T01051153
0168720534001612025011522357+40017-105050FM-15+1564KEIK V0201105N002652200059N0160935N5+01015-01535999999ADDGA1005+999999999GD10991+9999999GF100991999999999999999999MA1102545084935REMMET08401/15/25 15:35:02 METAR KEIK 152235Z 11005KT 10SM CLR 10/M15 A3028 RMK AO2 T01011153
0168720534001612025011522557+40017-105050FM-15+1564KEIK V0201505N002152200059N0160935N5+01025-01495999999ADDGA1005+999999999GD10991+9999999GF100991999999999999999999MA1102545084935REMMET08401/15/25 15:55:02 METAR KEIK 152255Z 15004KT 10SM CLR 10/M15 A3028 RMK AO2 T01021149
0168720534001612025011523157+40017-105050FM-15+1564KEIK V0201505N001552200059N0160935N5+00995-01485999999ADDGA1005+999999999GD10991+9999999GF100991999999999999999999MA1102575084965REMMET08401/15/25 16:15:02 METAR KEIK 152315Z 15003KT 10SM CLR 10/M15 A3029 RMK AO2 T00991148
0168720534001612025011523357+40017-105050FM-15+1564KEIK V0201005N002152200059N0160935N5+00845-01465999999ADDGA1005+999999999GD10991+9999999GF100991999999999999999999MA1102615084985REMMET08401/15/25 16:35:02 METAR KEIK 152335Z 10004KT 10SM CLR 08/M15 A3030 RMK AO2 T00841146
0168720534001612025011523557+40017-105050FM-15+1564KEIK V0201005N004152200059N0160935N5+00405-01285999999ADDGA1005+999999999GD10991+9999999GF100991999999999999999999MA1102645085015REMMET08401/15/25 16:55:02 METAR KEIK 152355Z 10008KT 10SM CLR 04/M13 A3031 RMK AO2 T00401128
0168720534001612025011600157+40017-105050FM-15+1564KEIK V0201205N002652200059N0160935N5+00225-01275999999ADDGA1005+999999999GD10991+9999999GF100991999999999999999999MA1102685085045REMMET08401/15/25 17:15:01 METAR KEIK 160015Z 12005KT 10SM CLR 02/M13 A3032 RMK AO2 T00221127
0168720534001612025011600357+40017-105050FM-15+1564KEIK V0201205N002652200059N0160935N5+00105-01255999999ADDGA1005+999999999GD10991+9999999GF100991999999999999999999MA1102715085075REMMET08401/15/25 17:35:01 METAR KEIK 160035Z 12005KT 10SM CLR 01/M13 A3033 RMK AO2 T00101125
0168720534001612025011600557+40017-105050FM-15+1564KEIK V0201205N001552200059N0160935N5+00115-01235999999ADDGA1005+999999999GD10991+9999999GF100991999999999999999999MA1102715085075REMMET08401/15/25 17:55:01 METAR KEIK 160055Z 12003KT 10SM CLR 01/M12 A3033 RMK AO2 T00111123
0168720534001612025011601157+40017-105050FM-15+1564KEIK V0202105N001552200059N0160935N5+00145-01225999999ADDGA1005+999999999GD10991+9999999GF100991999999999999999999MA1102715085075REMMET08401/15/25 18:15:01 METAR KEIK 160115Z 21003KT 10SM CLR 01/M12 A3033 RMK AO2 T00141122
0169720534001612025011601357+40017-105050FM-15+1564KEIK V0209999C000052200059N0160935N5-00055-01255999999ADDGA1005+999999999GD10991+9999999GF100991999999999999999999MA1102745085105REMMET08501/15/25 18:35:01 METAR KEIK 160135Z 00000KT 10SM CLR M01/M12 A3034 RMK AO2 T10051125
0169720534001612025011601557+40017-105050FM-15+1564KEIK V0202405N002152200059N0160935N5-00135-01175999999ADDGA1005+999999999GD10991+9999999GF100991999999999999999999MA1102745085105REMMET08501/15/25 18:55:01 METAR KEIK 160155Z 24004KT 10SM CLR M01/M12 A3034 RMK AO2 T10131117
0169720534001612025011602157+40017-105050FM-15+1564KEIK V0201905N001552200059N0160935N5-00055-01215999999ADDGA1005+999999999GD10991+9999999GF100991999999999999999999MA1102745085105REMMET08501/15/25 19:15:01 METAR KEIK 160215Z 19003KT 10SM CLR M00/M12 A3034 RMK AO2 T10051121
0169720534001612025011602357+40017-105050FM-15+1564KEIK V0201805N002152200059N0160935N5-00025-01205999999ADDGA1005+999999999GD10991+9999999GF100991999999999999999999MA1102745085105REMMET08501/15/25 19:35:01 METAR KEIK 160235Z 18004KT 10SM CLR M00/M12 A3034 RMK AO2 T10021120
0169720534001612025011602557+40017-105050FM-15+1564KEIK V0209999C000052200059N0160935N5-00235-01245999999ADDGA1005+999999999GD10991+9999999GF100991999999999999999999MA1102745085105REMMET08501/15/25 19:55:02 METAR KEIK 160255Z 00000KT 10SM CLR M02/M12 A3034 RMK AO2 T10231124
0169720534001612025011603157+40017-105050FM-15+1564KEIK V0209999C000052200059N0160935N5-00375-01225999999ADDGA1005+999999999GD10991+9999999GF100991999999999999999999MA1102745085105REMMET08501/15/25 20:15:01 METAR KEIK 160315Z 00000KT 10SM CLR M04/M12 A3034 RMK AO2 T10371122
0169720534001612025011603357+40017-105050FM-15+1564KEIK V0209999C000052200059N0160935N5-00445-01195999999ADDGA1005+999999999GD10991+9999999GF100991999999999999999999MA1102745085105REMMET08501/15/25 20:35:02 METAR KEIK 160335Z 00000KT 10SM CLR M04/M12 A3034 RMK AO2 T10441119
0169720534001612025011603557+40017-105050FM-15+1564KEIK V0209999C000052200059N0160935N5-00495-01195999999ADDGA1005+999999999GD10991+9999999GF100991999999999999999999MA1102745085105REMMET08501/15/25 20:55:01 METAR KEIK 160355Z 00000KT 10SM CLR M05/M12 A3034 RMK AO2 T10491119
0169720534001612025011604157+40017-105050FM-15+1564KEIK V0209999C000052200059N0160935N5-00435-01185999999ADDGA1005+999999999GD10991+9999999GF100991999999999999999999MA1102745085105REMMET08501/15/25 21:15:01 METAR KEIK 160415Z 00000KT 10SM CLR M04/M12 A3034 RMK AO2 T10431118
0169720534001612025011604357+40017-105050FM-15+1564KEIK V0209999C000052200059N0160935N5-00625-01195999999ADDGA1005+999999999GD10991+9999999GF100991999999999999999999MA1102785085135REMMET08501/15/25 21:35:01 METAR KEIK 160435Z 00000KT 10SM CLR M06/M12 A3035 RMK AO2 T10621119
0169720534001612025011604557+40017-105050FM-15+1564KEIK V0202005N001552200059N0160935N5-00645-01135999999ADDGA1005+999999999GD10991+9999999GF100991999999999999999999MA1102785085135REMMET08501/15/25 21:55:02 METAR KEIK 160455Z 20003KT 10SM CLR M06/M11 A3035 RMK AO2 T10641113
0169720534001612025011605157+40017-105050FM-15+1564KEIK V0209999C000052200059N0160935N5-00705-01135999999ADDGA1005+999999999GD10991+9999999GF100991999999999999999999MA1102815085165REMMET08501/15/25 22:15:02 METAR KEIK 160515Z 00000KT 10SM CLR M07/M11 A3036 RMK AO2 T10701113
0169720534001612025011605357+40017-105050FM-15+1564KEIK V0201905N002152200059N0160935N5-00605-01115999999ADDGA1005+999999999GD10991+9999999GF100991999999999999999999MA1102815085165REMMET08501/15/25 22:35:01 METAR KEIK 160535Z 19004KT 10SM CLR M06/M11 A3036 RMK AO2 T10601111
0169720534001612025011605557+40017-105050FM-15+1564KEIK V0209999C000052200059N0160935N5-00595-01105999999ADDGA1005+999999999GD10991+9999999GF100991999999999999999999MA1102815085165REMMET08501/15/25 22:55:01 METAR KEIK 160555Z 00000KT 10SM CLR M06/M11 A3036 RMK AO2 T10591110
0169720534001612025011606157+40017-105050FM-15+1564KEIK V0201605N001552200059N0160935N5-00635-01125999999ADDGA1005+999999999GD10991+9999999GF100991999999999999999999MA1102815085165REMMET08501/15/25 23:15:01 METAR KEIK 160615Z 16003KT 10SM CLR M06/M11 A3036 RMK AO2 T10631112
0169720534001612025011606357+40017-105050FM-15+1564KEIK V0209999C000052200059N0160935N5-00725-01095999999ADDGA1005+999999999GD10991+9999999GF100991999999999999999999MA1102815085165REMMET08501/15/25 23:35:01 METAR KEIK 160635Z 00000KT 10SM CLR M07/M11 A3036 RMK AO2 T10721109
0169720534001612025011606557+40017-105050FM-15+1564KEIK V0209999C000052200059N0160935N5-00655-01105999999ADDGA1005+999999999GD10991+9999999GF100991999999999999999999MA1102785085135REMMET08501/15/25 23:55:01 METAR KEIK 160655Z 00000KT 10SM CLR M07/M11 A3035 RMK AO2 T10651110
0169720534001612025011607157+40017-105050FM-15+1564KEIK V0209999C000052200059N0160935N5-00755-01135999999ADDGA1005+999999999GD10991+9999999GF100991999999999999999999MA1102785085135REMMET08501/16/25 00:15:01 METAR KEIK 160715Z 00000KT 10SM CLR M08/M11 A3035 RMK AO2 T10751113
0169720534001612025011607357+40017-105050FM-15+1564KEIK V0209999C000052200059N0160935N5-00745-01115999999ADDGA1005+999999999GD10991+9999999GF100991999999999999999999MA1102745085105REMMET08501/16/25 00:35:01 METAR KEIK 160735Z 00000KT 10SM CLR M07/M11 A3034 RMK AO2 T10741111
0169720534001612025011607557+40017-105050FM-15+1564KEIK V0209999C000052200059N0160935N5-00815-01125999999ADDGA1005+999999999GD10991+9999999GF100991999999999999999999MA1102715085075REMMET08501/16/25 00:55:01 METAR KEIK 160755Z 00000KT 10SM CLR M08/M11 A3033 RMK AO2 T10811112
0169720534001612025011608157+40017-105050FM-15+1564KEIK V0209999C000052200059N0160935N5-00785-01145999999ADDGA1005+999999999GD10991+9999999GF100991999999999999999999MA1102685085045REMMET08501/16/25 01:15:01 METAR KEIK 160815Z 00000KT 10SM CLR M08/M11 A3032 RMK AO2 T10781114
0169720534001612025011608357+40017-105050FM-15+1564KEIK V0201905N001552200059N0160935N5-00625-01085999999ADDGA1005+999999999GD10991+9999999GF100991999999999999999999MA1102685085045REMMET08501/16/25 01:35:01 METAR KEIK 160835Z 19003KT 10SM CLR M06/M11 A3032 RMK AO2 T10621108
0169720534001612025011608557+40017-105050FM-15+1564KEIK V0209999C000052200059N0160935N5-00635-01125999999ADDGA1005+999999999GD10991+9999999GF100991999999999999999999MA1102645085015REMMET08501/16/25 01:55:01 METAR KEIK 160855Z 00000KT 10SM CLR M06/M11 A3031 RMK AO2 T10631112
0169720534001612025011609157+40017-105050FM-15+1564KEIK V0201905N002152200059N0160935N5-00655-01125999999ADDGA1005+999999999GD10991+9999999GF100991999999999999999999MA1102645085015REMMET08501/16/25 02:15:02 METAR KEIK 160915Z 19004KT 10SM CLR M06/M11 A3031 RMK AO2 T10651112
0169720534001612025011609357+40017-105050FM-15+1564KEIK V0209999C000052200059N0160935N5-00505-01115999999ADDGA1005+999999999GD10991+9999999GF100991999999999999999999MA1102575084965REMMET08501/16/25 02:35:02 METAR KEIK 160935Z 00000KT 10SM CLR M05/M11 A3029 RMK AO2 T10501111
0169720534001612025011609557+40017-105050FM-15+1564KEIK V0209999C000052200059N0160935N5-00655-01105999999ADDGA1005+999999999GD10991+9999999GF100991999999999999999999MA1102575084965REMMET08501/16/25 02:55:02 METAR KEIK 160955Z 00000KT 10SM CLR M07/M11 A3029 RMK AO2 T10651110
0169720534001612025011610157+40017-105050FM-15+1564KEIK V0209999C000052200059N0160935N5-00755-01125999999ADDGA1005+999999999GD10991+9999999GF100991999999999999999999MA1102545084935REMMET08501/16/25 03:15:02 METAR KEIK 161015Z 00000KT 10SM CLR M08/M11 A3028 RMK AO2 T10751112
0169720534001612025011610357+40017-105050FM-15+1564KEIK V0209999C000052200059N0160935N5-00855-01135999999ADDGA1005+999999999GD10991+9999999GF100991999999999999999999MA1102515084905REMMET08501/16/25 03:35:02 METAR KEIK 161035Z 00000KT 10SM CLR M08/M11 A3027 RMK AO2 T10851113
0169720534001612025011610557+40017-105050FM-15+1564KEIK V0209999C000052200059N0160935N5-00845-01135999999ADDGA1005+999999999GD10991+9999999GF100991999999999999999999MA1102515084905REMMET08501/16/25 03:55:02 METAR KEIK 161055Z 00000KT 10SM CLR M08/M11 A3027 RMK AO2 T10841113
0168720534001612025011611157+40017-105050FM-15+1564KEIK V0209999C000052200059N0144845N5-00855-01155999999ADDGA1005+999999999GD10991+9999999GF100991999999999999999999MA1102475084875REMMET08401/16/25 04:15:02 METAR KEIK 161115Z 00000KT 9SM CLR M08/M12 A3026 RMK AO2 T10851115
0169720534001612025011611357+40017-105050FM-15+1564KEIK V0209999C000052200059N0160935N5-00945-01205999999ADDGA1005+999999999GD10991+9999999GF100991999999999999999999MA1102475084875REMMET08501/16/25 04:35:02 METAR KEIK 161135Z 00000KT 10SM CLR M09/M12 A3026 RMK AO2 T10941120
0169720534001612025011611557+40017-105050FM-15+1564KEIK V0209999C000052200059N0160935N5-00885-01125999999ADDGA1005+999999999GD10991+9999999GF100991999999999999999999MA1102445084845REMMET08501/16/25 04:55:02 METAR KEIK 161155Z 00000KT 10SM CLR M09/M11 A3025 RMK AO2 T10881112
0169720534001612025011612157+40017-105050FM-15+1564KEIK V0209999C000052200059N0160935N5-00875-01165999999ADDGA1005+999999999GD10991+9999999GF100991999999999999999999MA1102445084845REMMET08501/16/25 05:15:02 METAR KEIK 161215Z 00000KT 10SM CLR M09/M12 A3025 RMK AO2 T10871116
0169720534001612025011612357+40017-105050FM-15+1564KEIK V0209999C000052200059N0160935N5-00945-01205999999ADDGA1005+999999999GD10991+9999999GF100991999999999999999999MA1102445084845REMMET08501/16/25 05:35:02 METAR KEIK 161235Z 00000KT 10SM CLR M09/M12 A3025 RMK AO2 T10941120
0169720534001612025011612557+40017-105050FM-15+1564KEIK V0209999C000052200059N0160935N5-00955-01185999999ADDGA1005+999999999GD10991+9999999GF100991999999999999999999MA1102405084815REMMET08501/16/25 05:55:02 METAR KEIK 161255Z 00000KT 10SM CLR M10/M12 A3024 RMK AO2 T10951118
0169720534001612025011613157+40017-105050FM-15+1564KEIK V0202105N001552200059N0160935N5-00945-01125999999ADDGA1005+999999999GD10991+9999999GF100991999999999999999999MA1102405084815REMMET08501/16/25 06:15:02 METAR KEIK 161315Z 21003KT 10SM CLR M09/M11 A3024 RMK AO2 T10941112
0169720534001612025011613357+40017-105050FM-15+1564KEIK V0202105N001552200059N0160935N5-00985-01175999999ADDGA1005+999999999GD10991+9999999GF100991999999999999999999MA1102375084785REMMET08501/16/25 06:35:02 METAR KEIK 161335Z 21003KT 10SM CLR M10/M12 A3023 RMK AO2 T10981117
0169720534001612025011613557+40017-105050FM-15+1564KEIK V0209999C000052200059N0160935N5-00955-01175999999ADDGA1005+999999999GD10991+9999999GF100991999999999999999999MA1102345084755REMMET08501/16/25 06:55:02 METAR KEIK 161355Z 00000KT 10SM CLR M09/M12 A3022 RMK AO2 T10951117
0168720534001612025011614157+40017-105050FM-15+1564KEIK V0209999C000052200059N0144845N5-00905-01155999999ADDGA1005+999999999GD10991+9999999GF100991999999999999999999MA1102305084725REMMET08401/16/25 07:15:02 METAR KEIK 161415Z 00000KT 9SM CLR M09/M11 A3021 RMK AO2 T10901115
0168720534001612025011614357+40017-105050FM-15+1564KEIK V0209999C000052200059N0144845N5-00945-01155999999ADDGA1005+999999999GD10991+9999999GF100991999999999999999999MA1102275084695REMMET08401/16/25 07:35:02 METAR KEIK 161435Z 00000KT 9SM CLR M09/M11 A3020 RMK AO2 T10941115
0168720534001612025011614557+40017-105050FM-15+1564KEIK V0209999C000052200059N0144845N5-00795-01035999999ADDGA1005+999999999GD10991+9999999GF100991999999999999999999MA1102245084665REMMET08401/16/25 07:55:02 METAR KEIK 161455Z 00000KT 9SM CLR M08/M10 A3019 RMK AO2 T10791103
0168720534001612025011615157+40017-105050FM-15+1564KEIK V0209999C000052200059N0144845N5-00475-00825999999ADDGA1005+999999999GD10991+9999999GF100991999999999999999999MA1102245084665REMMET08401/16/25 08:15:02 METAR KEIK 161515Z 00000KT 9SM CLR M05/M08 A3019 RMK AO2 T10471082
0169720534001612025011615357+40017-105050FM-15+1564KEIK V0209999C000052200059N0160935N5-00145-00795999999ADDGA1005+999999999GD10991+9999999GF100991999999999999999999MA1102205084645REMMET08501/16/25 08:35:02 METAR KEIK 161535Z 00000KT 10SM CLR M01/M08 A3018 RMK AO2 T10141079
0168720534001612025011615557+40017-105050FM-15+1564KEIK V0209999C000052200059N0160935N5+00015-00775999999ADDGA1005+999999999GD10991+9999999GF100991999999999999999999MA1102175084615REMMET08401/16/25 08:55:02 METAR KEIK 161555Z 00000KT 10SM CLR 00/M08 A3017 RMK AO2 T00011077
0168720534001612025011616157+40017-105050FM-15+1564KEIK V0209999C000052200059N0160935N5+00145-00695999999ADDGA1005+999999999GD10991+9999999GF100991999999999999999999MA1102135084585REMMET08401/16/25 09:15:02 METAR KEIK 161615Z 00000KT 10SM CLR 01/M07 A3016 RMK AO2 T00141069
0168720534001612025011616357+40017-105050FM-15+1564KEIK V0209999C000052200059N0160935N5+00345-00705999999ADDGA1005+999999999GD10991+9999999GF100991999999999999999999MA1102105084555REMMET08401/16/25 09:35:02 METAR KEIK 161635Z 00000KT 10SM CLR 03/M07 A3015 RMK AO2 T00341070
0168720534001612025011616557+40017-105050FM-15+1564KEIK V0209999C000052200059N0160935N5+00565-00875999999ADDGA1005+999999999GD10991+9999999GF100991999999999999999999MA1102075084525REMMET08401/16/25 09:55:02 METAR KEIK 161655Z 00000KT 10SM CLR 06/M09 A3014 RMK AO2 T00561087
0168720534001612025011617157+40017-105050FM-15+1564KEIK V0209999C000052200059N0160935N5+00615-00925999999ADDGA1005+999999999GD10991+9999999GF100991999999999999999999MA1102035084495REMMET08401/16/25 10:15:02 METAR KEIK 161715Z 00000KT 10SM CLR 06/M09 A3013 RMK AO2 T00611092
0168720534001612025011617357+40017-105050FM-15+1564KEIK V0209999C000052200059N0160935N5+00685-00955999999ADDGA1005+999999999GD10991+9999999GF100991999999999999999999MA1102005084465REMMET08401/16/25 10:35:02 METAR KEIK 161735Z 00000KT 10SM CLR 07/M09 A3012 RMK AO2 T00681095
0168720534001612025011617557+40017-105050FM-15+1564KEIK V0209999C000052200059N0160935N5+00805-01015999999ADDGA1005+999999999GD10991+9999999GF100991999999999999999999MA1101935084405REMMET08401/16/25 10:55:02 METAR KEIK 161755Z 00000KT 10SM CLR 08/M10 A3010 RMK AO2 T00801101
0175720534001612025011618157+40017-105050FM-15+1564KEIK V0209999C000052200059N0160935N5+00875-00975999999ADDGA1005+999999999GD10991+9999999GF100991999999999999999999MA1101865084345REMMET09101/16/25 11:15:02 METAR KEIK 161815Z 00000KT 10SM CLR 09/M10 A3008 RMK AO2 PRESFR T00871097
0168720534001612025011618357+40017-105050FM-15+1564KEIK V0209999C000052200059N0160935N5+00955-00925999999ADDGA1005+999999999GD10991+9999999GF100991999999999999999999MA1101795084295REMMET08401/16/25 11:35:02 METAR KEIK 161835Z 00000KT 10SM CLR 09/M09 A3006 RMK AO2 T00951092
0168720534001612025011618557+40017-105050FM-15+1564KEIK V0209999C000052200059N0160935N5+01005-00865999999ADDGA1005+999999999GD10991+9999999GF100991999999999999999999MA1101735084235REMMET08401/16/25 11:55:02 METAR KEIK 161855Z 00000KT 10SM CLR 10/M09 A3004 RMK AO2 T01001086
0168720534001612025011619157+40017-105050FM-15+1564KEIK V0209999C000052200059N0160935N5+01035-00875999999ADDGA1005+999999999GD10991+9999999GF100991999999999999999999MA1101665084175REMMET08401/16/25 12:15:02 METAR KEIK 161915Z 00000KT 10SM CLR 10/M09 A3002 RMK AO2 T01031087
0168720534001612025011619357+40017-105050FM-15+1564KEIK V0209999C000052200059N0160935N5+01115-00825999999ADDGA1005+999999999GD10991+9999999GF100991999999999999999999MA1101595084115REMMET08401/16/25 12:35:02 METAR KEIK 161935Z 00000KT 10SM CLR 11/M08 A3000 RMK AO2 T01111082
0168720534001612025011619557+40017-105050FM-15+1564KEIK V0209999C000052200059N0160935N5+01165-00815999999ADDGA1005+999999999GD10991+9999999GF100991999999999999999999MA1101525084055REMMET08401/16/25 12:55:02 METAR KEIK 161955Z 00000KT 10SM CLR 12/M08 A2998 RMK AO2 T01161081
0168720534001612025011620157+40017-105050FM-15+1564KEIK V0201405N003152200059N0160935N5+01335-00795999999ADDGA1005+999999999GD10991+9999999GF100991999999999999999999MA1101495084035REMMET08401/16/25 13:15:02 METAR KEIK 162015Z 14006KT 10SM CLR 13/M08 A2997 RMK AO2 T01331079
0168720534001612025011620357+40017-105050FM-15+1564KEIK V0209999V003152200059N0160935N5+01355-00815999999ADDGA1005+999999999GD10991+9999999GF100991999999999999999999MA1101425083975REMMET08401/16/25 13:35:02 METAR KEIK 162035Z VRB06KT 10SM CLR 13/M08 A2995 RMK AO2 T01351081
0168720534001612025011620557+40017-105050FM-15+1564KEIK V0209999C000052200059N0160935N5+01425-00815999999ADDGA1005+999999999GD10991+9999999GF100991999999999999999999MA1101395083945REMMET08401/16/25 13:55:02 METAR KEIK 162055Z 00000KT 10SM CLR 14/M08 A2994 RMK AO2 T01421081
0168720534001612025011621157+40017-105050FM-15+1564KEIK V0209999V002152200059N0160935N5+01505-00835999999ADDGA1005+999999999GD10991+9999999GF100991999999999999999999MA1101325083885REMMET08401/16/25 14:15:02 METAR KEIK 162115Z VRB04KT 10SM CLR 15/M08 A2992 RMK AO2 T01501083
0168720534001612025011621357+40017-105050FM-15+1564KEIK V0201505N002152200059N0160935N5+01595-00835999999ADDGA1005+999999999GD10991+9999999GF100991999999999999999999MA1101295083855REMMET08401/16/25 14:35:02 METAR KEIK 162135Z 15004KT 10SM CLR 16/M08 A2991 RMK AO2 T01591083
0168720534001612025011621557+40017-105050FM-15+1564KEIK V0201105N002152200059N0160935N5+01595-00795999999ADDGA1005+999999999GD10991+9999999GF100991999999999999999999MA1101255083825REMMET08401/16/25 14:55:02 METAR KEIK 162155Z 11004KT 10SM CLR 16/M08 A2990 RMK AO2 T01591079
0168720534001612025011622157+40017-105050FM-15+1564KEIK V0200805N002652200059N0160935N5+01605-00775999999ADDGA1005+999999999GD10991+9999999GF100991999999999999999999MA1101225083795REMMET08401/16/25 15:15:02 METAR KEIK 162215Z 08005KT 10SM CLR 16/M08 A2989 RMK AO2 T01601077
0168720534001612025011622357+40017-105050FM-15+1564KEIK V0201005N003152200059N0160935N5+01555-00745999999ADDGA1005+999999999GD10991+9999999GF100991999999999999999999MA1101225083795REMMET08401/16/25 15:35:02 METAR KEIK 162235Z 10006KT 10SM CLR 15/M07 A2989 RMK AO2 T01551074
0168720534001612025011622557+40017-105050FM-15+1564KEIK V0200805N003152200059N0160935N5+01475-00745999999ADDGA1005+999999999GD10991+9999999GF100991999999999999999999MA1101195083765REMMET08401/16/25 15:55:02 METAR KEIK 162255Z 08006KT 10SM CLR 15/M07 A2988 RMK AO2 T01471074
0168720534001612025011623157+40017-105050FM-15+1564KEIK V0201105N003652200059N0160935N5+01335-00665999999ADDGA1005+999999999GD10991+9999999GF100991999999999999999999MA1101155083735REMMET08401/16/25 16:15:02 METAR KEIK 162315Z 11007KT 10SM CLR 13/M07 A2987 RMK AO2 T01331066
0168720534001612025011623357+40017-105050FM-15+1564KEIK V0200705N001552200059N0160935N5+01105-00655999999ADDGA1005+999999999GD10991+9999999GF100991999999999999999999MA1101125083715REMMET08401/16/25 16:35:02 METAR KEIK 162335Z 07003KT 10SM CLR 11/M06 A2986 RMK AO2 T01101065
0167720534001612025011623557+40017-105050FM-15+1564KEIK V0209999C000052200059N0144845N5+00865-00675999999ADDGA1005+999999999GD10991+9999999GF100991999999999999999999MA1101125083715REMMET08301/16/25 16:55:02 METAR KEIK 162355Z 00000KT 9SM CLR 09/M07 A2986 RMK AO2 T00861067
0167720534001612025011700157+40017-105050FM-15+1564KEIK V0209999C000052200059N0144845N5+00885-00705999999ADDGA1005+999999999GD10991+9999999GF100991999999999999999999MA1101085083685REMMET08301/16/25 17:15:01 METAR KEIK 170015Z 00000KT 9SM CLR 09/M07 A2985 RMK AO2 T00881070
0168720534001612025011700357+40017-105050FM-15+1564KEIK V0200405N001552200059N0160935N5+00455-00745999999ADDGA1005+999999999GD10991+9999999GF100991999999999999999999MA1101085083685REMMET08401/16/25 17:35:01 METAR KEIK 170035Z 04003KT 10SM CLR 04/M07 A2985 RMK AO2 T00451074
0168720534001612025011700557+40017-105050FM-15+1564KEIK V0202105N002152200059N0160935N5+00145-00815999999ADDGA1005+999999999GD10991+9999999GF100991999999999999999999MA1101085083685REMMET08401/16/25 17:55:01 METAR KEIK 170055Z 21004KT 10SM CLR 01/M08 A2985 RMK AO2 T00141081
0168720534001612025011701157+40017-105050FM-15+1564KEIK V0209999C000052200059N0160935N5+00195-00755999999ADDGA1005+999999999GD10991+9999999GF100991999999999999999999MA1101055083655REMMET08401/16/25 18:15:01 METAR KEIK 170115Z 00000KT 10SM CLR 02/M08 A2984 RMK AO2 T00191075
0167720534001612025011701357+40017-105050FM-15+1564KEIK V0209999C000052200059N0144845N5+00005-00745999999ADDGA1005+999999999GD10991+9999999GF100991999999999999999999MA1101025083625REMMET08301/16/25 18:35:01 METAR KEIK 170135Z 00000KT 9SM CLR 00/M07 A2983 RMK AO2 T00001074
0169720534001612025011701557+40017-105050FM-15+1564KEIK V0209999V001552200059N0160935N5-00165-00805999999ADDGA1005+999999999GD10991+9999999GF100991999999999999999999MA1101025083625REMMET08501/16/25 18:55:01 METAR KEIK 170155Z VRB03KT 10SM CLR M02/M08 A2983 RMK AO2 T10161080
0168720534001612025011702157+40017-105050FM-15+1564KEIK V0209999C000052200059N0144845N5-00215-00815999999ADDGA1005+999999999GD10991+9999999GF100991999999999999999999MA1100985083595REMMET08401/16/25 19:15:01 METAR KEIK 170215Z 00000KT 9SM CLR M02/M08 A2982 RMK AO2 T10211081
0169720534001612025011702357+40017-105050FM-15+1564KEIK V0209999C000052200059N0160935N5-00215-00755999999ADDGA1005+999999999GD10991+9999999GF100991999999999999999999MA1100955083565REMMET08501/16/25 19:35:01 METAR KEIK 170235Z 00000KT 10SM CLR M02/M08 A2981 RMK AO2 T10211075
0168720534001612025011702557+40017-105050FM-15+1564KEIK V0209999C000052200059N0144845N5-00305-00795999999ADDGA1005+999999999GD10991+9999999GF100991999999999999999999MA1100915083535REMMET08401/16/25 19:55:01 METAR KEIK 170255Z 00000KT 9SM CLR M03/M08 A2980 RMK AO2 T10301079
0169720534001612025011703157+40017-105050FM-15+1564KEIK V0201805N001552200059N0160935N5-00345-00795999999ADDGA1005+999999999GD10991+9999999GF100991999999999999999999MA1100885083505REMMET08501/16/25 20:15:01 METAR KEIK 170315Z 18003KT 10SM CLR M03/M08 A2979 RMK AO2 T10341079
0169720534001612025011703357+40017-105050FM-15+1564KEIK V0201505N001552200059N0160935N5-00315-00775999999ADDGA1005+999999999GD10991+9999999GF100991999999999999999999MA1100855083475REMMET08501/16/25 20:35:01 METAR KEIK 170335Z 15003KT 10SM CLR M03/M08 A2978 RMK AO2 T10311077
0169720534001612025011703557+40017-105050FM-15+1564KEIK V0209999C000052200059N0160935N5-00295-00805999999ADDGA1005+999999999GD10991+9999999GF100991999999999999999999MA1100815083445REMMET08501/16/25 20:55:01 METAR KEIK 170355Z 00000KT 10SM CLR M03/M08 A2977 RMK AO2 T10291080
0169720534001612025011704157+40017-105050FM-15+1564KEIK V0209999C000052200059N0160935N5-00315-00885999999ADDGA1005+999999999GD10991+9999999GF100991999999999999999999MA1100785083425REMMET08501/16/25 21:15:01 METAR KEIK 170415Z 00000KT 10SM CLR M03/M09 A2976 RMK AO2 T10311088
0169720534001612025011704357+40017-105050FM-15+1564KEIK V0209999C000052200059N0160935N5-00405-00925999999ADDGA1005+999999999GD10991+9999999GF100991999999999999999999MA1100755083395REMMET08501/16/25 21:35:01 METAR KEIK 170435Z 00000KT 10SM CLR M04/M09 A2975 RMK AO2 T10401092
0169720534001612025011704557+40017-105050FM-15+1564KEIK V0203105N001552200059N0160935N5-00415-00995999999ADDGA1005+999999999GD10991+9999999GF100991999999999999999999MA1100755083395REMMET08501/16/25 21:55:01 METAR KEIK 170455Z 31003KT 10SM CLR M04/M10 A2975 RMK AO2 T10411099
0169720534001612025011705157+40017-105050FM-15+1564KEIK V0209999C000052200059N0160935N5-00525-00955999999ADDGA1005+999999999GD10991+9999999GF100991999999999999999999MA1100715083365REMMET08501/16/25 22:15:01 METAR KEIK 170515Z 00000KT 10SM CLR M05/M10 A2974 RMK AO2 T10521095
0169720534001612025011705357+40017-105050FM-15+1564KEIK V0201105N001552200059N0160935N5-00585-00995999999ADDGA1005+999999999GD10991+9999999GF100991999999999999999999MA1100685083335REMMET08501/16/25 22:35:01 METAR KEIK 170535Z 11003KT 10SM CLR M06/M10 A2973 RMK AO2 T10581099
0169720534001612025011705557+40017-105050FM-15+1564KEIK V0209999C000052200059N0160935N5-00525-00965999999ADDGA1005+999999999GD10991+9999999GF100991999999999999999999MA1100685083335REMMET08501/16/25 22:55:01 METAR KEIK 170555Z 00000KT 10SM CLR M05/M10 A2973 RMK AO2 T10521096
0169720534001612025011706157+40017-105050FM-15+1564KEIK V0202505N001552200059N0160935N5-00515-00955999999ADDGA1005+999999999GD10991+9999999GF100991999999999999999999MA1100645083305REMMET08501/16/25 23:15:01 METAR KEIK 170615Z 25003KT 10SM CLR M05/M10 A2972 RMK AO2 T10511095
0169720534001612025011706357+40017-105050FM-15+1564KEIK V0209999C000052200059N0160935N5-00515-00945999999ADDGA1005+999999999GD10991+9999999GF100991999999999999999999MA1100615083275REMMET08501/16/25 23:35:01 METAR KEIK 170635Z 00000KT 10SM CLR M05/M09 A2971 RMK AO2 T10511094
0169720534001612025011706557+40017-105050FM-15+1564KEIK V0209999C000052200059N0160935N5-00655-01085999999ADDGA1005+999999999GD10991+9999999GF100991999999999999999999MA1100585083245REMMET08501/16/25 23:55:01 METAR KEIK 170655Z 00000KT 10SM CLR M06/M11 A2970 RMK AO2 T10651108
0169720534001612025011707157+40017-105050FM-15+1564KEIK V0209999V002152200059N0160935N5-00535-01085999999ADDGA1005+999999999GD10991+9999999GF100991999999999999999999MA1100545083215REMMET08501/17/25 00:15:01 METAR KEIK 170715Z VRB04KT 10SM CLR M05/M11 A2969 RMK AO2 T10531108
0169720534001612025011707357+40017-105050FM-15+1564KEIK V0201905N002652200059N0160935N5-00505-01135999999ADDGA1005+999999999GD10991+9999999GF100991999999999999999999MA1100515083185REMMET08501/17/25 00:35:01 METAR KEIK 170735Z 19005KT 10SM CLR M05/M11 A2968 RMK AO2 T10501113
0169720534001612025011707557+40017-105050FM-15+1564KEIK V0202005N002652200059N0160935N5-00455-01175999999ADDGA1005+999999999GD10991+9999999GF100991999999999999999999MA1100475083155REMMET08501/17/25 00:55:01 METAR KEIK 170755Z 20005KT 10SM CLR M05/M12 A2967 RMK AO2 T10451117
0169720534001612025011708157+40017-105050FM-15+1564KEIK V0209999C000052200059N0160935N5-00415-01275999999ADDGA1005+999999999GD10991+9999999GF100991999999999999999999MA1100475083155REMMET08501/17/25 01:15:01 METAR KEIK 170815Z 00000KT 10SM CLR M04/M13 A2967 RMK AO2 T10411127
0169720534001612025011708357+40017-105050FM-15+1564KEIK V0209999C000052200059N0160935N5-00355-01415999999ADDGA1005+999999999GD10991+9999999GF100991999999999999999999MA1100445083125REMMET08501/17/25 01:35:01 METAR KEIK 170835Z 00000KT 10SM CLR M04/M14 A2966 RMK AO2 T10351141
0169720534001612025011708557+40017-105050FM-15+1564KEIK V0209999C000052200059N0160935N5-00545-01195999999ADDGA1005+999999999GD10991+9999999GF100991999999999999999999MA1100415083105REMMET08501/17/25 01:55:01 METAR KEIK 170855Z 00000KT 10SM CLR M05/M12 A2965 RMK AO2 T10541119
0169720534001612025011709157+40017-105050FM-15+1564KEIK V0202105N001552200059N0160935N5-00495-01275999999ADDGA1005+999999999GD10991+9999999GF100991999999999999999999MA1100375083075REMMET08501/17/25 02:15:02 METAR KEIK 170915Z 21003KT 10SM CLR M05/M13 A2964 RMK AO2 T10491127
0169720534001612025011709357+40017-105050FM-15+1564KEIK V0201805N001552200059N0160935N5-00505-01345999999ADDGA1005+999999999GD10991+9999999GF100991999999999999999999MA1100345083045REMMET08501/17/25 02:35:02 METAR KEIK 170935Z 18003KT 10SM CLR M05/M13 A2963 RMK AO2 T10501134
0169720534001612025011709557+40017-105050FM-15+1564KEIK V0209999C000052200059N0160935N5-00275-01485999999ADDGA1005+999999999GD10991+9999999GF100991999999999999999999MA1100305083015REMMET08501/17/25 02:55:02 METAR KEIK 170955Z 00000KT 10SM CLR M03/M15 A2962 RMK AO2 T10271148
0169720534001612025011710157+40017-105050FM-15+1564KEIK V0209999C000052200059N0160935N5-00415-01495999999ADDGA1005+999999999GD10991+9999999GF100991999999999999999999MA1100305083015REMMET08501/17/25 03:15:02 METAR KEIK 171015Z 00000KT 10SM CLR M04/M15 A2962 RMK AO2 T10411149
0169720534001612025011710357+40017-105050FM-15+1564KEIK V0209999C000052200059N0160935N5-00525-01505999999ADDGA1005+999999999GD10991+9999999GF100991999999999999999999MA1100275082985REMMET08501/17/25 03:35:02 METAR KEIK 171035Z 00000KT 10SM CLR M05/M15 A2961 RMK AO2 T10521150
0169720534001612025011710557+40017-105050FM-15+1564KEIK V0209999C000052200059N0160935N5-00535-01505999999ADDGA1005+999999999GD10991+9999999GF100991999999999999999999MA1100305083015REMMET08501/17/25 03:55:02 METAR KEIK 171055Z 00000KT 10SM CLR M05/M15 A2962 RMK AO2 T10531150
0169720534001612025011711157+40017-105050FM-15+1564KEIK V0209999C000052200059N0160935N5-00475-01495999999ADDGA1005+999999999GD10991+9999999GF100991999999999999999999MA1100275082985REMMET08501/17/25 04:15:02 METAR KEIK 171115Z 00000KT 10SM CLR M05/M15 A2961 RMK AO2 T10471149
0169720534001612025011711357+40017-105050FM-15+1564KEIK V0209999C000052200059N0160935N5-00715-01455999999ADDGA1005+999999999GD10991+9999999GF100991999999999999999999MA1100305083015REMMET08501/17/25 04:35:02 METAR KEIK 171135Z 00000KT 10SM CLR M07/M15 A2962 RMK AO2 T10711145
0169720534001612025011711557+40017-105050FM-15+1564KEIK V0209999C000052200059N0160935N5-00685-01455999999ADDGA1005+999999999GD10991+9999999GF100991999999999999999999MA1100305083015REMMET08501/17/25 04:55:02 METAR KEIK 171155Z 00000KT 10SM CLR M07/M14 A2962 RMK AO2 T10681145
0169720534001612025011712157+40017-105050FM-15+1564KEIK V0209999C000052200059N0160935N5-00725-01475999999ADDGA1005+999999999GD10991+9999999GF100991999999999999999999MA1100305083015REMMET08501/17/25 05:15:02 METAR KEIK 171215Z 00000KT 10SM CLR M07/M15 A2962 RMK AO2 T10721147
0169720534001612025011712357+40017-105050FM-15+1564KEIK V0209999V002152200059N0160935N5-00795-01435999999ADDGA1005+999999999GD10991+9999999GF100991999999999999999999MA1100245082955REMMET08501/17/25 05:35:02 METAR KEIK 171235Z VRB04KT 10SM CLR M08/M14 A2960 RMK AO2 T10791143
0169720534001612025011712557+40017-105050FM-15+1564KEIK V0209999C000052200059N0160935N5-00675-01445999999ADDGA1005+999999999GD10991+9999999GF100991999999999999999999MA1100275082985REMMET08501/17/25 05:55:02 METAR KEIK 171255Z 00000KT 10SM CLR M07/M14 A2961 RMK AO2 T10671144
0169720534001612025011713157+40017-105050FM-15+1564KEIK V0202105N002152200059N0160935N5-00635-01425999999ADDGA1005+999999999GD10991+9999999GF100991999999999999999999MA1100245082955REMMET08501/17/25 06:15:02 METAR KEIK 171315Z 21004KT 10SM CLR M06/M14 A2960 RMK AO2 T10631142
0169720534001612025011713357+40017-105050FM-15+1564KEIK V0209999C000052200059N0160935N5-00735-01385999999ADDGA1005+999999999GD10991+9999999GF100991999999999999999999MA1100205082925REMMET08501/17/25 06:35:02 METAR KEIK 171335Z 00000KT 10SM CLR M07/M14 A2959 RMK AO2 T10731138
0169720534001612025011713557+40017-105050FM-15+1564KEIK V0209999C000052200059N0160935N5-00685-01425999999ADDGA1005+999999999GD10991+9999999GF100991999999999999999999MA1100245082955REMMET08501/17/25 06:55:02 METAR KEIK 171355Z 00000KT 10SM CLR M07/M14 A2960 RMK AO2 T10681142
0169720534001612025011714157+40017-105050FM-15+1564KEIK V0202005N001552200059N0160935N5-00655-01425999999ADDGA1005+999999999GD10991+9999999GF100991999999999999999999MA1100245082955REMMET08501/17/25 07:15:02 METAR KEIK 171415Z 20003KT 10SM CLR M06/M14 A2960 RMK AO2 T10651142
0169720534001612025011714357+40017-105050FM-15+1564KEIK V0209999C000052200059N0160935N5-00645-01425999999ADDGA1005+999999999GD10991+9999999GF100991999999999999999999MA1100245082955REMMET08501/17/25 07:35:02 METAR KEIK 171435Z 00000KT 10SM CLR M06/M14 A2960 RMK AO2 T10641142
0169720534001612025011714557+40017-105050FM-15+1564KEIK V0209999C000052200059N0160935N5-00565-01305999999ADDGA1005+999999999GD10991+9999999GF100991999999999999999999MA1100245082955REMMET08501/17/25 07:55:02 METAR KEIK 171455Z 00000KT 10SM CLR M06/M13 A2960 RMK AO2 T10561130
0169720534001612025011715157+40017-105050FM-15+1564KEIK V0209999C000052200059N0160935N5-00305-01115999999ADDGA1005+999999999GD10991+9999999GF100991999999999999999999MA1100245082955REMMET08501/17/25 08:15:02 METAR KEIK 171515Z 00000KT 10SM CLR M03/M11 A2960 RMK AO2 T10301111
0169720534001612025011715357+40017-105050FM-15+1564KEIK V0209999C000052200059N0160935N5-00025-01045999999ADDGA1005+999999999GD10991+9999999GF100991999999999999999999MA1100245082955REMMET08501/17/25 08:35:02 METAR KEIK 171535Z 00000KT 10SM CLR M00/M10 A2960 RMK AO2 T10021104
0212720534001612025011715557+40017-105050FM-15+1564KEIK V0209999C000052200059N0160935N5+00355-00795999999ADDGA1025+057915999GD11991+0579159GE19AGL   +99999+99999GF102995999999057911999999MA1100275082985REMMET08701/17/25 08:55:02 METAR KEIK 171555Z 00000KT 10SM FEW190 03/M08 A2961 RMK AO2 T00351079EQDD01      0ADE726
0193720534001612025011716157+40017-105050FM-15+1564KEIK V0209999C00005054865MN0160935N5+00555-00715999999ADDGA1075+054865999GD13991+0548659GE19AGL   +99999+99999GF199999999999054861999999MA1100275082985REMMET08701/17/25 09:15:02 METAR KEIK 171615Z 00000KT 10SM BKN180 05/M07 A2961 RMK AO2 T00551071
0193720534001612025011716357+40017-105050FM-15+1564KEIK V0209999C00005054865MN0160935N5+00685-00675999999ADDGA1075+054865999GD13991+0548659GE19AGL   +99999+99999GF199999999999054861999999MA1100345083045REMMET08701/17/25 09:35:02 METAR KEIK 171635Z 00000KT 10SM BKN180 07/M07 A2963 RMK AO2 T00681067
0212720534001612025011716557+40017-105050FM-15+1564KEIK V0209999V001552200059N0160935N5+01025-01115999999ADDGA1025+051825999GD11991+0518259GE19AGL   +99999+99999GF102995999999051821999999MA1100375083075REMMET08701/17/25 09:55:02 METAR KEIK 171655Z VRB03KT 10SM FEW170 10/M11 A2964 RMK AO2 T01021111EQDD01      0ADE726
0212720534001612025011717157+40017-105050FM-15+1564KEIK V0200805N005152200059N0160935N5+00845-01145999999ADDGA1045+054865999GD12991+0548659GE19AGL   +99999+99999GF104995999999054861999999MA1100475083155REMMET08701/17/25 10:15:02 METAR KEIK 171715Z 08010KT 10SM SCT180 08/M11 A2967 RMK AO2 T00841114EQDD01      0ADE726
0231720534001612025011717357+40017-105050FM-15+1564KEIK V0201105N00415048775MN0160935N5+00835-01285999999ADDGA1075+048775999GA2075+054865999GD13991+0487759GD23991+0548659GE19AGL   +99999+99999GF199999999999048771999999MA1100515083185REMMET09401/17/25 10:35:02 METAR KEIK 171735Z 11008KT 10SM BKN160 BKN180 08/M13 A2968 RMK AO2 T00831128
0250720534001612025011717557+40017-105050FM-15+1564KEIK V0201105N005152200059N0160935N5+00935-01415999999ADDGA1045+048775999GA2045+070105999GD12991+0487759GD22991+0701059GE19AGL   +99999+99999GF104995999999048771999999MA1100545083215REMMET09401/17/25 10:55:02 METAR KEIK 171755Z 11010KT 10SM SCT160 SCT230 09/M14 A2969 RMK AO2 T00931141EQDD01      0ADE726
0212720534001612025011718157+40017-105050FM-15+1564KEIK V0200805N004652200059N0160935N5+00945-01135999999ADDGA1045+073155999GD12991+0731559GE19AGL   +99999+99999GF104995999999073151999999MA1100585083245REMMET08701/17/25 11:15:02 METAR KEIK 171815Z 08009KT 10SM SCT240 09/M11 A2970 RMK AO2 T00941113EQDD01      0ADE726
0212720534001612025011718357+40017-105050FM-15+1564KEIK V0201005N005152200059N0160935N5+00875-01085999999ADDGA1045+076205999GD12991+0762059GE19AGL   +99999+99999GF104995999999076201999999MA1100585083245REMMET08701/17/25 11:35:02 METAR KEIK 171835Z 10010KT 10SM SCT250 09/M11 A2970 RMK AO2 T00871108EQDD01      0ADE726
0168720534001612025011718557+40017-105050FM-15+1564KEIK V0201005N005752200059N0160935N5+00925-01005999999ADDGA1005+999999999GD10991+9999999GF100991999999999999999999MA1100585083245REMMET08401/17/25 11:55:02 METAR KEIK 171855Z 10011KT 10SM CLR 09/M10 A2970 RMK AO2 T00921100
0168720534001612025011719157+40017-105050FM-15+1564KEIK V0201105N005152200059N0160935N5+01015-01025999999ADDGA1005+999999999GD10991+9999999GF100991999999999999999999MA1100585083245REMMET08401/17/25 12:15:02 METAR KEIK 171915Z 11010KT 10SM CLR 10/M10 A2970 RMK AO2 T01011102
0212720534001612025011719357+40017-105050FM-15+1564KEIK V0200905N00575051825MN0160935N5+99999-01065999999ADDGA1075+051825999GD13991+0518259GE19AGL   +99999+99999GF199999999999051821999999MA1100615083275REMMET08701/17/25 12:35:02 METAR KEIK 171935Z 09011KT 10SM BKN170 11/M11 A2971 RMK AO2 T01121106EQDP01 +01123ATOT  
0260720534001612025011719557+40017-105050FM-15+1564KEIK V0200605N007752200059N0144845N5+00705-00645999999ADDGA1045+048775999GA2045+070105999GD12991+0487759GD22991+0701059GE19AGL   +99999+99999GF104995999999048771999999MA1100645083305OC101295REMMET09601/17/25 12:55:02 METAR KEIK 171955Z 06015G25KT 9SM SCT160 SCT230 07/M06 A2972 RMK AO2 T00701064EQDD01      0ADE726
0254720534001612025011720157+40017-105050FM-15+1564KEIK V0200705N009852200059N0128755N5+00545-00565999999ADDGA1045+064015999GD12991+0640159GE19AGL   +99999+99999GF104995999999064011999999MA1100685083335OC101345OD149901331070REMMET10701/17/25 13:15:02 METAR KEIK 172015Z 07019G26KT 8SM SCT210 05/M06 A2973 RMK AO2 PK WND 07026/2013 T00541056EQDD01      0ADE726
0235720534001612025011720357+40017-105050FM-15+1564KEIK V0200705N00725064015MN0128755N5+00455-00525999999ADDGA1075+064015999GD13991+0640159GE19AGL   +99999+99999GF199999999999064011999999MA1100755083395OC101185OD149901331070REMMET10701/17/25 13:35:02 METAR KEIK 172035Z 07014G23KT 8SM BKN210 04/M05 A2975 RMK AO2 PK WND 07026/2021 T00451052
0203720534001612025011720557+40017-105050FM-15+1564KEIK V0200705N00825064015MN0128755N5+00375-00505999999ADDGA1075+064015999GD13991+0640159GE19AGL   +99999+99999GF199999999999064011999999MA1100815083445OC101085REMMET08901/17/25 13:55:02 METAR KEIK 172055Z 07016G21KT 8SM BKN210 04/M05 A2977 RMK AO2 T00371050
0222720534001612025011721157+40017-105050FM-15+1564KEIK V0200705N005752200059N0144845N5+00275-00485999999ADDGA1025+064015999GD11991+0640159GE19AGL   +99999+99999GF102995999999064011999999MA1100885083505OC100935REMMET08901/17/25 14:15:02 METAR KEIK 172115Z 07011G18KT 9SM FEW210 03/M05 A2979 RMK AO2 T00271048EQDD01      0ADE726
0259720534001612025011721357+40017-105050FM-15+1564KEIK V0200605N00625042675MN0160935N5+00185-00495999999ADDGA1045+008845999GA2075+042675999GD12991+0088459GD23991+0426759GE19AGL   +99999+99999GF199999999999008841999999MA1100985083595OC100935REMMET11401/17/25 14:35:02 METAR KEIK 172135Z 06012G18KT 10SM SCT029 BKN140 02/M05 A2982 RMK AO2 SCT V BKN PRESRR T00181049
0205720534001612025011721557+40017-105050FM-15+1564KEIK V0200505N00515008235MN0160935N5+00145-00485999999ADDGA1085+008235999GD14991+0082351GE19AGL   +99999+99999GF199999999999008231999999MA1101055083655REMMET09901/17/25 14:55:02 METAR KEIK 172155Z 05010KT 10SM OVC027 01/M05 A2984 RMK AO2 CIG 025V030 T00141048
0205720534001612025011722157+40017-105050FM-15+1564KEIK V0200505N00675008235MN0160935N5+00035-00575999999ADDGA1085+008235999GD14991+0082351GE19AGL   +99999+99999GF199999999999008231999999MA1101125083715REMMET09901/17/25 15:15:02 METAR KEIK 172215Z 05013KT 10SM OVC027 00/M06 A2986 RMK AO2 CIG 025V030 T00031057
0205720534001612025011722357+40017-105050FM-15+1564KEIK V0200405N00625008235MN0160935N5-00035-00635999999ADDGA1085+008235999GD14991+0082359GE19AGL   +99999+99999GF199999999999008231999999MA1101155083735OC100885REMMET09101/17/25 15:35:02 METAR KEIK 172235Z 04012G17KT 10SM OVC027 M00/M06 A2987 RMK AO2 T10031063
0206720534001612025011722557+40017-105050FM-15+1564KEIK V0200405N00575008235MN0160935N5-00065-00685999999ADDGA1085+008235999GD14991+0082351GE19AGL   +99999+99999GF199999999999008231999999MA1101195083765REMMET10001/17/25 15:55:02 METAR KEIK 172255Z 04011KT 10SM OVC027 M01/M07 A2988 RMK AO2 CIG 026V032 T10061068
0255720534001612025011723157+40017-105050FM-15+1564KEIK V0200405N00675007925MN0096565N5-00125-00725999999ADDAA101000021AU120090015AW1401AW2415GA1085+007925999GD14991+0079259GE19AGL   +99999+99999GF199999999999007921999999MA1101225083795OC100885REMMET10701/17/25 16:15:02 METAR KEIK 172315Z 04013G17KT 6SM UP OVC026 M01/M07 A2989 RMK AO2 UPB2307 P0000 T10121072
0286720534001612025011723357+40017-105050FM-15+1564KEIK V0200405N00365012505MN0040235N5-00225-00685999999ADDAA101000021AU120090015AW1401AW2415GA1025+007925999GA2085+012505999GD11991+0079259GD24991+0125059GE19AGL   +99999+99999GF199999999999007921999999MA1101255083825REMMET11501/17/25 16:35:02 METAR KEIK 172335Z 04007KT 2 1/2SM UP FEW026 OVC041 M02/M07 A2990 RMK AO2 UPB2307 P0000 T10221068
0240720534001612025011723557+40017-105050FM-15+1564KEIK V0200505N00465012805MN0028165N5-00285-00615999999ADDAA101000021AU120090015AW1401AW2415GA1085+012805999GD14991+0128059GE19AGL   +99999+99999GF199999999999012801999999MA1101295083855REMMET10001/17/25 16:55:02 METAR KEIK 172355Z 05009KT 1 3/4SM UP OVC042 M03/M06 A2991 RMK AO2 P0000 T10281061
0236720534001612025011800157+40017-105050FM-15+1564KEIK V0200405N00415013415MN0048285N5-00305-00635999999ADDAA101000021AU120090015AW1401AW2415GA1085+013415999GD14991+0134159GE19AGL   +99999+99999GF199999999999013411999999MA1101325083885REMMET09601/17/25 17:15:01 METAR KEIK 180015Z 04008KT 3SM UP OVC044 M03/M06 A2992 RMK AO2 P0000 T10301063
0244720534001612025011800357+40017-105050FM-15+1564KEIK V0200305N00365012805MN0064375N5-00295-00665999999ADDAA101000021AU100007015AW1051GA1085+012805999GD14991+0128059GE19AGL   +99999+99999GF199999999999012801999999MA1101325083885MW1055REMMET10401/17/25 17:35:01 METAR KEIK 180035Z 03007KT 4SM HZ OVC042 M03/M07 A2992 RMK AO2 UPE0028 P0000 T10291066
0219720534001612025011800557+40017-105050FM-15+1564KEIK V0200405N00365012805MN0080475N5-00295-00735999999ADDAU100007015AW1051GA1085+012805999GD14991+0128059GE19AGL   +99999+99999GF199999999999012801999999MA1101355083915MW1055REMMET09001/17/25 17:55:01 METAR KEIK 180055Z 04007KT 5SM HZ OVC042 M03/M07 A2993 RMK AO2 T10291073
0244720534001612025011801157+40017-105050FM-15+1564KEIK V0200105N00215014335MN0128755N5-00285-00755999999ADDAA101000021AU120090015AW1401AW2415GA1085+014335999GD14991+0143359GE19AGL   +99999+99999GF199999999999014331999999MA1101355083915REMMET10401/17/25 18:15:01 METAR KEIK 180115Z 01004KT 8SM UP OVC047 M03/M07 A2993 RMK AO2 UPB0113 P0000 T10281075
0282720534001612025011801357+40017-105050FM-15+1564KEIK V0200405N00415011895MN0112655N5-00305-00775999999ADDAA101000021AU120090015AW1401AW2415GA1075+011895999GA2085+014635999GD13991+0118959GD24991+0146359GE19AGL   +99999+99999GF199999999999011891999999MA1101395083945REMMET11101/17/25 18:35:01 METAR KEIK 180135Z 04008KT 7SM UP BKN039 OVC048 M03/M08 A2994 RMK AO2 UPB0113 P0000 T10301077
0237720534001612025011801557+40017-105050FM-15+1564KEIK V0200305N00415011895MN0048285N5-00355-00655999999ADDAA101000021AU110030015AW1715GA1085+011895999GD14991+0118959GE19AGL   +99999+99999GF199999999999011891999999MA1101395083945MW1715REMMET09701/17/25 18:55:01 METAR KEIK 180155Z 03008KT 3SM -SN OVC039 M04/M06 A2994 RMK AO2 P0000 T10351065
0261720534001612025011802157+40017-105050FM-15+1564KEIK V0200705N00315009755MN0040235N5-00405-00575999999ADDAA101000021AU110030015AU200001015AW1105AW2715GA1085+009755999GD14991+0097559GE19AGL   +99999+99999GF199999999999009751999999MA1101425083975MW1715REMMET10401/17/25 19:15:01 METAR KEIK 180215Z 07006KT 2 1/2SM -SN BR OVC032 M04/M06 A2995 RMK AO2 P0000 T10401057
0237720534001612025011802357+40017-105050FM-15+1564KEIK V0200505N00365007925MN0048285N5-00415-00735999999ADDAA101000021AU110030015AW1715GA1085+007925999GD14991+0079259GE19AGL   +99999+99999GF199999999999007921999999MA1101465084005MW1715REMMET09701/17/25 19:35:01 METAR KEIK 180235Z 05007KT 3SM -SN OVC026 M04/M07 A2996 RMK AO2 P0000 T10411073
0249720534001612025011802557+40017-105050FM-15+1564KEIK V0200905N00315006405MN0032195V5-00455-00715999999ADDAA101000021AU110030015AW1715GA1085+006405999GD14991+0064059GE19AGL   +99999+99999GF199999999999006401999999MA1101465084005MW1715REMMET10901/17/25 19:55:02 METAR KEIK 180255Z 09006KT 2SM -SN OVC021 M05/M07 A2996 RMK AO2 VIS 1 3/4V3 P0000 T10451071
0261720534001612025011803157+40017-105050FM-15+1564KEIK V0200605N00265006105MN0024145N5-00505-00635999999ADDAA101000021AU110030015AU200001015AW1105AW2715GA1085+006105999GD14991+0061059GE19AGL   +99999+99999GF199999999999006101999999MA1101495084035MW1715REMMET10401/17/25 20:15:02 METAR KEIK 180315Z 06005KT 1 1/2SM -SN BR OVC020 M05/M06 A2997 RMK AO2 P0000 T10501063
0261720534001612025011803357+40017-105050FM-15+1564KEIK V0200505N00215005185MN0024145N5-00525-00575999999ADDAA101000021AU110030015AU200001015AW1105AW2715GA1085+005185999GD14991+0051859GE19AGL   +99999+99999GF199999999999005181999999MA1101525084055MW1715REMMET10401/17/25 20:35:02 METAR KEIK 180335Z 05004KT 1 1/2SM -SN BR OVC017 M05/M06 A2998 RMK AO2 P0000 T10521057
0299720534001612025011803557+40017-105050FM-15+1564KEIK V0200705N00155005185MN0028165N5-00535-00565999999ADDAA101000021AU110030015AU200001015AW1105AW2715GA1045+000615999GA2085+005185999GD12991+0006159GD24991+0051859GE19AGL   +99999+99999GF199999999999000611999999MA1101565084085MW1715REMMET11101/17/25 20:55:02 METAR KEIK 180355Z 07003KT 1 3/4SM -SN BR SCT002 OVC017 M05/M06 A2999 RMK AO2 P0000 T10531056
0295720534001612025011804157+40017-105050FM-15+1564KEIK V0200405N00215000615MN0016095N5-00535-00555999999ADDAA101000021AU110030015AU200001015AW1105AW2715GA1075+000615999GA2085+003055999GD13991+0006159GD24991+0030559GE19AGL   +99999+99999GF199999999999000611999999MA1101595084115MW1715REMMET10701/17/25 21:15:02 METAR KEIK 180415Z 04004KT 1SM -SN BR BKN002 OVC010 M05/M06 A3000 RMK AO2 P0000 T10531055
0299720534001612025011804357+40017-105050FM-15+1564KEIK V0200405N00365000615MN0024145N5-00685-00745999999ADDAA101000021AU110030015AU200001015AW1105AW2715GA1075+000615999GA2085+002135999GD13991+0006159GD24991+0021359GE19AGL   +99999+99999GF199999999999000611999999MA1101635084145MW1715REMMET11101/17/25 21:35:02 METAR KEIK 180435Z 04007KT 1 1/2SM -SN BR BKN002 OVC007 M07/M07 A3001 RMK AO2 P0000 T10681074
0299720534001612025011804557+40017-105050FM-15+1564KEIK V0200305N00315004575MN0024145N5-00685-00735999999ADDAA101000021AU110030015AU200001015AW1105AW2715GA1045+000615999GA2085+004575999GD12991+0006159GD24991+0045759GE19AGL   +99999+99999GF199999999999000611999999MA1101665084175MW1715REMMET11101/17/25 21:55:02 METAR KEIK 180455Z 03006KT 1 1/2SM -SN BR SCT002 OVC015 M07/M07 A3002 RMK AO2 P0000 T10681073
0305720534001612025011805157+40017-105050FM-15+1564KEIK V0200105N00155000615MN0032195N5-00665-00725999999ADDAA101000021AU110030015AU200001015AW1105AW2715GA1075+000615999GA2085+002135999GD13991+0006159GD24991+0021359GE19AGL   +99999+99999GF199999999999000611999999MA1101695084205MW1715REMMET11701/17/25 22:15:02 METAR KEIK 180515Z 01003KT 2SM -SN BR BKN002 OVC007 M07/M07 A3003 RMK AO2 OVC V BKN P0000 T10661072
0337720534001612025011805357+40017-105050FM-15+1564KEIK V0200205N00215002135MN0040235N5-00685-00725999999ADDAA101000021AU110030015AU200001015AW1105AW2715GA1045+000615999GA2075+002135999GA3085+003665999GD12991+0006159GD23991+0021359GD34991+0036659GE19AGL   +99999+99999GF199999999999000611999999MA1101695084205MW1715REMMET11801/17/25 22:35:02 METAR KEIK 180535Z 02004KT 2 1/2SM -SN BR SCT002 BKN007 OVC012 M07/M07 A3003 RMK AO2 P0000 T10681072
0299720534001612025011805557+40017-105050FM-15+1564KEIK V0200405N00155000615MN0040235N5-00735-00795999999ADDAA101000021AU110030015AU200001015AW1105AW2715GA1075+000615999GA2085+003965999GD13991+0006159GD24991+0039659GE19AGL   +99999+99999GF199999999999000611999999MA1101735084235MW1715REMMET11101/17/25 22:55:02 METAR KEIK 180555Z 04003KT 2 1/2SM -SN BR BKN002 OVC013 M07/M08 A3004 RMK AO2 P0000 T10731079
0343720534001612025011806157+40017-105050FM-15+1564KEIK V0200805N00315004885MN0064375N5-00765-00845999999ADDAA101000021AU110030015AU200001015AW1105AW2715GA1045+000915999GA2075+004885999GA3085+006405999GD12991+0009159GD23991+0048859GD34991+0064059GE19AGL   +99999+99999GF199999999999000911999999MA1101735084235MW1715REMMET12401/17/25 23:15:02 METAR KEIK 180615Z 08006KT 4SM -SN BR SCT003 BKN016 OVC021 M08/M08 A3004 RMK AO2 BKN V SCT P0000 T10761084
0348720534001612025011806357+40017-105050FM-15+1564KEIK V0200805N00215004575MN0048285N5-00775-00845999999ADDAA101000021AW1101AW2711GA1025+000615999GA2045+001835999GA3075+004575999GD11991+0006151GD22991+0018359GD33991+0045759GD44991+0067119GE19AGL   +99999+99999GF199999999999000611999999MA1101695084205MW1715REMMET13601/17/25 23:35:02 METAR KEIK 180635Z 08004KT 3SM -SN BR FEW002 SCT006 BKN015 M08/M08 A3003 RMK AO2 CIG 014V019 FEW V SCT P0000 T10771084
0355720534001612025011806557+40017-105050FM-15+1564KEIK V0200505N00155005185MN0048285N5-00785-00865999999ADDAA101000021AU110030015AU200001015AW1105AW2715GA1025+000615999GA2045+001835999GA3085+005185999GD11991+0006151GD22991+0018359GD34991+0051859GE19AGL   +99999+99999GF199999999999000611999999MA1101695084205MW1715REMMET13601/17/25 23:55:02 METAR KEIK 180655Z 05003KT 3SM -SN BR FEW002 SCT006 OVC017 M08/M09 A3003 RMK AO2 CIG 011V021 FEW V SCT P0000 T10781086
005172053400161202501180659O+40017-105050SOD  +1564KEIK V020999999999999999999999999999+99999+99999999999ADDAT1AU18SN  5AT2AU13BR  5AT3AU19UP  5AT4AU08HZ  5
0337720534001612025011807157+40017-105050FM-15+1564KEIK V0209999C00005003665MN0040235N5-00785-00845999999ADDAA101000231AU110030015AU200001015AW1105AW2715GA1045+000615999GA2075+003665999GA3085+005495999GD12991+0006159GD23991+0036659GD34991+0054959GE19AGL   +99999+99999GF199999999999000611999999MA1101695084205MW1715REMMET11801/18/25 00:15:02 METAR KEIK 180715Z 00000KT 2 1/2SM -SN BR SCT002 BKN012 OVC018 M08/M08 A3003 RMK AO2 P0001 T10781084
0350720534001612025011807357+40017-105050FM-15+1564KEIK V0200605N00155000615MN0028165N5-00795-00845999999ADDAA101000395AU110030015AU200001015AW1105AW2715GA1075+000615999GA2075+002135999GA3085+003665999GD13991+0006159GD23991+0021359GD34991+0036659GE19AGL   +99999+99999GF199999999999000611999999MA1101665084175MW1715REMMET13101/18/25 00:35:02 METAR KEIK 180735Z 06003KT 1 3/4SM -SN BR BKN002 BKN007 OVC012 M08/M08 A3002 RMK AO2 BKN007 V OVC P0001 T10791084
0271720534001612025011807557+40017-105050FM-15+1564KEIK V0200405N00155000915MN0040235N5-00795-00845999999ADDAA101000021AU110030015AU200001015AW1105AW2715GA1085+000915999GD14991+0009159GE19AGL   +99999+99999GF199999999999000911999999MA1101665084175MW1715REMMET11401/18/25 00:55:02 METAR KEIK 180755Z 04003KT 2 1/2SM -SN BR OVC003 M08/M08 A3002 RMK AO2 OVC V BKN P0000 T10791084
0295720534001612025011808157+40017-105050FM-15+1564KEIK V0209999C00005004885MN0064375N5-00815-00865999999ADDAA101000595AU110030015AU200001015AW1105AW2715GA1045+001225999GA2085+004885999GD12991+0012259GD24991+0048859GE19AGL   +99999+99999GF199999999999001221999999MA1101665084175MW1715REMMET10701/18/25 01:15:02 METAR KEIK 180815Z 00000KT 4SM -SN BR SCT004 OVC016 M08/M09 A3002 RMK AO2 P0002 T10811086
0297720534001612025011808357+40017-105050FM-15+1564KEIK V0200105N00315000915MN0012075N5-00815-00895999999ADDAA101000595AU110030015AU200001015AW1105AW2715GA1075+000915999GA2085+004575999GD13991+0009159GD24991+0045759GE19AGL   +99999+99999GF199999999999000911999999MA1101695084205MW1715REMMET10901/18/25 01:35:02 METAR KEIK 180835Z 01006KT 3/4SM -SN BR BKN003 OVC015 M08/M09 A3003 RMK AO2 P0002 T10811089
0305720534001612025011808557+40017-105050FM-15+1564KEIK V0203605N00315000615MN0048285N5-00845-00925999999ADDAA101000021AU110030015AU200001015AW1105AW2715GA1075+000615999GA2085+001835999GD13991+0006159GD24991+0018359GE19AGL   +99999+99999GF199999999999000611999999MA1101665084175MW1715REMMET11701/18/25 01:55:02 METAR KEIK 180855Z 36006KT 3SM -SN BR BKN002 OVC006 M08/M09 A3002 RMK AO2 OVC V BKN P0000 T10841092
0311720534001612025011809157+40017-105050FM-15+1564KEIK V0200105N00415000615MN0040235N5-00875-00965999999ADDAA101000021AU110030015AU200001015AW1105AW2715GA1075+000615999GA2085+001835999GD13991+0006151GD24991+0018359GE19AGL   +99999+99999GF199999999999000611999999MA1101695084205MW1715REMMET12301/18/25 02:15:02 METAR KEIK 180915Z 01008KT 2 1/2SM -SN BR BKN002 OVC006 M09/M10 A3003 RMK AO2 CIG 002V005 P0000 T10871096
0307720534001612025011809357+40017-105050FM-15+1564KEIK V0200205N00465002135MN0048285N5-00905-01005999999ADDAA101000021AU110030015AU200001015AW1105AW2715GA1045+000615999GA2085+002135999GD12991+0006151GD24991+0021359GE19AGL   +99999+99999GF199999999999000611999999MA1101735084235MW1715REMMET11901/18/25 02:35:02 METAR KEIK 180935Z 02009KT 3SM -SN BR SCT002 OVC007 M09/M10 A3004 RMK AO2 CIG 006V010 P0000 T10901100
0311720534001612025011809557+40017-105050FM-15+1564KEIK V0200205N00365000615MN0040235N5-00915-01005999999ADDAA101000021AU110030015AU200001015AW1105AW2715GA1075+000615999GA2085+001835999GD13991+0006151GD24991+0018359GE19AGL   +99999+99999GF199999999999000611999999MA1101735084235MW1715REMMET12301/18/25 02:55:02 METAR KEIK 180955Z 02007KT 2 1/2SM -SN BR BKN002 OVC006 M09/M10 A3004 RMK AO2 CIG 002V005 P0000 T10911100
0311720534001612025011810157+40017-105050FM-15+1564KEIK V0200105N00315001225MN0040235N5-00915-01015999999ADDAA101000021AU110030015AU200001015AW1105AW2715GA1075+001225999GA2085+002745999GD13991+0012251GD24991+0027459GE19AGL   +99999+99999GF199999999999001221999999MA1101765084265MW1715REMMET12301/18/25 03:15:02 METAR KEIK 181015Z 01006KT 2 1/2SM -SN BR BKN004 OVC009 M09/M10 A3005 RMK AO2 CIG 002V006 P0000 T10911101
0307720534001612025011810357+40017-105050FM-15+1564KEIK V0203605N00265001225MN0080475N5-00925-01015999999ADDAA101000021AU110030015AU200001015AW1105AW2715GA1075+001225999GA2085+003665999GD13991+0012251GD24991+0036659GE19AGL   +99999+99999GF199999999999001221999999MA1101765084265MW1715REMMET11901/18/25 03:35:02 METAR KEIK 181035Z 36005KT 5SM -SN BR BKN004 OVC012 M09/M10 A3005 RMK AO2 CIG 002V008 P0000 T10921101
0307720534001612025011810557+40017-105050FM-15+1564KEIK V0203505N00155004275MN0048285N5-00915-01005999999ADDAA101000021AU110030015AU200001015AW1105AW2715GA1045+001225999GA2085+004275999GD12991+0012251GD24991+0042759GE19AGL   +99999+99999GF199999999999001221999999MA1101765084265MW1715REMMET11901/18/25 03:55:02 METAR KEIK 181055Z 35003KT 3SM -SN BR SCT004 OVC014 M09/M10 A3005 RMK AO2 CIG 011V017 P0000 T10911100
0317720534001612025011811157+40017-105050FM-15+1564KEIK V0203605N00315001225MN0064375N5-00945-01045999999ADDAA101000021AU110030015AU200001015AW1105AW2715GA1075+001225999GA2085+004575999GD13991+0012251GD24991+0045759GE19AGL   +99999+99999GF199999999999001221999999MA1101795084295MW1715REMMET12901/18/25 04:15:02 METAR KEIK 181115Z 36006KT 4SM -SN BR BKN004 OVC015 M09/M10 A3006 RMK AO2 CIG 002V006 BKN V SCT P0000 T10941104
0313720534001612025011811357+40017-105050FM-15+1564KEIK V0200105N00215003665MN0112655N5-00975-01075999999ADDAA101000021AU110030015AW1715GA1045+000915999GA2075+003665999GA3085+004885999GD12991+0009159GD23991+0036659GD34991+0048859GE19AGL   +99999+99999GF199999999999000911999999MA1101795084295MW1715REMMET11101/18/25 04:35:02 METAR KEIK 181135Z 01004KT 7SM -SN SCT003 BKN012 OVC016 M10/M11 A3006 RMK AO2 P0000 T10971107
0269720534001612025011811557+40017-105050FM-15+1564KEIK V0203405N00215003965MN0128755N5-01015-01085999999ADDGA1075+003965999GA2075+006105999GA3085+015245999GD13991+0039659GD23991+0061059GD34991+0152459GE19AGL   +99999+99999GF199999999999003961999999MA1101835084325REMMET10101/18/25 04:55:02 METAR KEIK 181155Z 34004KT 8SM BKN013 BKN020 OVC050 M10/M11 A3007 RMK AO2 T11011108
0341720534001612025011812157+40017-105050FM-15+1564KEIK V0203405N00265001835MN0048285N5-00965-01065999999ADDAA101000021AU110030015AU200001015AW1105AW2715GA1075+001835999GA2075+004275999GA3085+006715999GD13991+0018359GD23991+0042759GD34991+0067159GE19AGL   +99999+99999GF199999999999001831999999MA1101835084325MW1715REMMET12201/18/25 05:15:02 METAR KEIK 181215Z 34005KT 3SM -SN BR BKN006 BKN014 OVC022 M10/M11 A3007 RMK AO2 SNB1201 P0000 T10961106
0319720534001612025011812357+40017-105050FM-15+1564KEIK V0203605N00265001835MN0040235N5-00965-01075999999ADDAA101000021AU110030015AU200001015AW1105AW2715GA1075+001835999GA2085+003355999GD13991+0018351GD24991+0033559GE19AGL   +99999+99999GF199999999999001831999999MA1101865084345MW1715REMMET13101/18/25 05:35:02 METAR KEIK 181235Z 36005KT 2 1/2SM -SN BR BKN006 OVC011 M10/M11 A3008 RMK AO2 SNB1201 CIG 002V009 P0000 T10961107
0295720534001612025011812557+40017-105050FM-15+1564KEIK V0203605N00215003055MN0048285N5-00985-01105999999ADDAA101000021AU110030015AU200001015AW1105AW2715GA1025+000615999GA2085+003055999GD11991+0006159GD24991+0030559GE19AGL   +99999+99999GF199999999999000611999999MA1101935084405MW1715REMMET10701/18/25 05:55:02 METAR KEIK 181255Z 36004KT 3SM -SN BR FEW002 OVC010 M10/M11 A3010 RMK AO2 P0000 T10981110
0327720534001612025011813157+40017-105050FM-15+1564KEIK V0200205N00265004575MN0144845N5-01035-01195999999ADDAA101000021AW1711GA1025+000615999GA2045+003055999GA3075+004575999GD11991+0006159GD22991+0030559GD33991+0045759GD43991+0061019GE19AGL   +99999+99999GF199999999999000611999999MA1101965084435MW1715REMMET12101/18/25 06:15:02 METAR KEIK 181315Z 02005KT 9SM -SN FEW002 SCT010 BKN015 M10/M12 A3011 RMK AO2 FEW V SCT P0000 T11031119
0323720534001612025011813357+40017-105050FM-15+1564KEIK V0200305N00465013725MN0144845N5-01065-01275999999ADDAA101000021AU110030015AW1715GA1025+003965999GA2045+005795999GA3085+013725999GD11991+0039659GD22991+0057959GD34991+0137259GE19AGL   +99999+99999GF199999999999003961999999MA1102005084465MW1715REMMET12101/18/25 06:35:02 METAR KEIK 181335Z 03009KT 9SM -SN FEW013 SCT019 OVC045 M11/M13 A3012 RMK AO2 FEW V SCT P0000 T11061127
0323720534001612025011813557+40017-105050FM-15+1564KEIK V0200205N00265013115MN0112655N5-01085-01235999999ADDAA101000021AU110030015AW1715GA1025+006105999GA2045+007625999GA3085+013115999GD11991+0061059GD22991+0076259GD34991+0131159GE19AGL   +99999+99999GF199999999999006101999999MA1102035084495MW1715REMMET12101/18/25 06:55:02 METAR KEIK 181355Z 02005KT 7SM -SN FEW020 SCT025 OVC043 M11/M12 A3013 RMK AO2 FEW V SCT P0000 T11081123
0261720534001612025011814157+40017-105050FM-15+1564KEIK V0200105N00265012195MN0040235N5-01115-01285999999ADDAA101000021AU110030015AU200001015AW1105AW2715GA1085+012195999GD14991+0121959GE19AGL   +99999+99999GF199999999999012191999999MA1102035084495MW1715REMMET10401/18/25 07:15:02 METAR KEIK 181415Z 01005KT 2 1/2SM -SN BR OVC040 M11/M13 A3013 RMK AO2 P0000 T11111128
0238720534001612025011814357+40017-105050FM-15+1564KEIK V0200205N00315015245MN0032195N5-01145-01335999999ADDAA101000021AU100001015AW1105GA1085+015245999GD14991+0152459GE19AGL   +99999+99999GF199999999999015241999999MA1102075084525REMMET10401/18/25 07:35:02 METAR KEIK 181435Z 02006KT 2SM BR OVC050 M11/M13 A3014 RMK AO2 SNE1424 P0000 T11141133
0255720534001612025011814557+40017-105050FM-15+1564KEIK V0200105N00215007325MN0024145N5-01155-01325999999ADDAU100001015AW1105GA1075+007325999GA2085+016765999GD13991+0073259GD24991+0167659GE19AGL   +99999+99999GF199999999999007321999999MA1102105084555REMMET10101/18/25 07:55:02 METAR KEIK 181455Z 01004KT 1 1/2SM BR BKN024 OVC055 M12/M13 A3015 RMK AO2 T11151132
0255720534001612025011815157+40017-105050FM-15+1564KEIK V0203505N00155007325MN0040235N5-01155-01315999999ADDAU100001015AW1105GA1075+007325999GA2085+014335999GD13991+0073259GD24991+0143359GE19AGL   +99999+99999GF199999999999007321999999MA1102135084585REMMET10101/18/25 08:15:02 METAR KEIK 181515Z 35003KT 2 1/2SM BR BKN024 OVC047 M11/M13 A3016 RMK AO2 T11151131
0314720534001612025011815357+40017-105050FM-15+1564KEIK V0203205N00215012195MN0144845N5-01225-01355999999ADDAA101000021GA1025+006715999GA2075+012195999GA3075+014335999GD11991+0067159GD23991+0121959GD33991+0143359GD44991+0182919GE19AGL   +99999+99999GF199999999999006711999999MA1102175084615REMMET12001/18/25 08:35:02 METAR KEIK 181535Z 32004KT 9SM FEW022 BKN040 BKN047 M12/M14 A3017 RMK AO2 SNB1520E1529 P0000 T11221135
0289720534001612025011815557+40017-105050FM-15+1564KEIK V0209999C00005018295MN0096565N5-01145-01325999999ADDAU100001015AW1105GA1025+005495999GA2045+012505999GA3075+018295999GD11991+0054959GD22991+0125059GD33991+0182959GE19AGL   +99999+99999GF199999999999005491999999MA1102205084645REMMET10401/18/25 08:55:02 METAR KEIK 181555Z 00000KT 6SM BR FEW018 SCT041 BKN060 M11/M13 A3018 RMK AO2 T11141132
0341720534001612025011816157+40017-105050FM-15+1564KEIK V0209999V00215005495MN0080475N5-01105-01315999999ADDAA101000021AU110030015AU200001015AW1105AW2715GA1075+005495999GA2075+007015999GA3085+018295999GD13991+0054959GD23991+0070159GD34991+0182959GE19AGL   +99999+99999GF199999999999005491999999MA1102245084665MW1715REMMET12201/18/25 09:15:02 METAR KEIK 181615Z VRB04KT 5SM -SN BR BKN018 BKN023 OVC060 M11/M13 A3019 RMK AO2 SNB1605 P0000 T11101131
0321720534001612025011816357+40017-105050FM-15+1564KEIK V0203605N00415004885MN0048285N5-01105-01355999999ADDAA101000021AU110030015AW1715GA1075+004885999GA2075+007625999GA3085+009755999GD13991+0048859GD23991+0076259GD34991+0097559GE19AGL   +99999+99999GF199999999999004881999999MA1102275084695MW1715REMMET11901/18/25 09:35:02 METAR KEIK 181635Z 36008KT 3SM -SN BKN016 BKN025 OVC032 M11/M13 A3020 RMK AO2 SNB1605 P0000 T11101135
0294720534001612025011816557+40017-105050FM-15+1564KEIK V0200305N00315008235MN0128755N5-01095-01365999999ADDGA1025+003055999GA2045+004575999GA3075+008235999GD11991+0030559GD22991+0045759GD33991+0082359GD43991+0106719GE19AGL   +99999+99999GF199999999999003051999999MA1102305084725REMMET11101/18/25 09:55:02 METAR KEIK 181655Z 03006KT 8SM FEW010 SCT015 BKN027 M11/M14 A3021 RMK AO2 FEW V SCT T11091136
0285720534001612025011817157+40017-105050FM-15+1564KEIK V0200505N00365010675MN0160935N5-01115-01385999999ADDGA1045+004275999GA2045+008845999GA3075+010675999GD12991+0042759GD22991+0088459GD33991+0106759GD43991+0137219GE19AGL   +99999+99999GF199999999999004271999999MA1102345084755REMMET10201/18/25 10:15:02 METAR KEIK 181715Z 05007KT 10SM SCT014 SCT029 BKN035 M11/M14 A3022 RMK AO2 T11111138
0315720534001612025011817357+40017-105050FM-15+1564KEIK V0200505N00265004275MN0160935N5-01115-01355999999ADDAA101000021GA1045+001525999GA2075+004275999GA3075+008845999GD12991+0015259GD23991+0042759GD33991+0088459GD44991+0167619GE19AGL   +99999+99999GF199999999999001521999999MA1102375084785REMMET12101/18/25 10:35:02 METAR KEIK 181735Z 05005KT 10SM SCT005 BKN014 BKN029 M11/M14 A3023 RMK AO2 SNB1721E1728 P0000 T11111135
0314720534001612025011817557+40017-105050FM-15+1564KEIK V0200505N00315003965MN0160935N5-01145-01425999999ADDAA101000021AU110030015AW1715GA1025+001835999GA2075+003965999GA3085+008845999GD11991+0018359GD23991+0039659GD34991+0088459GE19AGL   +99999+99999GF199999999999001831999999MA1102375084785MW1715REMMET11201/18/25 10:55:02 METAR KEIK 181755Z 05006KT 10SM -SN FEW006 BKN013 OVC029 M11/M14 A3023 RMK AO2 P0000 T11141142
0327720534001612025011818157+40017-105050FM-15+1564KEIK V0200405N002652200059N0096565N5-01145-01395999999ADDAA101000021AW1711GA1025+001225999GA2045+004575999GA3045+006105999GD11991+0012259GD22991+0045759GD32991+0061059GD44991+0097519GE19AGL   +99999+99999GF199999999999001221999999MA1102345084755MW1715REMMET12101/18/25 11:15:02 METAR KEIK 181815Z 04005KT 6SM -SN FEW004 SCT015 SCT020 M11/M14 A3022 RMK AO2 FEW V SCT P0000 T11141139
0326720534001612025011818357+40017-105050FM-15+1564KEIK V0200805N00265001225MN0096565N5-01115-01365999999ADDAA101000021AU110030015AW1715GA1075+001225999GA2075+002745999GA3085+010065999GD13991+0012259GD23991+0027459GD34991+0100659GE19AGL   +99999+99999GF199999999999001221999999MA1102345084755MW1715REMMET12401/18/25 11:35:02 METAR KEIK 181835Z 08005KT 6SM -SN BKN004 BKN009 OVC033 M11/M14 A3022 RMK AO2 BKN009 V OVC P0000 T11111136
0261720534001612025011818557+40017-105050FM-15+1564KEIK V0200605N00365011895MN0040235N5-01115-01395999999ADDAU100007015AW1051GA1025+000615999GA2085+011895999GD11991+0006159GD24991+0118959GE19AGL   +99999+99999GF199999999999000611999999MA1102345084755MW1055REMMET10101/18/25 11:55:02 METAR KEIK 181855Z 06007KT 2 1/2SM HZ FEW002 OVC039 M11/M14 A3022 RMK AO2 T11111139
0329720534001612025011819157+40017-105050FM-15+1564KEIK V0200705N00315009755MN0064375N5-01115-01385999999ADDAA101000021AW1051GA1045+001525999GA2045+003355999GA3075+009755999GD12991+0015259GD22991+0033559GD33991+0097559GD44991+0118919GE19AGL   +99999+99999GF199999999999001521999999MA1102305084725MW1055REMMET12301/18/25 12:15:02 METAR KEIK 181915Z 07006KT 4SM HZ SCT005 SCT011 BKN032 M11/M14 A3021 RMK AO2 SNB1859E1911 P0000 T11111138
0325720534001612025011819357+40017-105050FM-15+1564KEIK V0200505N00315006105MN0160935N5-01115-01395999999ADDAA101000021GA1025+000915999GA2045+003355999GA3075+006105999GD11991+0009159GD22991+0033559GD33991+0061059GD44991+0076219GE19AGL   +99999+99999GF199999999999000911999999MA1102305084725REMMET13101/18/25 12:35:02 METAR KEIK 181935Z 05006KT 10SM FEW003 SCT011 BKN020 M11/M14 A3021 RMK AO2 SNB1859E1911 FEW V SCT P0000 T11111139
0285720534001612025011819557+40017-105050FM-15+1564KEIK V0200405N00315004885MN0160935N5-01115-01445999999ADDGA1025+002745999GA2075+004885999GA3075+006715999GD11991+0027459GD23991+0048859GD33991+0067159GD44991+0140219GE19AGL   +99999+99999GF199999999999002741999999MA1102305084725REMMET10201/18/25 12:55:02 METAR KEIK 181955Z 04006KT 10SM FEW009 BKN016 BKN022 M11/M14 A3021 RMK AO2 T11111144
0231720534001612025011820157+40017-105050FM-15+1564KEIK V0200505N00265008235MN0144845N5-01115-01475999999ADDGA1025+004885999GA2085+008235999GD11991+0048859GD24991+0082359GE19AGL   +99999+99999GF199999999999004881999999MA1102305084725REMMET09401/18/25 13:15:02 METAR KEIK 182015Z 05005KT 9SM FEW016 OVC027 M11/M15 A3021 RMK AO2 T11111147
0269720534001612025011820357+40017-105050FM-15+1564KEIK V0209999V00215004885MN0144845N5-01115-01405999999ADDGA1025+001525999GA2075+004885999GA3085+008535999GD11991+0015259GD23991+0048859GD34991+0085359GE19AGL   +99999+99999GF199999999999001521999999MA1102305084725REMMET10101/18/25 13:35:02 METAR KEIK 182035Z VRB04KT 9SM FEW005 BKN016 OVC028 M11/M14 A3021 RMK AO2 T11111140
0280720534001612025011820557+40017-105050FM-15+1564KEIK V0200405N00265004885MN0160935N5-01115-01445999999ADDGA1045+002135999GA2075+004885999GA3085+007015999GD12991+0021359GD23991+0048859GD34991+0070159GE19AGL   +99999+99999GF199999999999002131999999MA1102305084725REMMET11201/18/25 13:55:02 METAR KEIK 182055Z 04005KT 10SM SCT007 BKN016 OVC023 M11/M14 A3021 RMK AO2 OVC V BKN T11111144
0314720534001612025011821157+40017-105050FM-15+1564KEIK V0200405N00415002745MN0128755N5-01125-01495999999ADDAA101000021GA1025+001225999GA2075+002745999GA3075+007015999GD11991+0012259GD23991+0027459GD33991+0070159GD44991+0118919GE19AGL   +99999+99999GF199999999999001221999999MA1102345084755REMMET12001/18/25 14:15:02 METAR KEIK 182115Z 04008KT 8SM FEW004 BKN009 BKN023 M11/M15 A3022 RMK AO2 SNB2056E2110 P0000 T11121149
0262720534001612025011821357+40017-105050FM-15+1564KEIK V0200405N00265002445MN0160935N5-01125-01475999999ADDAA101000021GA1075+002445999GA2085+012805999GD13991+0024459GD24991+0128059GE19AGL   +99999+99999GF199999999999002441999999MA1102345084755REMMET11401/18/25 14:35:02 METAR KEIK 182135Z 04005KT 10SM BKN008 OVC042 M11/M15 A3022 RMK AO2 SNB2056E2110 P0000 T11121147
0270720534001612025011821557+40017-105050FM-15+1564KEIK V0200405N00265011585MN0160935N5-01125-01615999999ADDGA1045+001835999GA2045+003055999GA3085+011585999GD12991+0018359GD22991+0030559GD34991+0115859GE19AGL   +99999+99999GF199999999999001831999999MA1102345084755REMMET10201/18/25 14:55:02 METAR KEIK 182155Z 04005KT 10SM SCT006 SCT010 OVC038 M11/M16 A3022 RMK AO2 T11121161
0232720534001612025011822157+40017-105050FM-15+1564KEIK V0200505N00265012195MN0160935N5-01135-01615999999ADDGA1075+012195999GA2085+014335999GD13991+0121959GD24991+0143359GE19AGL   +99999+99999GF199999999999012191999999MA1102375084785REMMET09501/18/25 15:15:02 METAR KEIK 182215Z 05005KT 10SM BKN040 OVC047 M11/M16 A3023 RMK AO2 T11131161
0270720534001612025011822357+40017-105050FM-15+1564KEIK V0200605N00155011895MN0160935N5-01135-01625999999ADDGA1025+008535999GA2075+011895999GA3085+014635999GD11991+0085359GD23991+0118959GD34991+0146359GE19AGL   +99999+99999GF199999999999008531999999MA1102375084785REMMET10201/18/25 15:35:02 METAR KEIK 182235Z 06003KT 10SM FEW028 BKN039 OVC048 M11/M16 A3023 RMK AO2 T11131162
0232720534001612025011822557+40017-105050FM-15+1564KEIK V0209999C00005012805MN0160935N5-01125-01575999999ADDGA1025+010675999GA2085+012805999GD11991+0106759GD24991+0128059GE19AGL   +99999+99999GF199999999999010671999999MA1102405084815REMMET09501/18/25 15:55:02 METAR KEIK 182255Z 00000KT 10SM FEW035 OVC042 M11/M16 A3024 RMK AO2 T11121157
0245720534001612025011823157+40017-105050FM-15+1564KEIK V0200505N00215011895MN0064375N5-01155-01545999999ADDAA101000021AU110030015AW1715GA1085+011895999GD14991+0118959GE19AGL   +99999+99999GF199999999999011891999999MA1102445084845MW1715REMMET10501/18/25 16:15:02 METAR KEIK 182315Z 05004KT 4SM -SN OVC039 M11/M15 A3025 RMK AO2 SNB2300 P0000 T11151154
0245720534001612025011823357+40017-105050FM-15+1564KEIK V0200405N00265009755MN0064375N5-01185-01555999999ADDAA101000021AU110030015AW1715GA1085+009755999GD14991+0097559GE19AGL   +99999+99999GF199999999999009751999999MA1102475084875MW1715REMMET10501/18/25 16:35:02 METAR KEIK 182335Z 04005KT 4SM -SN OVC032 M12/M15 A3026 RMK AO2 SNB2300 P0000 T11181155
0193720534001612025011823557+40017-105050FM-15+1564KEIK V0200605N00155007625MN0144845N5-01225-01625999999ADDGA1085+007625999GD14991+0076259GE19AGL   +99999+99999GF199999999999007621999999MA1102475084875REMMET08701/18/25 16:55:02 METAR KEIK 182355Z 06003KT 9SM OVC025 M12/M16 A3026 RMK AO2 T11221162
0193720534001612025011900157+40017-105050FM-15+1564KEIK V0200705N00155007015MN0128755N5-01295-01655999999ADDGA1085+007015999GD14991+0070159GE19AGL   +99999+99999GF199999999999007011999999MA1102515084905REMMET08701/18/25 17:15:01 METAR KEIK 190015Z 07003KT 8SM OVC023 M13/M17 A3027 RMK AO2 T11291165
0204720534001612025011900357+40017-105050FM-15+1564KEIK V0200905N00155006715MN0160935N5-01515-01805999999ADDGA1075+006715999GD13991+0067159GE19AGL   +99999+99999GF199999999999006711999999MA1102515084905REMMET09801/18/25 17:35:01 METAR KEIK 190035Z 09003KT 10SM BKN022 M15/M18 A3027 RMK AO2 BKN V OVC T11511180
0213720534001612025011900557+40017-105050FM-15+1564KEIK V0209999C000052200059N0160935N5-01825-02005999999ADDGA1045+006715999GD12991+0067159GE19AGL   +99999+99999GF104995999999006711999999MA1102545084935REMMET08801/18/25 17:55:01 METAR KEIK 190055Z 00000KT 10SM SCT022 M18/M20 A3028 RMK AO2 T11821200EQDD01      0ADE726
0169720534001612025011901157+40017-105050FM-15+1564KEIK V0209999C000052200059N0160935N5-01855-02005999999ADDGA1005+999999999GD10991+9999999GF100991999999999999999999MA1102575084965REMMET08501/18/25 18:15:01 METAR KEIK 190115Z 00000KT 10SM CLR M18/M20 A3029 RMK AO2 T11851200
0169720534001612025011901357+40017-105050FM-15+1564KEIK V0209999C000052200059N0160935N5-01855-01945999999ADDGA1005+999999999GD10991+9999999GF100991999999999999999999MA1102575084965REMMET08501/18/25 18:35:01 METAR KEIK 190135Z 00000KT 10SM CLR M18/M19 A3029 RMK AO2 T11851194
0169720534001612025011901557+40017-105050FM-15+1564KEIK V0201905N001552200059N0160935N5-01935-02025999999ADDGA1005+999999999GD10991+9999999GF100991999999999999999999MA1102575084965REMMET08501/18/25 18:55:01 METAR KEIK 190155Z 19003KT 10SM CLR M19/M20 A3029 RMK AO2 T11931202
0169720534001612025011902157+40017-105050FM-15+1564KEIK V0209999C000052200059N0160935N5-02065-02165999999ADDGA1005+999999999GD10991+9999999GF100991999999999999999999MA1102615084985REMMET08501/18/25 19:15:01 METAR KEIK 190215Z 00000KT 10SM CLR M21/M22 A3030 RMK AO2 T12061216
0169720534001612025011902357+40017-105050FM-15+1564KEIK V0209999C000052200059N0160935N5-02095-02225999999ADDGA1005+999999999GD10991+9999999GF100991999999999999999999MA1102615084985REMMET08501/18/25 19:35:01 METAR KEIK 190235Z 00000KT 10SM CLR M21/M22 A3030 RMK AO2 T12091222
0169720534001612025011902557+40017-105050FM-15+1564KEIK V0209999C000052200059N0160935N5-02075-02185999999ADDGA1005+999999999GD10991+9999999GF100991999999999999999999MA1102575084965REMMET08501/18/25 19:55:01 METAR KEIK 190255Z 00000KT 10SM CLR M21/M22 A3029 RMK AO2 T12071218
0213720534001612025011903157+40017-105050FM-15+1564KEIK V0209999C000052200059N0160935N5-02085-02205999999ADDGA1025+003055999GD11991+0030559GE19AGL   +99999+99999GF102995999999003051999999MA1102575084965REMMET08801/18/25 20:15:02 METAR KEIK 190315Z 00000KT 10SM FEW010 M21/M22 A3029 RMK AO2 T12081220EQDD01      0ADE726
0169720534001612025011903357+40017-105050FM-15+1564KEIK V0209999C000052200059N0160935N5-02325-02515999999ADDGA1005+999999999GD10991+9999999GF100991999999999999999999MA1102575084965REMMET08501/18/25 20:35:02 METAR KEIK 190335Z 00000KT 10SM CLR M23/M25 A3029 RMK AO2 T12321251
0194720534001612025011903557+40017-105050FM-15+1564KEIK V0209999C00005008535MN0160935N5-02135-02295999999ADDGA1075+008535999GD13991+0085359GE19AGL   +99999+99999GF199999999999008531999999MA1102575084965REMMET08801/18/25 20:55:02 METAR KEIK 190355Z 00000KT 10SM BKN028 M21/M23 A3029 RMK AO2 T12131229
0206720534001612025011904157+40017-105050FM-15+1564KEIK V0209999C00005007625MN0160935N5-01895-02025999999ADDGA1085+007625999GD14991+0076251GE19AGL   +99999+99999GF199999999999007621999999MA1102575084965REMMET10001/18/25 21:15:02 METAR KEIK 190415Z 00000KT 10SM OVC025 M19/M20 A3029 RMK AO2 CIG 024V029 T11891202
0194720534001612025011904357+40017-105050FM-15+1564KEIK V0209999C00005007625MN0160935N5-01795-01915999999ADDGA1085+007625999GD14991+0076259GE19AGL   +99999+99999GF199999999999007621999999MA1102575084965REMMET08801/18/25 21:35:02 METAR KEIK 190435Z 00000KT 10SM OVC025 M18/M19 A3029 RMK AO2 T11791191
0194720534001612025011904557+40017-105050FM-15+1564KEIK V0201205N00315007925MN0160935N5-01495-01645999999ADDGA1085+007925999GD14991+0079259GE19AGL   +99999+99999GF199999999999007921999999MA1102575084965REMMET08801/18/25 21:55:02 METAR KEIK 190455Z 12006KT 10SM OVC026 M15/M16 A3029 RMK AO2 T11491164
0194720534001612025011905157+40017-105050FM-15+1564KEIK V0201305N00215008235MN0160935N5-01525-01725999999ADDGA1085+008235999GD14991+0082359GE19AGL   +99999+99999GF199999999999008231999999MA1102615084985REMMET08801/18/25 22:15:02 METAR KEIK 190515Z 13004KT 10SM OVC027 M15/M17 A3030 RMK AO2 T11521172
0213720534001612025011905357+40017-105050FM-15+1564KEIK V0201305N002652200059N0160935N5-01575-01875999999ADDGA1045+008235999GD12991+0082359GE19AGL   +99999+99999GF104995999999008231999999MA1102575084965REMMET08801/18/25 22:35:02 METAR KEIK 190535Z 13005KT 10SM SCT027 M16/M19 A3029 RMK AO2 T11571187EQDD01      0ADE726
0169720534001612025011905557+40017-105050FM-15+1564KEIK V0201305N001552200059N0160935N5-01855-02135999999ADDGA1005+999999999GD10991+9999999GF100991999999999999999999MA1102575084965REMMET08501/18/25 22:55:02 METAR KEIK 190555Z 13003KT 10SM CLR M19/M21 A3029 RMK AO2 T11851213
0169720534001612025011906157+40017-105050FM-15+1564KEIK V0209999C000052200059N0160935N5-02015-02195999999ADDGA1005+999999999GD10991+9999999GF100991999999999999999999MA1102575084965REMMET08501/18/25 23:15:02 METAR KEIK 190615Z 00000KT 10SM CLR M20/M22 A3029 RMK AO2 T12011219
0169720534001612025011906357+40017-105050FM-15+1564KEIK V0209999C000052200059N0160935N5-02175-02335999999ADDGA1005+999999999GD10991+9999999GF100991999999999999999999MA1102545084935REMMET08501/18/25 23:35:02 METAR KEIK 190635Z 00000KT 10SM CLR M22/M23 A3028 RMK AO2 T12171233
0169720534001612025011906557+40017-105050FM-15+1564KEIK V0209999C000052200059N0160935N5-02225-02365999999ADDGA1005+999999999GD10991+9999999GF100991999999999999999999MA1102515084905REMMET08501/18/25 23:55:02 METAR KEIK 190655Z 00000KT 10SM CLR M22/M24 A3027 RMK AO2 T12221236
003972053400161202501190659O+40017-105050SOD  +1564KEIK V020999999999999999999999999999+99999+99999999999ADDAT1AU18SN  5AT2AU13BR  5AT3AU08HZ  5
0169720534001612025011907157+40017-105050FM-15+1564KEIK V0209999C000052200059N0160935N5-02425-02635999999ADDGA1005+999999999GD10991+9999999GF100991999999999999999999MA1102515084905REMMET08501/19/25 00:15:02 METAR KEIK 190715Z 00000KT 10SM CLR M24/M26 A3027 RMK AO2 T12421263
0169720534001612025011907357+40017-105050FM-15+1564KEIK V0209999C000052200059N0160935N5-02375-02565999999ADDGA1005+999999999GD10991+9999999GF100991999999999999999999MA1102475084875REMMET08501/19/25 00:35:02 METAR KEIK 190735Z 00000KT 10SM CLR M24/M26 A3026 RMK AO2 T12371256
0169720534001612025011907557+40017-105050FM-15+1564KEIK V0209999C000052200059N0160935N5-02415-02615999999ADDGA1005+999999999GD10991+9999999GF100991999999999999999999MA1102445084845REMMET08501/19/25 00:55:02 METAR KEIK 190755Z 00000KT 10SM CLR M24/M26 A3025 RMK AO2 T12411261
0169720534001612025011908157+40017-105050FM-15+1564KEIK V0209999C000052200059N0160935N5-02465-02705999999ADDGA1005+999999999GD10991+9999999GF100991999999999999999999MA1102445084845REMMET08501/19/25 01:15:02 METAR KEIK 190815Z 00000KT 10SM CLR M25/M27 A3025 RMK AO2 T12461270
0169720534001612025011908357+40017-105050FM-15+1564KEIK V0209999C000052200059N0160935N5-02485-02725999999ADDGA1005+999999999GD10991+9999999GF100991999999999999999999MA1102445084845REMMET08501/19/25 01:35:02 METAR KEIK 190835Z 00000KT 10SM CLR M25/M27 A3025 RMK AO2 T12481272
0169720534001612025011908557+40017-105050FM-15+1564KEIK V0209999C000052200059N0160935N5-02465-02705999999ADDGA1005+999999999GD10991+9999999GF100991999999999999999999MA1102405084815REMMET08501/19/25 01:55:02 METAR KEIK 190855Z 00000KT 10SM CLR M25/M27 A3024 RMK AO2 T12461270
0169720534001612025011909157+40017-105050FM-15+1564KEIK V0209999C000052200059N0160935N5-02445-02685999999ADDGA1005+999999999GD10991+9999999GF100991999999999999999999MA1102405084815REMMET08501/19/25 02:15:02 METAR KEIK 190915Z 00000KT 10SM CLR M24/M27 A3024 RMK AO2 T12441268
0169720534001612025011909357+40017-105050FM-15+1564KEIK V0209999C000052200059N0160935N5-02465-02715999999ADDGA1005+999999999GD10991+9999999GF100991999999999999999999MA1102375084785REMMET08501/19/25 02:35:02 METAR KEIK 190935Z 00000KT 10SM CLR M25/M27 A3023 RMK AO2 T12461271
0169720534001612025011909557+40017-105050FM-15+1564KEIK V0209999C000052200059N0160935N5-02515-02775999999ADDGA1005+999999999GD10991+9999999GF100991999999999999999999MA1102345084755REMMET08501/19/25 02:55:02 METAR KEIK 190955Z 00000KT 10SM CLR M25/M28 A3022 RMK AO2 T12511277
0169720534001612025011910157+40017-105050FM-15+1564KEIK V0202105N001552200059N0160935N5-02445-02695999999ADDGA1005+999999999GD10991+9999999GF100991999999999999999999MA1102305084725REMMET08501/19/25 03:15:02 METAR KEIK 191015Z 21003KT 10SM CLR M24/M27 A3021 RMK AO2 T12441269
0169720534001612025011910357+40017-105050FM-15+1564KEIK V0201905N002652200059N0160935N5-02415-02655999999ADDGA1005+999999999GD10991+9999999GF100991999999999999999999MA1102245084665REMMET08501/19/25 03:35:02 METAR KEIK 191035Z 19005KT 10SM CLR M24/M27 A3019 RMK AO2 T12411265
0169720534001612025011910557+40017-105050FM-15+1564KEIK V0209999C000052200059N0160935N5-02405-02655999999ADDGA1005+999999999GD10991+9999999GF100991999999999999999999MA1102205084645REMMET08501/19/25 03:55:02 METAR KEIK 191055Z 00000KT 10SM CLR M24/M26 A3018 RMK AO2 T12401265
0169720534001612025011911157+40017-105050FM-15+1564KEIK V0209999C000052200059N0160935N5-02435-02705999999ADDGA1005+999999999GD10991+9999999GF100991999999999999999999MA1102175084615REMMET08501/19/25 04:15:02 METAR KEIK 191115Z 00000KT 10SM CLR M24/M27 A3017 RMK AO2 T12431270
0169720534001612025011911357+40017-105050FM-15+1564KEIK V0209999C000052200059N0160935N5-02515-02785999999ADDGA1005+999999999GD10991+9999999GF100991999999999999999999MA1102135084585REMMET08501/19/25 04:35:02 METAR KEIK 191135Z 00000KT 10SM CLR M25/M28 A3016 RMK AO2 T12511278
0169720534001612025011911557+40017-105050FM-15+1564KEIK V0201605N002152200059N0160935N5-02575-02865999999ADDGA1005+999999999GD10991+9999999GF100991999999999999999999MA1102135084585REMMET08501/19/25 04:55:02 METAR KEIK 191155Z 16004KT 10SM CLR M26/M29 A3016 RMK AO2 T12571286
0169720534001612025011912157+40017-105050FM-15+1564KEIK V0209999C000052200059N0160935N5-02555-02835999999ADDGA1005+999999999GD10991+9999999GF100991999999999999999999MA1102135084585REMMET08501/19/25 05:15:02 METAR KEIK 191215Z 00000KT 10SM CLR M25/M28 A3016 RMK AO2 T12551283
0169720534001612025011912357+40017-105050FM-15+1564KEIK V0201905N002652200059N0160935N5-02605-02905999999ADDGA1005+999999999GD10991+9999999GF100991999999999999999999MA1102105084555REMMET08501/19/25 05:35:02 METAR KEIK 191235Z 19005KT 10SM CLR M26/M29 A3015 RMK AO2 T12601290
0169720534001612025011912557+40017-105050FM-15+1564KEIK V0209999C000052200059N0160935N5-02665-02975999999ADDGA1005+999999999GD10991+9999999GF100991999999999999999999MA1102135084585REMMET08501/19/25 05:55:02 METAR KEIK 191255Z 00000KT 10SM CLR M27/M30 A3016 RMK AO2 T12661297
0169720534001612025011913157+40017-105050FM-15+1564KEIK V0209999C000052200059N0160935N5-02715-03045999999ADDGA1005+999999999GD10991+9999999GF100991999999999999999999MA1102135084585REMMET08501/19/25 06:15:02 METAR KEIK 191315Z 00000KT 10SM CLR M27/M30 A3016 RMK AO2 T12711304
0169720534001612025011913357+40017-105050FM-15+1564KEIK V0209999C000052200059N0160935N5-02675-02985999999ADDGA1005+999999999GD10991+9999999GF100991999999999999999999MA1102135084585REMMET08501/19/25 06:35:02 METAR KEIK 191335Z 00000KT 10SM CLR M27/M30 A3016 RMK AO2 T12671298
0169720534001612025011913557+40017-105050FM-15+1564KEIK V0209999C000052200059N0160935N5-02665-02965999999ADDGA1005+999999999GD10991+9999999GF100991999999999999999999MA1102135084585REMMET08501/19/25 06:55:02 METAR KEIK 191355Z 00000KT 10SM CLR M27/M30 A3016 RMK AO2 T12661296
0169720534001612025011914157+40017-105050FM-15+1564KEIK V0209999C000052200059N0160935N5-02685-02995999999ADDGA1005+999999999GD10991+9999999GF100991999999999999999999MA1102135084585REMMET08501/19/25 07:15:02 METAR KEIK 191415Z 00000KT 10SM CLR M27/M30 A3016 RMK AO2 T12681299
0168720534001612025011914357+40017-105050FM-15+1564KEIK V0209999C000052200059N0144845N5-02715-03035999999ADDGA1005+999999999GD10991+9999999GF100991999999999999999999MA1102135084585REMMET08401/19/25 07:35:02 METAR KEIK 191435Z 00000KT 9SM CLR M27/M30 A3016 RMK AO2 T12711303
0169720534001612025011914557+40017-105050FM-15+1564KEIK V0209999C000052200059N0160935N5-02545-02835999999ADDGA1005+999999999GD10991+9999999GF100991999999999999999999MA1102135084585REMMET08501/19/25 07:55:02 METAR KEIK 191455Z 00000KT 10SM CLR M25/M28 A3016 RMK AO2 T12541283
0169720534001612025011915157+40017-105050FM-15+1564KEIK V0209999C000052200059N0160935N5-02485-02765999999ADDGA1005+999999999GD10991+9999999GF100991999999999999999999MA1102135084585REMMET08501/19/25 08:15:02 METAR KEIK 191515Z 00000KT 10SM CLR M25/M28 A3016 RMK AO2 T12481276
0169720534001612025011915357+40017-105050FM-15+1564KEIK V0209999C000052200059N0160935N5-02305-02545999999ADDGA1005+999999999GD10991+9999999GF100991999999999999999999MA1102135084585REMMET08501/19/25 08:35:02 METAR KEIK 191535Z 00000KT 10SM CLR M23/M25 A3016 RMK AO2 T12301254
0169720534001612025011915557+40017-105050FM-15+1564KEIK V0209999C000052200059N0160935N5-01975-02125999999ADDGA1005+999999999GD10991+9999999GF100991999999999999999999MA1102105084555REMMET08501/19/25 08:55:02 METAR KEIK 191555Z 00000KT 10SM CLR M20/M21 A3015 RMK AO2 T11971212
0169720534001612025011916157+40017-105050FM-15+1564KEIK V0209999C000052200059N0160935N5-01795-01925999999ADDGA1005+999999999GD10991+9999999GF100991999999999999999999MA1102105084555REMMET08501/19/25 09:15:02 METAR KEIK 191615Z 00000KT 10SM CLR M18/M19 A3015 RMK AO2 T11791192
0169720534001612025011916357+40017-105050FM-15+1564KEIK V0209999C000052200059N0160935N5-01735-01855999999ADDGA1005+999999999GD10991+9999999GF100991999999999999999999MA1102105084555REMMET08501/19/25 09:35:02 METAR KEIK 191635Z 00000KT 10SM CLR M17/M19 A3015 RMK AO2 T11731185
0169720534001612025011916557+40017-105050FM-15+1564KEIK V0209999C000052200059N0160935N5-01655-01775999999ADDGA1005+999999999GD10991+9999999GF100991999999999999999999MA1102105084555REMMET08501/19/25 09:55:02 METAR KEIK 191655Z 00000KT 10SM CLR M17/M18 A3015 RMK AO2 T11651177
0169720534001612025011917157+40017-105050FM-15+1564KEIK V0209999C000052200059N0160935N5-01595-01715999999ADDGA1005+999999999GD10991+9999999GF100991999999999999999999MA1102075084525REMMET08501/19/25 10:15:02 METAR KEIK 191715Z 00000KT 10SM CLR M16/M17 A3014 RMK AO2 T11591171
0169720534001612025011917357+40017-105050FM-15+1564KEIK V0209999C000052200059N0160935N5-01515-01645999999ADDGA1005+999999999GD10991+9999999GF100991999999999999999999MA1102075084525REMMET08501/19/25 10:35:02 METAR KEIK 191735Z 00000KT 10SM CLR M15/M16 A3014 RMK AO2 T11511164
0169720534001612025011917557+40017-105050FM-15+1564KEIK V0209999C000052200059N0160935N5-01555-01685999999ADDGA1005+999999999GD10991+9999999GF100991999999999999999999MA1102005084465REMMET08501/19/25 10:55:02 METAR KEIK 191755Z 00000KT 10SM CLR M16/M17 A3012 RMK AO2 T11551168
0213720534001612025011918157+40017-105050FM-15+1564KEIK V0203205N001552200059N0160935N5-01515-01645999999ADDGA1045+045725999GD12991+0457259GE19AGL   +99999+99999GF104995999999045721999999MA1101965084435REMMET08801/19/25 11:15:02 METAR KEIK 191815Z 32003KT 10SM SCT150 M15/M16 A3011 RMK AO2 T11511164EQDD01      0ADE726
0213720534001612025011918357+40017-105050FM-15+1564KEIK V0209999C000052200059N0160935N5-01445-01655999999ADDGA1025+045725999GD11991+0457259GE19AGL   +99999+99999GF102995999999045721999999MA1101935084405REMMET08801/19/25 11:35:02 METAR KEIK 191835Z 00000KT 10SM FEW150 M14/M16 A3010 RMK AO2 T11441165EQDD01      0ADE726
0169720534001612025011918557+40017-105050FM-15+1564KEIK V0209999C000052200059N0160935N5-01405-01805999999ADDGA1005+999999999GD10991+9999999GF100991999999999999999999MA1101865084345REMMET08501/19/25 11:55:02 METAR KEIK 191855Z 00000KT 10SM CLR M14/M18 A3008 RMK AO2 T11401180
0213720534001612025011919157+40017-105050FM-15+1564KEIK V0203605N002152200059N0160935N5-01285-01715999999ADDGA1025+042675999GD11991+0426759GE19AGL   +99999+99999GF102995999999042671999999MA1101835084325REMMET08801/19/25 12:15:02 METAR KEIK 191915Z 36004KT 10SM FEW140 M13/M17 A3007 RMK AO2 T11281171EQDD01      0ADE726
0213720534001612025011919357+40017-105050FM-15+1564KEIK V0203105N001552200059N0160935N5-01345-01755999999ADDGA1025+042675999GD11991+0426759GE19AGL   +99999+99999GF102995999999042671999999MA1101835084325REMMET08801/19/25 12:35:02 METAR KEIK 191935Z 31003KT 10SM FEW140 M13/M17 A3007 RMK AO2 T11341175EQDD01      0ADE726
0169720534001612025011919557+40017-105050FM-15+1564KEIK V0203505N002152200059N0160935N5-01265-01745999999ADDGA1005+999999999GD10991+9999999GF100991999999999999999999MA1101795084295REMMET08501/19/25 12:55:02 METAR KEIK 191955Z 35004KT 10SM CLR M13/M17 A3006 RMK AO2 T11261174
0169720534001612025011920157+40017-105050FM-15+1564KEIK V0209999C000052200059N0160935N5-01255-01775999999ADDGA1005+999999999GD10991+9999999GF100991999999999999999999MA1101765084265REMMET08501/19/25 13:15:02 METAR KEIK 192015Z 00000KT 10SM CLR M13/M18 A3005 RMK AO2 T11251177
0169720534001612025011920357+40017-105050FM-15+1564KEIK V0209999C000052200059N0160935N5-01225-01725999999ADDGA1005+999999999GD10991+9999999GF100991999999999999999999MA1101735084235REMMET08501/19/25 13:35:02 METAR KEIK 192035Z 00000KT 10SM CLR M12/M17 A3004 RMK AO2 T11221172
0169720534001612025011920557+40017-105050FM-15+1564KEIK V0203505N001552200059N0160935N5-01155-01665999999ADDGA1005+999999999GD10991+9999999GF100991999999999999999999MA1101735084235REMMET08501/19/25 13:55:02 METAR KEIK 192055Z 35003KT 10SM CLR M11/M17 A3004 RMK AO2 T11151166
0169720534001612025011921157+40017-105050FM-15+1564KEIK V0203405N002152200059N0160935N5-01145-01685999999ADDGA1005+999999999GD10991+9999999GF100991999999999999999999MA1101735084235REMMET08501/19/25 14:15:02 METAR KEIK 192115Z 34004KT 10SM CLR M11/M17 A3004 RMK AO2 T11141168
0169720534001612025011921357+40017-105050FM-15+1564KEIK V0203405N002152200059N0160935N5-01145-01665999999ADDGA1005+999999999GD10991+9999999GF100991999999999999999999MA1101735084235REMMET08501/19/25 14:35:02 METAR KEIK 192135Z 34004KT 10SM CLR M11/M17 A3004 RMK AO2 T11141166
0213720534001612025011921557+40017-105050FM-15+1564KEIK V0203605N001552200059N0160935N5-01175-01705999999ADDGA1025+042675999GD11991+0426759GE19AGL   +99999+99999GF102995999999042671999999MA1101765084265REMMET08801/19/25 14:55:02 METAR KEIK 192155Z 36003KT 10SM FEW140 M12/M17 A3005 RMK AO2 T11171170EQDD01      0ADE726
0213720534001612025011922157+40017-105050FM-15+1564KEIK V0203605N001552200059N0160935N5-01205-01705999999ADDGA1045+045725999GD12991+0457259GE19AGL   +99999+99999GF104995999999045721999999MA1101765084265REMMET08801/19/25 15:15:02 METAR KEIK 192215Z 36003KT 10SM SCT150 M12/M17 A3005 RMK AO2 T11201170EQDD01      0ADE726
0213720534001612025011922357+40017-105050FM-15+1564KEIK V0200105N001552200059N0160935N5-01175-01685999999ADDGA1025+045725999GD11991+0457259GE19AGL   +99999+99999GF102995999999045721999999MA1101765084265REMMET08801/19/25 15:35:02 METAR KEIK 192235Z 01003KT 10SM FEW150 M12/M17 A3005 RMK AO2 T11171168EQDD01      0ADE726
0169720534001612025011922557+40017-105050FM-15+1564KEIK V0200205N002652200059N0160935N5-01195-01665999999ADDGA1005+999999999GD10991+9999999GF100991999999999999999999MA1101795084295REMMET08501/19/25 15:55:02 METAR KEIK 192255Z 02005KT 10SM CLR M12/M17 A3006 RMK AO2 T11191166
0169720534001612025011923157+40017-105050FM-15+1564KEIK V0203505N001552200059N0160935N5-01265-01695999999ADDGA1005+999999999GD10991+9999999GF100991999999999999999999MA1101835084325REMMET08501/19/25 16:15:02 METAR KEIK 192315Z 35003KT 10SM CLR M13/M17 A3007 RMK AO2 T11261169
0169720534001612025011923357+40017-105050FM-15+1564KEIK V0203605N002152200059N0160935N5-01285-01695999999ADDGA1005+999999999GD10991+9999999GF100991999999999999999999MA1101835084325REMMET08501/19/25 16:35:02 METAR KEIK 192335Z 36004KT 10SM CLR M13/M17 A3007 RMK AO2 T11281169
0169720534001612025011923557+40017-105050FM-15+1564KEIK V0209999C000052200059N0160935N5-01375-01745999999ADDGA1005+999999999GD10991+9999999GF100991999999999999999999MA1101865084345REMMET08501/19/25 16:55:02 METAR KEIK 192355Z 00000KT 10SM CLR M14/M17 A3008 RMK AO2 T11371174
0169720534001612025012000157+40017-105050FM-15+1564KEIK V0203405N002152200059N0160935N5-01385-01765999999ADDGA1005+999999999GD10991+9999999GF100991999999999999999999MA1101865084345REMMET08501/19/25 17:15:01 METAR KEIK 200015Z 34004KT 10SM CLR M14/M18 A3008 RMK AO2 T11381176
0169720534001612025012000357+40017-105050FM-15+1564KEIK V0209999C000052200059N0160935N5-01485-01805999999ADDGA1005+999999999GD10991+9999999GF100991999999999999999999MA1101905084375REMMET08501/19/25 17:35:01 METAR KEIK 200035Z 00000KT 10SM CLR M15/M18 A3009 RMK AO2 T11481180
0169720534001612025012000557+40017-105050FM-15+1564KEIK V0209999C000052200059N0160935N5-01425-01755999999ADDGA1005+999999999GD10991+9999999GF100991999999999999999999MA1101935084405REMMET08501/19/25 17:55:01 METAR KEIK 200055Z 00000KT 10SM CLR M14/M17 A3010 RMK AO2 T11421175
0169720534001612025012001157+40017-105050FM-15+1564KEIK V0209999C000052200059N0160935N5-01495-01755999999ADDGA1005+999999999GD10991+9999999GF100991999999999999999999MA1101965084435REMMET08501/19/25 18:15:01 METAR KEIK 200115Z 00000KT 10SM CLR M15/M17 A3011 RMK AO2 T11491175
0169720534001612025012001357+40017-105050FM-15+1564KEIK V0209999C000052200059N0160935N5-01415-01695999999ADDGA1005+999999999GD10991+9999999GF100991999999999999999999MA1101965084435REMMET08501/19/25 18:35:01 METAR KEIK 200135Z 00000KT 10SM CLR M14/M17 A3011 RMK AO2 T11411169
0213720534001612025012001557+40017-105050FM-15+1564KEIK V0209999C000052200059N0160935N5-01405-01675999999ADDGA1045+015245999GD12991+0152459GE19AGL   +99999+99999GF104995999999015241999999MA1102005084465REMMET08801/19/25 18:55:01 METAR KEIK 200155Z 00000KT 10SM SCT050 M14/M17 A3012 RMK AO2 T11401167EQDD01      0ADE726
0232720534001612025012002157+40017-105050FM-15+1564KEIK V0209999C00005014945MN0160935N5-01335-01635999999ADDGA1075+014945999GA2085+016765999GD13991+0149459GD24991+0167659GE19AGL   +99999+99999GF199999999999014941999999MA1102005084465REMMET09501/19/25 19:15:01 METAR KEIK 200215Z 00000KT 10SM BKN049 OVC055 M13/M16 A3012 RMK AO2 T11331163
0194720534001612025012002357+40017-105050FM-15+1564KEIK V0209999C00005013415MN0160935N5-01345-01605999999ADDGA1085+013415999GD14991+0134159GE19AGL   +99999+99999GF199999999999013411999999MA1102035084495REMMET08801/19/25 19:35:01 METAR KEIK 200235Z 00000KT 10SM OVC044 M13/M16 A3013 RMK AO2 T11341160
0193720534001612025012002557+40017-105050FM-15+1564KEIK V0209999C00005013115MN0144845N5-01315-01575999999ADDGA1085+013115999GD14991+0131159GE19AGL   +99999+99999GF199999999999013111999999MA1102035084495REMMET08701/19/25 19:55:01 METAR KEIK 200255Z 00000KT 9SM OVC043 M13/M16 A3013 RMK AO2 T11311157
0269720534001612025012003157+40017-105050FM-15+1564KEIK V0209999C00005010975MN0040235N5-01275-01475999999ADDAA101000021AU110030015AU200001015AW1105AW2715GA1085+010975999GD14991+0109759GE19AGL   +99999+99999GF199999999999010971999999MA1102075084525MW1715REMMET11201/19/25 20:15:01 METAR KEIK 200315Z 00000KT 2 1/2SM -SN BR OVC036 M13/M15 A3014 RMK AO2 SNB0258 P0000 T11271147
0269720534001612025012003357+40017-105050FM-15+1564KEIK V0209999C00005007625MN0028165N5-01245-01385999999ADDAA101000021AU110030015AU200001015AW1105AW2715GA1085+007625999GD14991+0076259GE19AGL   +99999+99999GF199999999999007621999999MA1102075084525MW1715REMMET11201/19/25 20:35:01 METAR KEIK 200335Z 00000KT 1 3/4SM -SN BR OVC025 M12/M14 A3014 RMK AO2 SNB0258 P0000 T11241138
0299720534001612025012003557+40017-105050FM-15+1564KEIK V0209999C00005006105MN0028165N5-01225-01325999999ADDAA101000021AU110030015AU200001015AW1105AW2715GA1045+000615999GA2085+006105999GD12991+0006159GD24991+0061059GE19AGL   +99999+99999GF199999999999000611999999MA1102105084555MW1715REMMET11101/19/25 20:55:01 METAR KEIK 200355Z 00000KT 1 3/4SM -SN BR SCT002 OVC020 M12/M13 A3015 RMK AO2 P0000 T11221132
0257720534001612025012004157+40017-105050FM-15+1564KEIK V0209999C00005000615MN0032195N5-01175-01265999999ADDAA101000021AU110030015AU200001015AW1105AW2715GA1085+000615999GD14991+0006159GE19AGL   +99999+99999GF199999999999000611999999MA1102105084555MW1715REMMET10001/19/25 21:15:01 METAR KEIK 200415Z 00000KT 2SM -SN BR OVC002 M12/M13 A3015 RMK AO2 P0000 T11171126
0295720534001612025012004357+40017-105050FM-15+1564KEIK V0203405N00155005185MN0048285N5-01145-01255999999ADDAA101000021AU110030015AU200001015AW1105AW2715GA1045+000615999GA2085+005185999GD12991+0006159GD24991+0051859GE19AGL   +99999+99999GF199999999999000611999999MA1102135084585MW1715REMMET10701/19/25 21:35:01 METAR KEIK 200435Z 34003KT 3SM -SN BR SCT002 OVC017 M11/M13 A3016 RMK AO2 P0000 T11141125
0345720534001612025012004557+40017-105050FM-15+1564KEIK V0209999V00155002135MN0032195V5-01135-01245999999ADDAA101000021AU110030015AU200001015AW1105AW2715GA1045+000615999GA2075+002135999GA3085+005795999GD12991+0006159GD23991+0021359GD34991+0057959GE19AGL   +99999+99999GF199999999999000611999999MA1102175084615MW1715REMMET12601/19/25 21:55:01 METAR KEIK 200455Z VRB03KT 2SM -SN BR SCT002 BKN007 OVC019 M11/M12 A3017 RMK AO2 VIS 1 1/2V4 P0000 T11131124
0275720534001612025012005157+40017-105050FM-15+1564KEIK V0200605N00265000615MN0112655N5-01185-01295999999ADDAA101000021AU110030015AW1715GA1075+000615999GA2085+001835999GD13991+0006159GD24991+0018359GE19AGL   +99999+99999GF199999999999000611999999MA1102205084645MW1715REMMET10401/19/25 22:15:02 METAR KEIK 200515Z 06005KT 7SM -SN BKN002 OVC006 M12/M13 A3018 RMK AO2 P0000 T11181129
0295720534001612025012005357+40017-105050FM-15+1564KEIK V0200405N00215000615MN0064375N5-01195-01315999999ADDAA101000021AU110030015AU200001015AW1105AW2715GA1075+000615999GA2085+002135999GD13991+0006159GD24991+0021359GE19AGL   +99999+99999GF199999999999000611999999MA1102245084665MW1715REMMET10701/19/25 22:35:02 METAR KEIK 200535Z 04004KT 4SM -SN BR BKN002 OVC007 M12/M13 A3019 RMK AO2 P0000 T11191131
0269720534001612025012005557+40017-105050FM-15+1564KEIK V0200305N00315000615MN0080475N5-01195-01295999999ADDAA101000021AU110030015AU200001015AW1105AW2715GA1085+000615999GD14991+0006151GE19AGL   +99999+99999GF199999999999000611999999MA1102245084665MW1715REMMET11201/19/25 22:55:02 METAR KEIK 200555Z 03006KT 5SM -SN BR OVC002 M12/M13 A3019 RMK AO2 CIG 002V006 P0000 T11191129
0295720534001612025012006157+40017-105050FM-15+1564KEIK V0200405N00215000915MN0032195N5-01205-01315999999ADDAA101000021AU110030015AU200001015AW1105AW2715GA1075+000915999GA2085+006715999GD13991+0009159GD24991+0067159GE19AGL   +99999+99999GF199999999999000911999999MA1102275084695MW1715REMMET10701/19/25 23:15:02 METAR KEIK 200615Z 04004KT 2SM -SN BR BKN003 OVC022 M12/M13 A3020 RMK AO2 P0000 T11201131
0295720534001612025012006357+40017-105050FM-15+1564KEIK V0200405N00265000915MN0032195N5-01215-01325999999ADDAA101000021AU110030015AU200001015AW1105AW2715GA1075+000915999GA2085+006105999GD13991+0009159GD24991+0061059GE19AGL   +99999+99999GF199999999999000911999999MA1102275084695MW1715REMMET10701/19/25 23:35:02 METAR KEIK 200635Z 04005KT 2SM -SN BR BKN003 OVC020 M12/M13 A3020 RMK AO2 P0000 T11211132
0305720534001612025012006557+40017-105050FM-15+1564KEIK V0200505N00215000615MN0032195N5-01215-01315999999ADDAA101000021AU110030015AU200001015AW1105AW2715GA1075+000615999GA2085+001835999GD13991+0006159GD24991+0018359GE19AGL   +99999+99999GF199999999999000611999999MA1102275084695MW1715REMMET11701/19/25 23:55:02 METAR KEIK 200655Z 05004KT 2SM -SN BR BKN002 OVC006 M12/M13 A3020 RMK AO2 OVC V BKN P0000 T11211131
002772053400161202501200659O+40017-105050SOD  +1564KEIK V020999999999999999999999999999+99999+99999999999ADDAT1AU18SN  5AT2AU13BR  5
0337720534001612025012007157+40017-105050FM-15+1564KEIK V0200405N00515000615MN0024145N5-01275-01415999999ADDAA101000021AU110030015AU200001015AW1105AW2715GA1075+000615999GA2075+002135999GA3085+003355999GD13991+0006159GD23991+0021359GD34991+0033559GE19AGL   +99999+99999GF199999999999000611999999MA1102305084725MW1715REMMET11801/20/25 00:15:02 METAR KEIK 200715Z 04010KT 1 1/2SM -SN BR BKN002 BKN007 OVC011 M13/M14 A3021 RMK AO2 P0000 T11271141
0346720534001612025012007357+40017-105050FM-15+1564KEIK V0200305N00515000615MN0080475N5-01345-01495999999ADDAA101000021AU110030015AU200001015AW1105AW2715GA1075+000615999GA2075+001835999GA3085+004885999GD13991+0006159GD23991+0018359GD34991+0048859GE19AGL   +99999+99999GF199999999999000611999999MA1102345084755MW1715REMMET12701/20/25 00:35:02 METAR KEIK 200735Z 03010KT 5SM -SN BR BKN002 BKN006 OVC016 M13/M15 A3022 RMK AO2 BKN002 V SCT P0000 T11341149
0313720534001612025012007557+40017-105050FM-15+1564KEIK V0200305N00465000615MN0128755N5-01365-01505999999ADDAA101000021AU110030015AW1715GA1075+000615999GA2075+002135999GA3085+006105999GD13991+0006159GD23991+0021359GD34991+0061059GE19AGL   +99999+99999GF199999999999000611999999MA1102345084755MW1715REMMET11101/20/25 00:55:02 METAR KEIK 200755Z 03009KT 8SM -SN BKN002 BKN007 OVC020 M14/M15 A3022 RMK AO2 P0000 T11361150
0305720534001612025012008157+40017-105050FM-15+1564KEIK V0200105N00365000615MN0080475N5-01385-01535999999ADDAA101000021AU110030015AU200001015AW1105AW2715GA1075+000615999GA2085+001835999GD13991+0006159GD24991+0018359GE19AGL   +99999+99999GF199999999999000611999999MA1102375084785MW1715REMMET11701/20/25 01:15:02 METAR KEIK 200815Z 01007KT 5SM -SN BR BKN002 OVC006 M14/M15 A3023 RMK AO2 BKN V OVC P0000 T11381153
0318720534001612025012008357+40017-105050FM-15+1564KEIK V0200105N00365000915MN0080475N5-01425-01575999999ADDAA101000021AU110030015AU200001015AW1105AW2715GA1075+000915999GA2085+002135999GD13991+0009159GD24991+0021359GE19AGL   +99999+99999GF199999999999000911999999MA1102375084785MW1715REMMET13001/20/25 01:35:02 METAR KEIK 200835Z 01007KT 5SM -SN BR BKN003 OVC007 M14/M16 A3023 RMK AO2 SNE0828B0833 BKN V OVC P0000 T11421157
0314720534001612025012008557+40017-105050FM-15+1564KEIK V0200405N00415000615MN0048285N5-01515-01705999999ADDAA101000021AU100001015AW1105GA1075+000615999GA2075+002135999GA3085+009455999GD13991+0006159GD23991+0021359GD34991+0094559GE19AGL   +99999+99999GF199999999999000611999999MA1102405084815REMMET11801/20/25 01:55:02 METAR KEIK 200855Z 04008KT 3SM BR BKN002 BKN007 OVC031 M15/M17 A3024 RMK AO2 SNE0852 P0000 T11511170
0308720534001612025012009157+40017-105050FM-15+1564KEIK V0200305N00265000915MN0032195N5-01535-01715999999ADDAA101000021AU110030015AU200001015AW1105AW2715GA1075+000915999GA2085+009455999GD13991+0009159GD24991+0094559GE19AGL   +99999+99999GF199999999999000911999999MA1102445084845MW1715REMMET12001/20/25 02:15:02 METAR KEIK 200915Z 03005KT 2SM -SN BR BKN003 OVC031 M15/M17 A3025 RMK AO2 SNE0852B0915 P0000 T11531171
0308720534001612025012009357+40017-105050FM-15+1564KEIK V0200505N00265000915MN0032195N5-01555-01715999999ADDAA101000021AU110030015AU200001015AW1105AW2715GA1075+000915999GA2085+007325999GD13991+0009159GD24991+0073259GE19AGL   +99999+99999GF199999999999000911999999MA1102445084845MW1715REMMET12001/20/25 02:35:02 METAR KEIK 200935Z 05005KT 2SM -SN BR BKN003 OVC024 M16/M17 A3025 RMK AO2 SNE0852B0915 P0000 T11551171
0299720534001612025012009557+40017-105050FM-15+1564KEIK V0200505N00365000615MN0040235N5-01595-01755999999ADDAA101000021AU110030015AU200001015AW1105AW2715GA1075+000615999GA2085+006715999GD13991+0006159GD24991+0067159GE19AGL   +99999+99999GF199999999999000611999999MA1102445084845MW1715REMMET11101/20/25 02:55:02 METAR KEIK 200955Z 05007KT 2 1/2SM -SN BR BKN002 OVC022 M16/M17 A3025 RMK AO2 P0000 T11591175
0286720534001612025012010157+40017-105050FM-15+1564KEIK V0200105N00315008845MN0028165N5-01685-01935999999ADDAA101000021AU100007015AW1051GA1045+000915999GA2085+008845999GD12991+0009159GD24991+0088459GE19AGL   +99999+99999GF199999999999000911999999MA1102445084845MW1055REMMET11501/20/25 03:15:02 METAR KEIK 201015Z 01006KT 1 3/4SM HZ SCT003 OVC029 M17/M19 A3025 RMK AO2 SNE1007 P0000 T11681193
0248720534001612025012010357+40017-105050FM-15+1564KEIK V0200305N00265009145MN0024145N5-01705-01935999999ADDAA101000021AU100007015AW1051GA1085+009145999GD14991+0091459GE19AGL   +99999+99999GF199999999999009141999999MA1102475084875MW1055REMMET10801/20/25 03:35:02 METAR KEIK 201035Z 03005KT 1 1/2SM HZ OVC030 M17/M19 A3026 RMK AO2 SNE1007 P0000 T11701193
0219720534001612025012010557+40017-105050FM-15+1564KEIK V0200405N00415010975MN0048285N5-01755-02085999999ADDAU100007015AW1051GA1085+010975999GD14991+0109759GE19AGL   +99999+99999GF199999999999010971999999MA1102475084875MW1055REMMET09001/20/25 03:55:02 METAR KEIK 201055Z 04008KT 3SM HZ OVC036 M17/M21 A3026 RMK AO2 T11751208
0193720534001612025012011157+40017-105050FM-15+1564KEIK V0200405N00265012195MN0128755N5-01775-02095999999ADDGA1085+012195999GD14991+0121959GE19AGL   +99999+99999GF199999999999012191999999MA1102515084905REMMET08701/20/25 04:15:02 METAR KEIK 201115Z 04005KT 8SM OVC040 M18/M21 A3027 RMK AO2 T11771209
0219720534001612025012011357+40017-105050FM-15+1564KEIK V0200505N00315012805MN0096565N5-01795-02045999999ADDAU100007015AW1051GA1085+012805999GD14991+0128059GE19AGL   +99999+99999GF199999999999012801999999MA1102515084905MW1055REMMET09001/20/25 04:35:02 METAR KEIK 201135Z 05006KT 6SM HZ OVC042 M18/M20 A3027 RMK AO2 T11791204
0213720534001612025012011557+40017-105050FM-15+1564KEIK V0200805N00155011585MN0080475N5-01805-02025999999ADDAU100001015AW1105GA1085+011585999GD14991+0115859GE19AGL   +99999+99999GF199999999999011581999999MA1102515084905REMMET09001/20/25 04:55:02 METAR KEIK 201155Z 08003KT 5SM BR OVC038 M18/M20 A3027 RMK AO2 T11801202
0213720534001612025012012157+40017-105050FM-15+1564KEIK V0200705N00265011285MN0064375N5-01805-02015999999ADDAU100001015AW1105GA1085+011285999GD14991+0112859GE19AGL   +99999+99999GF199999999999011281999999MA1102545084935REMMET09001/20/25 05:15:02 METAR KEIK 201215Z 07005KT 4SM BR OVC037 M18/M20 A3028 RMK AO2 T11801201
0269720534001612025012012357+40017-105050FM-15+1564KEIK V0200705N00215008845MN0040235N5-01805-02005999999ADDAA101000021AU110030015AU200001015AW1105AW2715GA1085+008845999GD14991+0088459GE19AGL   +99999+99999GF199999999999008841999999MA1102545084935MW1715REMMET11201/20/25 05:35:02 METAR KEIK 201235Z 07004KT 2 1/2SM -SN BR OVC029 M18/M20 A3028 RMK AO2 SNB1220 P0000 T11801200
0213720534001612025012012557+40017-105050FM-15+1564KEIK V0200905N00315007925MN0048285N5-01815-02015999999ADDAU100001015AW1105GA1085+007925999GD14991+0079259GE19AGL   +99999+99999GF199999999999007921999999MA1102575084965REMMET09001/20/25 05:55:02 METAR KEIK 201255Z 09006KT 3SM BR OVC026 M18/M20 A3029 RMK AO2 T11811201
0265720534001612025012013157+40017-105050FM-15+1564KEIK V0201005N00265008535MN0064375N5-01825-02035999999ADDAA101000021AU110030015AU200001015AW1105AW2715GA1085+008535999GD14991+0085359GE19AGL   +99999+99999GF199999999999008531999999MA1102575084965MW1715REMMET10801/20/25 06:15:02 METAR KEIK 201315Z 10005KT 4SM -SN BR OVC028 M18/M20 A3029 RMK AO2 SNB1256 P0000 T11821203
0243720534001612025012013357+40017-105050FM-15+1564KEIK V0200805N00215009145MN0064375N5-01835-02055999999ADDAA101000021AU100001015AW1105GA1085+009145999GD14991+0091459GE19AGL   +99999+99999GF199999999999009141999999MA1102615084985REMMET10901/20/25 06:35:02 METAR KEIK 201335Z 08004KT 4SM BR OVC030 M18/M20 A3030 RMK AO2 SNB1256E1319 P0000 T11831205
0219720534001612025012013557+40017-105050FM-15+1564KEIK V0201005N00265011285MN0096565N5-01855-02085999999ADDAU100007015AW1051GA1085+011285999GD14991+0112859GE19AGL   +99999+99999GF199999999999011281999999MA1102645085015MW1055REMMET09001/20/25 06:55:02 METAR KEIK 201355Z 10005KT 6SM HZ OVC037 M18/M21 A3031 RMK AO2 T11851208
0193720534001612025012014157+40017-105050FM-15+1564KEIK V0201105N00265013415MN0144845N5-01835-02065999999ADDGA1085+013415999GD14991+0134159GE19AGL   +99999+99999GF199999999999013411999999MA1102685085045REMMET08701/20/25 07:15:02 METAR KEIK 201415Z 11005KT 9SM OVC044 M18/M21 A3032 RMK AO2 T11831206
0283720534001612025012014357+40017-105050FM-15+1564KEIK V0201005N00315008845MN0048285N5-01835-02065999999ADDAA101000021AU110030015AW1715GA1075+008845999GA2085+012505999GD13991+0088459GD24991+0125059GE19AGL   +99999+99999GF199999999999008841999999MA1102715085075MW1715REMMET11201/20/25 07:35:02 METAR KEIK 201435Z 10006KT 3SM -SN BKN029 OVC041 M18/M21 A3033 RMK AO2 SNB1428 P0000 T11831206
0244720534001612025012014557+40017-105050FM-15+1564KEIK V0201105N00155010365MN0048285N5-01845-02085999999ADDAA101000021AU100007015AW1051GA1085+010365999GD14991+0103659GE19AGL   +99999+99999GF199999999999010361999999MA1102715085075MW1055REMMET10401/20/25 07:55:02 METAR KEIK 201455Z 11003KT 3SM HZ OVC034 M18/M21 A3033 RMK AO2 SNE1453 P0000 T11841208
0218720534001612025012015157+40017-105050FM-15+1564KEIK V0201005N00265010975MN0128755N5-01855-02115999999ADDAA101000021GA1085+010975999GD14991+0109759GE19AGL   +99999+99999GF199999999999010971999999MA1102745085105REMMET10101/20/25 08:15:02 METAR KEIK 201515Z 10005KT 8SM OVC036 M19/M21 A3034 RMK AO2 SNE1453 P0000 T11851211
0218720534001612025012015357+40017-105050FM-15+1564KEIK V0201005N00215008845MN0144845N5-01845-02125999999ADDAA101000021GA1085+008845999GD14991+0088459GE19AGL   +99999+99999GF199999999999008841999999MA1102785085135REMMET10101/20/25 08:35:02 METAR KEIK 201535Z 10004KT 9SM OVC029 M18/M21 A3035 RMK AO2 SNE1453 P0000 T11841212
0193720534001612025012015557+40017-105050FM-15+1564KEIK V0201105N00215005495MN0128755N5-01805-02085999999ADDGA1085+005495999GD14991+0054959GE19AGL   +99999+99999GF199999999999005491999999MA1102785085135REMMET08701/20/25 08:55:02 METAR KEIK 201555Z 11004KT 8SM OVC018 M18/M21 A3035 RMK AO2 T11801208
0193720534001612025012016157+40017-105050FM-15+1564KEIK V0201005N00215013115MN0144845N5-01795-02075999999ADDGA1085+013115999GD14991+0131159GE19AGL   +99999+99999GF199999999999013111999999MA1102785085135REMMET08701/20/25 09:15:02 METAR KEIK 201615Z 10004KT 9SM OVC043 M18/M21 A3035 RMK AO2 T11791207
0193720534001612025012016357+40017-105050FM-15+1564KEIK V0201005N00365010975MN0128755N5-01795-02085999999ADDGA1085+010975999GD14991+0109759GE19AGL   +99999+99999GF199999999999010971999999MA1102815085165REMMET08701/20/25 09:35:02 METAR KEIK 201635Z 10007KT 8SM OVC036 M18/M21 A3036 RMK AO2 T11791208
0193720534001612025012016557+40017-105050FM-15+1564KEIK V0201005N00365007925MN0128755N5-01785-02095999999ADDGA1085+007925999GD14991+0079259GE19AGL   +99999+99999GF199999999999007921999999MA1102815085165REMMET08701/20/25 09:55:02 METAR KEIK 201655Z 10007KT 8SM OVC026 M18/M21 A3036 RMK AO2 T11781209
0193720534001612025012017157+40017-105050FM-15+1564KEIK V0201105N00265010065MN0144845N5-01765-02085999999ADDGA1085+010065999GD14991+0100659GE19AGL   +99999+99999GF199999999999010061999999MA1102845085195REMMET08701/20/25 10:15:02 METAR KEIK 201715Z 11005KT 9SM OVC033 M18/M21 A3037 RMK AO2 T11761208
0193720534001612025012017357+40017-105050FM-15+1564KEIK V0201205N00265005185MN0144845N5-01695-02065999999ADDGA1085+005185999GD14991+0051859GE19AGL   +99999+99999GF199999999999005181999999MA1102845085195REMMET08701/20/25 10:35:02 METAR KEIK 201735Z 12005KT 9SM OVC017 M17/M21 A3037 RMK AO2 T11691206
0204720534001612025012017557+40017-105050FM-15+1564KEIK V0201005N00265003355MN0160935N5-01675-02055999999ADDGA1085+003355999GD14991+0033559GE19AGL   +99999+99999GF199999999999003351999999MA1102845085195REMMET09801/20/25 10:55:02 METAR KEIK 201755Z 10005KT 10SM OVC011 M17/M20 A3037 RMK AO2 OVC V BKN T11671205
0213720534001612025012018157+40017-105050FM-15+1564KEIK V0201505N002152200059N0160935N5-01615-02065999999ADDGA1025+003055999GD11991+0030559GE19AGL   +99999+99999GF102995999999003051999999MA1102815085165REMMET08801/20/25 11:15:02 METAR KEIK 201815Z 15004KT 10SM FEW010 M16/M21 A3036 RMK AO2 T11611206EQDD01      0ADE726
0169720534001612025012018357+40017-105050FM-15+1564KEIK V0201905N002152200059N0160935N5-01575-02025999999ADDGA1005+999999999GD10991+9999999GF100991999999999999999999MA1102745085105REMMET08501/20/25 11:35:02 METAR KEIK 201835Z 19004KT 10SM CLR M16/M20 A3034 RMK AO2 T11571202
0169720534001612025012018557+40017-105050FM-15+1564KEIK V0201805N002152200059N0160935N5-01515-01995999999ADDGA1005+999999999GD10991+9999999GF100991999999999999999999MA1102715085075REMMET08501/20/25 11:55:02 METAR KEIK 201855Z 18004KT 10SM CLR M15/M20 A3033 RMK AO2 T11511199
0169720534001612025012019157+40017-105050FM-15+1564KEIK V0201505N002652200059N0160935N5-01475-02005999999ADDGA1005+999999999GD10991+9999999GF100991999999999999999999MA1102685085045REMMET08501/20/25 12:15:02 METAR KEIK 201915Z 15005KT 10SM CLR M15/M20 A3032 RMK AO2 T11471200
0169720534001612025012019357+40017-105050FM-15+1564KEIK V0201605N002152200059N0160935N5-01455-01985999999ADDGA1005+999999999GD10991+9999999GF100991999999999999999999MA1102615084985REMMET08501/20/25 12:35:02 METAR KEIK 201935Z 16004KT 10SM CLR M14/M20 A3030 RMK AO2 T11451198
0169720534001612025012019557+40017-105050FM-15+1564KEIK V0209999C000052200059N0160935N5-01415-01975999999ADDGA1005+999999999GD10991+9999999GF100991999999999999999999MA1102615084985REMMET08501/20/25 12:55:02 METAR KEIK 201955Z 00000KT 10SM CLR M14/M20 A3030 RMK AO2 T11411197
0169720534001612025012020157+40017-105050FM-15+1564KEIK V0201005N002152200059N0160935N5-01455-01935999999ADDGA1005+999999999GD10991+9999999GF100991999999999999999999MA1102575084965REMMET08501/20/25 13:15:02 METAR KEIK 202015Z 10004KT 10SM CLR M14/M19 A3029 RMK AO2 T11451193
0169720534001612025012020357+40017-105050FM-15+1564KEIK V0200705N001552200059N0160935N5-01425-01945999999ADDGA1005+999999999GD10991+9999999GF100991999999999999999999MA1102575084965REMMET08501/20/25 13:35:02 METAR KEIK 202035Z 07003KT 10SM CLR M14/M19 A3029 RMK AO2 T11421194
0169720534001612025012020557+40017-105050FM-15+1564KEIK V0200505N001552200059N0160935N5-01415-01935999999ADDGA1005+999999999GD10991+9999999GF100991999999999999999999MA1102575084965REMMET08501/20/25 13:55:02 METAR KEIK 202055Z 05003KT 10SM CLR M14/M19 A3029 RMK AO2 T11411193
0169720534001612025012021157+40017-105050FM-15+1564KEIK V0200505N002652200059N0160935N5-01455-01955999999ADDGA1005+999999999GD10991+9999999GF100991999999999999999999MA1102575084965REMMET08501/20/25 14:15:02 METAR KEIK 202115Z 05005KT 10SM CLR M15/M20 A3029 RMK AO2 T11451195
0169720534001612025012021357+40017-105050FM-15+1564KEIK V0200805N002152200059N0160935N5-01435-02105999999ADDGA1005+999999999GD10991+9999999GF100991999999999999999999MA1102575084965REMMET08501/20/25 14:35:02 METAR KEIK 202135Z 08004KT 10SM CLR M14/M21 A3029 RMK AO2 T11431210
0169720534001612025012021557+40017-105050FM-15+1564KEIK V0200805N002152200059N0160935N5-01435-02315999999ADDGA1005+999999999GD10991+9999999GF100991999999999999999999MA1102615084985REMMET08501/20/25 14:55:02 METAR KEIK 202155Z 08004KT 10SM CLR M14/M23 A3030 RMK AO2 T11431231
0169720534001612025012022157+40017-105050FM-15+1564KEIK V0200505N001552200059N0160935N5-01455-02365999999ADDGA1005+999999999GD10991+9999999GF100991999999999999999999MA1102645085015REMMET08501/20/25 15:15:02 METAR KEIK 202215Z 05003KT 10SM CLR M15/M24 A3031 RMK AO2 T11451236
0169720534001612025012022357+40017-105050FM-15+1564KEIK V0200605N002152200059N0160935N5-01455-02555999999ADDGA1005+999999999GD10991+9999999GF100991999999999999999999MA1102645085015REMMET08501/20/25 15:35:02 METAR KEIK 202235Z 06004KT 10SM CLR M15/M25 A3031 RMK AO2 T11451255
0169720534001612025012022557+40017-105050FM-15+1564KEIK V0200605N001552200059N0160935N5-01485-02565999999ADDGA1005+999999999GD10991+9999999GF100991999999999999999999MA1102645085015REMMET08501/20/25 15:55:02 METAR KEIK 202255Z 06003KT 10SM CLR M15/M26 A3031 RMK AO2 T11481256
0169720534001612025012023157+40017-105050FM-15+1564KEIK V0200505N001552200059N0160935N5-01495-02645999999ADDGA1005+999999999GD10991+9999999GF100991999999999999999999MA1102685085045REMMET08501/20/25 16:15:02 METAR KEIK 202315Z 05003KT 10SM CLR M15/M26 A3032 RMK AO2 T11491264
0169720534001612025012023357+40017-105050FM-15+1564KEIK V0201005N001552200059N0160935N5-01735-02555999999ADDGA1005+999999999GD10991+9999999GF100991999999999999999999MA1102685085045REMMET08501/20/25 16:35:02 METAR KEIK 202335Z 10003KT 10SM CLR M17/M26 A3032 RMK AO2 T11731255
0169720534001612025012023557+40017-105050FM-15+1564KEIK V0201105N002652200059N0160935N5-02005-02715999999ADDGA1005+999999999GD10991+9999999GF100991999999999999999999MA1102685085045REMMET08501/20/25 16:55:02 METAR KEIK 202355Z 11005KT 10SM CLR M20/M27 A3032 RMK AO2 T12001271
0169720534001612025012100157+40017-105050FM-15+1564KEIK V0201105N002652200059N0160935N5-02085-02655999999ADDGA1005+999999999GD10991+9999999GF100991999999999999999999MA1102685085045REMMET08501/20/25 17:15:01 METAR KEIK 210015Z 11005KT 10SM CLR M21/M26 A3032 RMK AO2 T12081265
0169720534001612025012100357+40017-105050FM-15+1564KEIK V0201105N002652200059N0160935N5-02115-02635999999ADDGA1005+999999999GD10991+9999999GF100991999999999999999999MA1102715085075REMMET08501/20/25 17:35:01 METAR KEIK 210035Z 11005KT 10SM CLR M21/M26 A3033 RMK AO2 T12111263
0169720534001612025012100557+40017-105050FM-15+1564KEIK V0201205N002652200059N0160935N5-02115-02555999999ADDGA1005+999999999GD10991+9999999GF100991999999999999999999MA1102745085105REMMET08501/20/25 17:55:01 METAR KEIK 210055Z 12005KT 10SM CLR M21/M25 A3034 RMK AO2 T12111255
0169720534001612025012101157+40017-105050FM-15+1564KEIK V0202205N001552200059N0160935N5-02025-02375999999ADDGA1005+999999999GD10991+9999999GF100991999999999999999999MA1102745085105REMMET08501/20/25 18:15:01 METAR KEIK 210115Z 22003KT 10SM CLR M20/M24 A3034 RMK AO2 T12021237
0169720534001612025012101357+40017-105050FM-15+1564KEIK V0202205N002152200059N0160935N5-02175-02525999999ADDGA1005+999999999GD10991+9999999GF100991999999999999999999MA1102785085135REMMET08501/20/25 18:35:01 METAR KEIK 210135Z 22004KT 10SM CLR M22/M25 A3035 RMK AO2 T12171252
0169720534001612025012101557+40017-105050FM-15+1564KEIK V0201905N001552200059N0160935N5-02065-02425999999ADDGA1005+999999999GD10991+9999999GF100991999999999999999999MA1102785085135REMMET08501/20/25 18:55:01 METAR KEIK 210155Z 19003KT 10SM CLR M21/M24 A3035 RMK AO2 T12061242
0169720534001612025012102157+40017-105050FM-15+1564KEIK V0201905N001552200059N0160935N5-02035-02425999999ADDGA1005+999999999GD10991+9999999GF100991999999999999999999MA1102785085135REMMET08501/20/25 19:15:01 METAR KEIK 210215Z 19003KT 10SM CLR M20/M24 A3035 RMK AO2 T12031242
0169720534001612025012102357+40017-105050FM-15+1564KEIK V0201905N001552200059N0160935N5-02015-02365999999ADDGA1005+999999999GD10991+9999999GF100991999999999999999999MA1102785085135REMMET08501/20/25 19:35:01 METAR KEIK 210235Z 19003KT 10SM CLR M20/M24 A3035 RMK AO2 T12011236
0168720534001612025012102557+40017-105050FM-15+1564KEIK V0201905N002652200059N0144845N5-02105-02415999999ADDGA1005+999999999GD10991+9999999GF100991999999999999999999MA1102745085105REMMET08401/20/25 19:55:01 METAR KEIK 210255Z 19005KT 9SM CLR M21/M24 A3034 RMK AO2 T12101241
0169720534001612025012103157+40017-105050FM-15+1564KEIK V0201705N002152200059N0160935N5-02165-02455999999ADDGA1005+999999999GD10991+9999999GF100991999999999999999999MA1102715085075REMMET08501/20/25 20:15:01 METAR KEIK 210315Z 17004KT 10SM CLR M22/M25 A3033 RMK AO2 T12161245
0169720534001612025012103357+40017-105050FM-15+1564KEIK V0209999C000052200059N0160935N5-02415-02685999999ADDGA1005+999999999GD10991+9999999GF100991999999999999999999MA1102715085075REMMET08501/20/25 20:35:01 METAR KEIK 210335Z 00000KT 10SM CLR M24/M27 A3033 RMK AO2 T12411268
0169720534001612025012103557+40017-105050FM-15+1564KEIK V0209999C000052200059N0160935N5-02485-02715999999ADDGA1005+999999999GD10991+9999999GF100991999999999999999999MA1102685085045REMMET08501/20/25 20:55:01 METAR KEIK 210355Z 00000KT 10SM CLR M25/M27 A3032 RMK AO2 T12481271
0169720534001612025012104157+40017-105050FM-15+1564KEIK V0209999C000052200059N0160935N5-02455-02695999999ADDGA1005+999999999GD10991+9999999GF100991999999999999999999MA1102645085015REMMET08501/20/25 21:15:01 METAR KEIK 210415Z 00000KT 10SM CLR M25/M27 A3031 RMK AO2 T12451269
0169720534001612025012104357+40017-105050FM-15+1564KEIK V0209999C000052200059N0160935N5-02245-02515999999ADDGA1005+999999999GD10991+9999999GF100991999999999999999999MA1102645085015REMMET08501/20/25 21:35:01 METAR KEIK 210435Z 00000KT 10SM CLR M22/M25 A3031 RMK AO2 T12241251
0169720534001612025012104557+40017-105050FM-15+1564KEIK V0201805N002152200059N0160935N5-01875-02435999999ADDGA1005+999999999GD10991+9999999GF100991999999999999999999MA1102645085015REMMET08501/20/25 21:55:01 METAR KEIK 210455Z 18004KT 10SM CLR M19/M24 A3031 RMK AO2 T11871243
0169720534001612025012105157+40017-105050FM-15+1564KEIK V0209999C000052200059N0160935N5-01985-02475999999ADDGA1005+999999999GD10991+9999999GF100991999999999999999999MA1102615084985REMMET08501/20/25 22:15:02 METAR KEIK 210515Z 00000KT 10SM CLR M20/M25 A3030 RMK AO2 T11981247
0168720534001612025012105357+40017-105050FM-15+1564KEIK V0209999C000052200059N0144845N5-02355-02655999999ADDGA1005+999999999GD10991+9999999GF100991999999999999999999MA1102575084965REMMET08401/20/25 22:35:02 METAR KEIK 210535Z 00000KT 9SM CLR M23/M27 A3029 RMK AO2 T12351265
0168720534001612025012105557+40017-105050FM-15+1564KEIK V0209999C000052200059N0144845N5-02525-02745999999ADDGA1005+999999999GD10991+9999999GF100991999999999999999999MA1102575084965REMMET08401/20/25 22:55:02 METAR KEIK 210555Z 00000KT 9SM CLR M25/M27 A3029 RMK AO2 T12521274
0169720534001612025012106157+40017-105050FM-15+1564KEIK V0209999C000052200059N0160935N5-02565-02835999999ADDGA1005+999999999GD10991+9999999GF100991999999999999999999MA1102575084965REMMET08501/20/25 23:15:02 METAR KEIK 210615Z 00000KT 10SM CLR M26/M28 A3029 RMK AO2 T12561283
0188720534001612025012106357+40017-105050FM-15+1564KEIK V0209999C000052200059N0096565N5-02575-02805999999ADDAU100001015AW1105GA1005+999999999GD10991+9999999GF100991999999999999999999MA1102545084935REMMET08701/20/25 23:35:02 METAR KEIK 210635Z 00000KT 6SM BR CLR M26/M28 A3028 RMK AO2 T12571280
0169720534001612025012106557+40017-105050FM-15+1564KEIK V0209999C000052200059N0160935N5-02575-02855999999ADDGA1005+999999999GD10991+9999999GF100991999999999999999999MA1102545084935REMMET08501/20/25 23:55:02 METAR KEIK 210655Z 00000KT 10SM CLR M26/M28 A3028 RMK AO2 T12571285
003972053400161202501210659O+40017-105050SOD  +1564KEIK V020999999999999999999999999999+99999+99999999999ADDAT1AU18SN  5AT2AU13BR  5AT3AU08HZ  5
0168720534001612025012107157+40017-105050FM-15+1564KEIK V0209999C000052200059N0144845N5-02605-02895999999ADDGA1005+999999999GD10991+9999999GF100991999999999999999999MA1102475084875REMMET08401/21/25 00:15:02 METAR KEIK 210715Z 00000KT 9SM CLR M26/M29 A3026 RMK AO2 T12601289
0169720534001612025012107357+40017-105050FM-15+1564KEIK V0209999C000052200059N0160935N5-02725-03055999999ADDGA1005+999999999GD10991+9999999GF100991999999999999999999MA1102445084845REMMET08501/21/25 00:35:02 METAR KEIK 210735Z 00000KT 10SM CLR M27/M30 A3025 RMK AO2 T12721305
0169720534001612025012107557+40017-105050FM-15+1564KEIK V0209999C000052200059N0160935N5-02675-02985999999ADDGA1005+999999999GD10991+9999999GF100991999999999999999999MA1102405084815REMMET08501/21/25 00:55:02 METAR KEIK 210755Z 00000KT 10SM CLR M27/M30 A3024 RMK AO2 T12671298
0169720534001612025012108157+40017-105050FM-15+1564KEIK V0209999C000052200059N0160935N5-02625-02925999999ADDGA1005+999999999GD10991+9999999GF100991999999999999999999MA1102375084785REMMET08501/21/25 01:15:02 METAR KEIK 210815Z 00000KT 10SM CLR M26/M29 A3023 RMK AO2 T12621292
0169720534001612025012108357+40017-105050FM-15+1564KEIK V0209999C000052200059N0160935N5-02685-02995999999ADDGA1005+999999999GD10991+9999999GF100991999999999999999999MA1102375084785REMMET08501/21/25 01:35:02 METAR KEIK 210835Z 00000KT 10SM CLR M27/M30 A3023 RMK AO2 T12681299
0169720534001612025012108557+40017-105050FM-15+1564KEIK V0209999C000052200059N0160935N5-02755-03085999999ADDGA1005+999999999GD10991+9999999GF100991999999999999999999MA1102345084755REMMET08501/21/25 01:55:02 METAR KEIK 210855Z 00000KT 10SM CLR M28/M31 A3022 RMK AO2 T12751308
0169720534001612025012109157+40017-105050FM-15+1564KEIK V0209999C000052200059N0160935N5-02795-03135999999ADDGA1005+999999999GD10991+9999999GF100991999999999999999999MA1102305084725REMMET08501/21/25 02:15:02 METAR KEIK 210915Z 00000KT 10SM CLR M28/M31 A3021 RMK AO2 T12791313
0169720534001612025012109357+40017-105050FM-15+1564KEIK V0209999C000052200059N0160935N5-02685-03005999999ADDGA1005+999999999GD10991+9999999GF100991999999999999999999MA1102305084725REMMET08501/21/25 02:35:02 METAR KEIK 210935Z 00000KT 10SM CLR M27/M30 A3021 RMK AO2 T12681300
0169720534001612025012109557+40017-105050FM-15+1564KEIK V0209999C000052200059N0160935N5-02735-03055999999ADDGA1005+999999999GD10991+9999999GF100991999999999999999999MA1102275084695REMMET08501/21/25 02:55:02 METAR KEIK 210955Z 00000KT 10SM CLR M27/M31 A3020 RMK AO2 T12731305
0169720534001612025012110157+40017-105050FM-15+1564KEIK V0209999C000052200059N0160935N5-02685-03005999999ADDGA1005+999999999GD10991+9999999GF100991999999999999999999MA1102245084665REMMET08501/21/25 03:15:02 METAR KEIK 211015Z 00000KT 10SM CLR M27/M30 A3019 RMK AO2 T12681300
0169720534001612025012110357+40017-105050FM-15+1564KEIK V0209999C000052200059N0160935N5-02725-03055999999ADDGA1005+999999999GD10991+9999999GF100991999999999999999999MA1102205084645REMMET08501/21/25 03:35:02 METAR KEIK 211035Z 00000KT 10SM CLR M27/M31 A3018 RMK AO2 T12721305
0169720534001612025012110557+40017-105050FM-15+1564KEIK V0209999C000052200059N0160935N5-02695-03015999999ADDGA1005+999999999GD10991+9999999GF100991999999999999999999MA1102135084585REMMET08501/21/25 03:55:02 METAR KEIK 211055Z 00000KT 10SM CLR M27/M30 A3016 RMK AO2 T12691301
0169720534001612025012111157+40017-105050FM-15+1564KEIK V0209999C000052200059N0160935N5-02645-02955999999ADDGA1005+999999999GD10991+9999999GF100991999999999999999999MA1102135084585REMMET08501/21/25 04:15:02 METAR KEIK 211115Z 00000KT 10SM CLR M26/M30 A3016 RMK AO2 T12641295
0169720534001612025012111357+40017-105050FM-15+1564KEIK V0209999C000052200059N0160935N5-02725-03055999999ADDGA1005+999999999GD10991+9999999GF100991999999999999999999MA1102105084555REMMET08501/21/25 04:35:02 METAR KEIK 211135Z 00000KT 10SM CLR M27/M30 A3015 RMK AO2 T12721305
0169720534001612025012111557+40017-105050FM-15+1564KEIK V0209999C000052200059N0160935N5-02715-03045999999ADDGA1005+999999999GD10991+9999999GF100991999999999999999999MA1102105084555REMMET08501/21/25 04:55:02 METAR KEIK 211155Z 00000KT 10SM CLR M27/M30 A3015 RMK AO2 T12711304
0169720534001612025012112157+40017-105050FM-15+1564KEIK V0209999C000052200059N0160935N5-02645-02955999999ADDGA1005+999999999GD10991+9999999GF100991999999999999999999MA1102075084525REMMET08501/21/25 05:15:02 METAR KEIK 211215Z 00000KT 10SM CLR M26/M29 A3014 RMK AO2 T12641295
0169720534001612025012112357+40017-105050FM-15+1564KEIK V0201405N001552200059N0160935N5-02545-02835999999ADDGA1005+999999999GD10991+9999999GF100991999999999999999999MA1102005084465REMMET08501/21/25 05:35:02 METAR KEIK 211235Z 14003KT 10SM CLR M25/M28 A3012 RMK AO2 T12541283
0169720534001612025012112557+40017-105050FM-15+1564KEIK V0209999C000052200059N0160935N5-02435-02705999999ADDGA1005+999999999GD10991+9999999GF100991999999999999999999MA1101965084435REMMET08501/21/25 05:55:02 METAR KEIK 211255Z 00000KT 10SM CLR M24/M27 A3011 RMK AO2 T12431270
0169720534001612025012113157+40017-105050FM-15+1564KEIK V0209999C000052200059N0160935N5-02515-02805999999ADDGA1005+999999999GD10991+9999999GF100991999999999999999999MA1101935084405REMMET08501/21/25 06:15:02 METAR KEIK 211315Z 00000KT 10SM CLR M25/M28 A3010 RMK AO2 T12511280
0169720534001612025012113357+40017-105050FM-15+1564KEIK V0209999C000052200059N0160935N5-02525-02815999999ADDGA1005+999999999GD10991+9999999GF100991999999999999999999MA1101935084405REMMET08501/21/25 06:35:02 METAR KEIK 211335Z 00000KT 10SM CLR M25/M28 A3010 RMK AO2 T12521281
0169720534001612025012113557+40017-105050FM-15+1564KEIK V0209999C000052200059N0160935N5-02605-02905999999ADDGA1005+999999999GD10991+9999999GF100991999999999999999999MA1101965084435REMMET08501/21/25 06:55:02 METAR KEIK 211355Z 00000KT 10SM CLR M26/M29 A3011 RMK AO2 T12601290
0168720534001612025012114157+40017-105050FM-15+1564KEIK V0209999C000052200059N0144845N5-02515-02795999999ADDGA1005+999999999GD10991+9999999GF100991999999999999999999MA1101965084435REMMET08401/21/25 07:15:02 METAR KEIK 211415Z 00000KT 9SM CLR M25/M28 A3011 RMK AO2 T12511279
0169720534001612025012114357+40017-105050FM-15+1564KEIK V0209999C000052200059N0160935N5-02475-02755999999ADDGA1005+999999999GD10991+9999999GF100991999999999999999999MA1101935084405REMMET08501/21/25 07:35:02 METAR KEIK 211435Z 00000KT 10SM CLR M25/M27 A3010 RMK AO2 T12471275
0169720534001612025012114557+40017-105050FM-15+1564KEIK V0209999C000052200059N0160935N5-02325-02565999999ADDGA1005+999999999GD10991+9999999GF100991999999999999999999MA1101935084405REMMET08501/21/25 07:55:02 METAR KEIK 211455Z 00000KT 10SM CLR M23/M26 A3010 RMK AO2 T12321256
0169720534001612025012115157+40017-105050FM-15+1564KEIK V0209999C000052200059N0160935N5-02175-02375999999ADDGA1005+999999999GD10991+9999999GF100991999999999999999999MA1101935084405REMMET08501/21/25 08:15:02 METAR KEIK 211515Z 00000KT 10SM CLR M22/M24 A3010 RMK AO2 T12171237
0169720534001612025012115357+40017-105050FM-15+1564KEIK V0209999C000052200059N0160935N5-02005-02155999999ADDGA1005+999999999GD10991+9999999GF100991999999999999999999MA1101905084375REMMET08501/21/25 08:35:02 METAR KEIK 211535Z 00000KT 10SM CLR M20/M22 A3009 RMK AO2 T12001215
0169720534001612025012115557+40017-105050FM-15+1564KEIK V0209999C000052200059N0160935N5-01905-02045999999ADDGA1005+999999999GD10991+9999999GF100991999999999999999999MA1101905084375REMMET08501/21/25 08:55:02 METAR KEIK 211555Z 00000KT 10SM CLR M19/M20 A3009 RMK AO2 T11901204
0169720534001612025012116157+40017-105050FM-15+1564KEIK V0209999C000052200059N0160935N5-01935-02095999999ADDGA1005+999999999GD10991+9999999GF100991999999999999999999MA1101905084375REMMET08501/21/25 09:15:02 METAR KEIK 211615Z 00000KT 10SM CLR M19/M21 A3009 RMK AO2 T11931209
0169720534001612025012116357+40017-105050FM-15+1564KEIK V0203405N001552200059N0160935N5-01805-01975999999ADDGA1005+999999999GD10991+9999999GF100991999999999999999999MA1101935084405REMMET08501/21/25 09:35:02 METAR KEIK 211635Z 34003KT 10SM CLR M18/M20 A3010 RMK AO2 T11801197
0169720534001612025012116557+40017-105050FM-15+1564KEIK V0209999C000052200059N0160935N5-01635-01915999999ADDGA1005+999999999GD10991+9999999GF100991999999999999999999MA1101935084405REMMET08501/21/25 09:55:02 METAR KEIK 211655Z 00000KT 10SM CLR M16/M19 A3010 RMK AO2 T11631191
0169720534001612025012117157+40017-105050FM-15+1564KEIK V0209999C000052200059N0160935N5-01375-01985999999ADDGA1005+999999999GD10991+9999999GF100991999999999999999999MA1101935084405REMMET08501/21/25 10:15:02 METAR KEIK 211715Z 00000KT 10SM CLR M14/M20 A3010 RMK AO2 T11371198
0251720534001612025012117357+40017-105050FM-15+1564KEIK V0202005N002152200059N0160935N5-01315-01925999999ADDGA1045+051825999GA2045+057915999GD12991+0518259GD22991+0579159GE19AGL   +99999+99999GF104995999999051821999999MA1101905084375REMMET09501/21/25 10:35:02 METAR KEIK 211735Z 20004KT 10SM SCT170 SCT190 M13/M19 A3009 RMK AO2 T11311192EQDD01      0ADE726
0232720534001612025012117557+40017-105050FM-15+1564KEIK V0209999C00005048775MN0160935N5-01255-01935999999ADDGA1075+048775999GA2075+057915999GD13991+0487759GD23991+0579159GE19AGL   +99999+99999GF199999999999048771999999MA1101865084345REMMET09501/21/25 10:55:02 METAR KEIK 211755Z 00000KT 10SM BKN160 BKN190 M12/M19 A3008 RMK AO2 T11251193
0201720534001612025012118157+40017-105050FM-15+1564KEIK V0202305N00215048775MN0160935N5-00745-01595999999ADDGA1075+048775999GD13991+0487759GE19AGL   +99999+99999GF199999999999048771999999MA1101795084295REMMET09501/21/25 11:15:02 METAR KEIK 211815Z 23004KT 10SM BKN160 M07/M16 A3006 RMK AO2 PRESFR T10741159
0223720534001612025012118357+40017-105050FM-15+1564KEIK V0202805N006752200059N0160935N5+00205-01555999999ADDGA1045+048775999GD12991+0487759GE19AGL   +99999+99999GF104995999999048771999999MA1101735084235OC100935REMMET09001/21/25 11:35:02 METAR KEIK 211835Z 28013G18KT 10SM SCT160 02/M15 A3004 RMK AO2 T00201155EQDD01      0ADE726
0193720534001612025012118557+40017-105050FM-15+1564KEIK V0202005N00415045725MN0160935N5+00225-01385999999ADDGA1075+045725999GD13991+0457259GE19AGL   +99999+99999GF199999999999045721999999MA1101695084205REMMET08701/21/25 11:55:02 METAR KEIK 211855Z 20008KT 10SM BKN150 02/M14 A3003 RMK AO2 T00221138
0210720534001612025012119157+40017-105050FM-15+1564KEIK V0202405N00315045725MN0160935N5+00195-01285999999ADDAA101000595GA1085+045725999GD14991+0457259GE19AGL   +99999+99999GF199999999999045721999999MA1101665084175REMMET09301/21/25 12:15:02 METAR KEIK 211915Z 24006KT 10SM OVC150 02/M13 A3002 RMK AO2 P0002 T00191128
0248720534001612025012119357+40017-105050FM-15+1564KEIK V0202305N00365064015MN0160935N5+00205-01285999999ADDAA101000595GA1025+045725999GA2075+064015999GD11991+0457259GD23991+0640159GE19AGL   +99999+99999GF199999999999045721999999MA1101635084145REMMET10001/21/25 12:35:02 METAR KEIK 211935Z 23007KT 10SM FEW150 BKN210 02/M13 A3001 RMK AO2 P0002 T00201128
0231720534001612025012119557+40017-105050FM-15+1564KEIK V0209999V00265060965MN0160935N5+00225-01375999999ADDGA1045+054865999GA2075+060965999GD12991+0548659GD23991+0609659GE19AGL   +99999+99999GF199999999999054861999999MA1101595084115REMMET09401/21/25 12:55:02 METAR KEIK 211955Z VRB05KT 10SM SCT180 BKN200 02/M14 A3000 RMK AO2 T00221137
0193720534001612025012120157+40017-105050FM-15+1564KEIK V0202705N00315054865MN0160935N5+00265-01505999999ADDGA1075+054865999GD13991+0548659GE19AGL   +99999+99999GF199999999999054861999999MA1101525084055REMMET08701/21/25 13:15:02 METAR KEIK 212015Z 27006KT 10SM BKN180 03/M15 A2998 RMK AO2 T00261150
0213720534001612025012120357+40017-105050FM-15+1564KEIK V0203105N001552200059N0160935N5-00215-01085999999ADDGA1045+057915999GD12991+0579159GE19AGL   +99999+99999GF104995999999057911999999MA1101525084055REMMET08801/21/25 13:35:02 METAR KEIK 212035Z 31003KT 10SM SCT190 M02/M11 A2998 RMK AO2 T10211108EQDD01      0ADE726
0269720534001612025012120557+40017-105050FM-15+1564KEIK V0209999C00005064015MN0160935N5+00476-01865999999ADDGA1045+051825999GA2045+057915999GA3075+064015999GD12991+0518259GD22991+0579159GD33991+0640159GE19AGL   +99999+99999GF199999999999051821999999MA1101525084055REMMET10101/21/25 13:55:02 METAR KEIK 212055Z 00000KT 10SM SCT170 SCT190 BKN210 05/M19 A2998 RMK AO2 T00471186
0212720534001612025012121157+40017-105050FM-15+1564KEIK V0209999C000052200059N0160935N5+00345-01535999999ADDGA1025+067065999GD11991+0670659GE19AGL   +99999+99999GF102995999999067061999999MA1101525084055REMMET08701/21/25 14:15:02 METAR KEIK 212115Z 00000KT 10SM FEW220 03/M15 A2998 RMK AO2 T00341153EQDD01      0ADE726
0168720534001612025012121357+40017-105050FM-15+1564KEIK V0200205N002652200059N0160935N5+00255-01435999999ADDGA1005+999999999GD10991+9999999GF100991999999999999999999MA1101495084035REMMET08401/21/25 14:35:02 METAR KEIK 212135Z 02005KT 10SM CLR 03/M14 A2997 RMK AO2 T00251143
0168720534001612025012121557+40017-105050FM-15+1564KEIK V0209999V002652200059N0160935N5+00275-01645999999ADDGA1005+999999999GD10991+9999999GF100991999999999999999999MA1101495084035REMMET08401/21/25 14:55:02 METAR KEIK 212155Z VRB05KT 10SM CLR 03/M16 A2997 RMK AO2 T00271164
0168720534001612025012122157+40017-105050FM-15+1564KEIK V0201505N001552200059N0160935N5+00285-01395999999ADDGA1005+999999999GD10991+9999999GF100991999999999999999999MA1101525084055REMMET08401/21/25 15:15:02 METAR KEIK 212215Z 15003KT 10SM CLR 03/M14 A2998 RMK AO2 T00281139
0179720534001612025012122357+40017-105050FM-15+1564KEIK V0203005N005152200059N0160935N5+00435-01685999999ADDGA1005+999999999GD10991+9999999GF100991999999999999999999MA1101565084085OC100775REMMET08701/21/25 15:35:02 METAR KEIK 212235Z 30010G15KT 10SM CLR 04/M17 A2999 RMK AO2 T00431168
0197720534001612025012122557+40017-105050FM-15+1564KEIK V0203005N010852200059N0160935N5+00385-01565999999ADDGA1005+999999999GD10991+9999999GF100991999999999999999999MA1101565084085OC101445REMMET10501/21/25 15:55:02 METAR KEIK 212255Z 30021G28KT 10SM CLR 04/M16 A2999 RMK AO2 PK WND 30028/2253 T00381156
0200720534001612025012123157+40017-105050FM-15+1564KEIK V0202905N005752200059N0160935N5+00345-01525999999ADDGA1005+999999999GD10991+9999999GF100991999999999999999999MA1101595084115OD149901441300REMMET10201/21/25 16:15:02 METAR KEIK 212315Z 29011KT 10SM CLR 03/M15 A3000 RMK AO2 PK WND 30028/2253 T00341152
0197720534001612025012123357+40017-105050FM-15+1564KEIK V0203305N005752200059N0160935N5+00456-01895999999ADDGA1005+999999999GD10991+9999999GF100991999999999999999999MA1101595084115OC100985REMMET10501/21/25 16:35:02 METAR KEIK 212335Z 33011G19KT 10SM CLR 05/M19 A3000 RMK AO2 PK WND 30028/2253 T00451189
0168720534001612025012123557+40017-105050FM-15+1564KEIK V0209999V002152200059N0160935N5+00305-01805999999ADDGA1005+999999999GD10991+9999999GF100991999999999999999999MA1101595084115REMMET08401/21/25 16:55:02 METAR KEIK 212355Z VRB04KT 10SM CLR 03/M18 A3000 RMK AO2 T00301180
0179720534001612025012200157+40017-105050FM-15+1564KEIK V0202805N006252200059N0160935N5+00245-01815999999ADDGA1005+999999999GD10991+9999999GF100991999999999999999999MA1101565084085OC100775REMMET08701/21/25 17:15:01 METAR KEIK 220015Z 28012G15KT 10SM CLR 02/M18 A2999 RMK AO2 T00241181
0169720534001612025012200357+40017-105050FM-15+1564KEIK V0202805N004152200059N0160935N5-00025-01615999999ADDGA1005+999999999GD10991+9999999GF100991999999999999999999MA1101565084085REMMET08501/21/25 17:35:01 METAR KEIK 220035Z 28008KT 10SM CLR M00/M16 A2999 RMK AO2 T10021161
0179720534001612025012200557+40017-105050FM-15+1564KEIK V0202705N007752200059N0160935N5+00305-01695999999ADDGA1005+999999999GD10991+9999999GF100991999999999999999999MA1101525084055OC101135REMMET08701/21/25 17:55:01 METAR KEIK 220055Z 27015G22KT 10SM CLR 03/M17 A2998 RMK AO2 T00301169
0179720534001612025012201157+40017-105050FM-15+1564KEIK V0202705N009852200059N0160935N5+00316-01715999999ADDGA1005+999999999GD10991+9999999GF100991999999999999999999MA1101525084055OC101295REMMET08701/21/25 18:15:01 METAR KEIK 220115Z 27019G25KT 10SM CLR 03/M17 A2998 RMK AO2 T00311171
0179720534001612025012201307+40017-105050FM-15+1564KEIK V0202705N007252200059N0160935N5+00316-01785999999ADDGA1005+999999999GD10991+9999999GF100991999999999999999999MA1101525084055OC101295REMMET08701/21/25 18:30:01 METAR KEIK 220130Z 27014G25KT 10SM CLR 03/M18 A2998 RMK AO2 T00311178
0179720534001612025012201357+40017-105050FM-15+1564KEIK V0202705N009352200059N0160935N5+00306-01765999999ADDGA1005+999999999GD10991+9999999GF100991999999999999999999MA1101525084055OC101245REMMET08701/21/25 18:35:01 METAR KEIK 220135Z 27018G24KT 10SM CLR 03/M18 A2998 RMK AO2 T00301176
0179720534001612025012201557+40017-105050FM-15+1564KEIK V0202605N008852200059N0160935N5+00246-01745999999ADDGA1005+999999999GD10991+9999999GF100991999999999999999999MA1101495084035OC101185REMMET08701/21/25 18:55:01 METAR KEIK 220155Z 26017G23KT 10SM CLR 02/M17 A2997 RMK AO2 T00241174
0179720534001612025012202157+40017-105050FM-15+1564KEIK V0202705N007752200059N0160935N5+00246-01815999999ADDGA1005+999999999GD10991+9999999GF100991999999999999999999MA1101465084005OC101185REMMET08701/21/25 19:15:01 METAR KEIK 220215Z 27015G23KT 10SM CLR 02/M18 A2996 RMK AO2 T00241181
0179720534001612025012202357+40017-105050FM-15+1564KEIK V0202705N006752200059N0160935N5+00205-01725999999ADDGA1005+999999999GD10991+9999999GF100991999999999999999999MA1101495084035OC101245REMMET08701/21/25 19:35:01 METAR KEIK 220235Z 27013G24KT 10SM CLR 02/M17 A2997 RMK AO2 T00201172
0179720534001612025012202557+40017-105050FM-15+1564KEIK V0202805N006252200059N0160935N5+00205-01875999999ADDGA1005+999999999GD10991+9999999GF100991999999999999999999MA1101495084035OC100985REMMET08701/21/25 19:55:01 METAR KEIK 220255Z 28012G19KT 10SM CLR 02/M19 A2997 RMK AO2 T00201187
0168720534001612025012203157+40017-105050FM-15+1564KEIK V0202605N006752200059N0160935N5+00145-01795999999ADDGA1005+999999999GD10991+9999999GF100991999999999999999999MA1101565084085REMMET08401/21/25 20:15:01 METAR KEIK 220315Z 26013KT 10SM CLR 01/M18 A2999 RMK AO2 T00141179
0197720534001612025012203357+40017-105050FM-15+1564KEIK V0202605N008852200059N0160935N5+00145-01845999999ADDGA1005+999999999GD10991+9999999GF100991999999999999999999MA1101595084115OC101395REMMET10501/21/25 20:35:01 METAR KEIK 220335Z 26017G27KT 10SM CLR 01/M18 A3000 RMK AO2 PK WND 25027/0331 T00141184
0179720534001612025012203557+40017-105050FM-15+1564KEIK V0202705N009852200059N0160935N5+00115-01805999999ADDGA1005+999999999GD10991+9999999GF100991999999999999999999MA1101635084145OC101245REMMET08701/21/25 20:55:01 METAR KEIK 220355Z 27019G24KT 10SM CLR 01/M18 A3001 RMK AO2 T00111180
0197720534001612025012204157+40017-105050FM-15+1564KEIK V0202705N007752200059N0160935N5+00135-01835999999ADDGA1005+999999999GD10991+9999999GF100991999999999999999999MA1101635084145OC101395REMMET10501/21/25 21:15:01 METAR KEIK 220415Z 27015G27KT 10SM CLR 01/M18 A3001 RMK AO2 PK WND 26027/0407 T00131183
0197720534001612025012204357+40017-105050FM-15+1564KEIK V0202805N012952200059N0160935N5+00085-01635999999ADDGA1005+999999999GD10991+9999999GF100991999999999999999999MA1101635084145OC101545REMMET10501/21/25 21:35:01 METAR KEIK 220435Z 28025G30KT 10SM CLR 01/M16 A3001 RMK AO2 PK WND 27030/0433 T00081163
0168720534001612025012204557+40017-105050FM-15+1564KEIK V0203005N008852200059N0160935N5+00015-01585999999ADDGA1005+999999999GD10991+9999999GF100991999999999999999999MA1101695084205REMMET08401/21/25 21:55:01 METAR KEIK 220455Z 30017KT 10SM CLR 00/M16 A3003 RMK AO2 T00011158
0168720534001612025012205157+40017-105050FM-15+1564KEIK V0203005N007752200059N0160935N5+00055-01715999999ADDGA1005+999999999GD10991+9999999GF100991999999999999999999MA1101665084175REMMET08401/21/25 22:15:02 METAR KEIK 220515Z 30015KT 10SM CLR 01/M17 A3002 RMK AO2 T00051171
0169720534001612025012205357+40017-105050FM-15+1564KEIK V0202905N003652200059N0160935N5-00115-01655999999ADDGA1005+999999999GD10991+9999999GF100991999999999999999999MA1101735084235REMMET08501/21/25 22:35:02 METAR KEIK 220535Z 29007KT 10SM CLR M01/M16 A3004 RMK AO2 T10111165
0169720534001612025012205557+40017-105050FM-15+1564KEIK V0209999C000052200059N0160935N5-00205-01715999999ADDGA1005+999999999GD10991+9999999GF100991999999999999999999MA1101735084235REMMET08501/21/25 22:55:02 METAR KEIK 220555Z 00000KT 10SM CLR M02/M17 A3004 RMK AO2 T10201171
0179720534001612025012206157+40017-105050FM-15+1564KEIK V0202805N007752200059N0160935N5+00045-01805999999ADDGA1005+999999999GD10991+9999999GF100991999999999999999999MA1101765084265OC101185REMMET08701/21/25 23:15:02 METAR KEIK 220615Z 28015G23KT 10SM CLR 00/M18 A3005 RMK AO2 T00041180
0169720534001612025012206357+40017-105050FM-15+1564KEIK V0202705N008252200059N0160935N5-00025-01685999999ADDGA1005+999999999GD10991+9999999GF100991999999999999999999MA1101765084265REMMET08501/21/25 23:35:02 METAR KEIK 220635Z 27016KT 10SM CLR M00/M17 A3005 RMK AO2 T10021168
0197720534001612025012206557+40017-105050FM-15+1564KEIK V0202705N009352200059N0160935N5+00025-01685999999ADDGA1005+999999999GD10991+9999999GF100991999999999999999999MA1101765084265OC101395REMMET10501/21/25 23:55:02 METAR KEIK 220655Z 27018G27KT 10SM CLR 00/M17 A3005 RMK AO2 PK WND 28027/0650 T00021168
0197720534001612025012207157+40017-105050FM-15+1564KEIK V0202705N008852200059N0160935N5+00025-01685999999ADDGA1005+999999999GD10991+9999999GF100991999999999999999999MA1101795084295OC101345REMMET10501/22/25 00:15:02 METAR KEIK 220715Z 27017G26KT 10SM CLR 00/M17 A3006 RMK AO2 PK WND 28027/0650 T00021168
0201720534001612025012207357+40017-105050FM-15+1564KEIK V0202905N005152200059N0160935N5-00055-01725999999ADDGA1005+999999999GD10991+9999999GF100991999999999999999999MA1101835084325OD149901391280REMMET10301/22/25 00:35:02 METAR KEIK 220735Z 29010KT 10SM CLR M00/M17 A3007 RMK AO2 PK WND 28027/0650 T10051172
0169720534001612025012207557+40017-105050FM-15+1564KEIK V0202905N005152200059N0160935N5-00155-01665999999ADDGA1005+999999999GD10991+9999999GF100991999999999999999999MA1101835084325REMMET08501/22/25 00:55:02 METAR KEIK 220755Z 29010KT 10SM CLR M01/M17 A3007 RMK AO2 T10151166
0169720534001612025012208157+40017-105050FM-15+1564KEIK V0202905N003152200059N0160935N5-00255-01655999999ADDGA1005+999999999GD10991+9999999GF100991999999999999999999MA1101835084325REMMET08501/22/25 01:15:02 METAR KEIK 220815Z 29006KT 10SM CLR M03/M17 A3007 RMK AO2 T10251165
0169720534001612025012208357+40017-105050FM-15+1564KEIK V0202905N003152200059N0160935N5-00335-01755999999ADDGA1005+999999999GD10991+9999999GF100991999999999999999999MA1101865084345REMMET08501/22/25 01:35:02 METAR KEIK 220835Z 29006KT 10SM CLR M03/M18 A3008 RMK AO2 T10331175
0213720534001612025012208557+40017-105050FM-15+1564KEIK V0202805N003652200059N0160935N5-00365-01715999999ADDGA1025+030485999GD11991+0304859GE19AGL   +99999+99999GF102995999999030481999999MA1101905084375REMMET08801/22/25 01:55:02 METAR KEIK 220855Z 28007KT 10SM FEW100 M04/M17 A3009 RMK AO2 T10361171EQDD01      0ADE726
0194720534001612025012209157+40017-105050FM-15+1564KEIK V0202705N00515030485MN0160935N5-00275-01735999999ADDGA1075+030485999GD13991+0304859GE19AGL   +99999+99999GF199999999999030481999999MA1101905084375REMMET08801/22/25 02:15:02 METAR KEIK 220915Z 27010KT 10SM BKN100 M03/M17 A3009 RMK AO2 T10271173
0213720534001612025012209357+40017-105050FM-15+1564KEIK V0202605N006252200059N0160935N5-00185-01685999999ADDGA1045+030485999GD12991+0304859GE19AGL   +99999+99999GF104995999999030481999999MA1101905084375REMMET08801/22/25 02:35:02 METAR KEIK 220935Z 26012KT 10SM SCT100 M02/M17 A3009 RMK AO2 T10181168EQDD01      0ADE726
0169720534001612025012209557+40017-105050FM-15+1564KEIK V0202605N005152200059N0160935N5-00185-01685999999ADDGA1005+999999999GD10991+9999999GF100991999999999999999999MA1101905084375REMMET08501/22/25 02:55:02 METAR KEIK 220955Z 26010KT 10SM CLR M02/M17 A3009 RMK AO2 T10181168
0169720534001612025012210157+40017-105050FM-15+1564KEIK V0202605N004152200059N0160935N5-00205-01705999999ADDGA1005+999999999GD10991+9999999GF100991999999999999999999MA1101905084375REMMET08501/22/25 03:15:02 METAR KEIK 221015Z 26008KT 10SM CLR M02/M17 A3009 RMK AO2 T10201170
0169720534001612025012210357+40017-105050FM-15+1564KEIK V0202605N003152200059N0160935N5-00275-01635999999ADDGA1005+999999999GD10991+9999999GF100991999999999999999999MA1101905084375REMMET08501/22/25 03:35:02 METAR KEIK 221035Z 26006KT 10SM CLR M03/M16 A3009 RMK AO2 T10271163
0169720534001612025012210557+40017-105050FM-15+1564KEIK V0200405N002152200059N0160935N5-00465-01685999999ADDGA1005+999999999GD10991+9999999GF100991999999999999999999MA1101905084375REMMET08501/22/25 03:55:02 METAR KEIK 221055Z 04004KT 10SM CLR M05/M17 A3009 RMK AO2 T10461168
0169720534001612025012211157+40017-105050FM-15+1564KEIK V0209999C000052200059N0160935N5-00765-01785999999ADDGA1005+999999999GD10991+9999999GF100991999999999999999999MA1101935084405REMMET08501/22/25 04:15:02 METAR KEIK 221115Z 00000KT 10SM CLR M08/M18 A3010 RMK AO2 T10761178
0169720534001612025012211357+40017-105050FM-15+1564KEIK V0200705N002152200059N0160935N5-00725-01775999999ADDGA1005+999999999GD10991+9999999GF100991999999999999999999MA1101965084435REMMET08501/22/25 04:35:02 METAR KEIK 221135Z 07004KT 10SM CLR M07/M18 A3011 RMK AO2 T10721177
0169720534001612025012211557+40017-105050FM-15+1564KEIK V0209999C000052200059N0160935N5-00905-01835999999ADDGA1005+999999999GD10991+9999999GF100991999999999999999999MA1102005084465REMMET08501/22/25 04:55:02 METAR KEIK 221155Z 00000KT 10SM CLR M09/M18 A3012 RMK AO2 T10901183
0169720534001612025012212157+40017-105050FM-15+1564KEIK V0209999C000052200059N0160935N5-01115-01845999999ADDGA1005+999999999GD10991+9999999GF100991999999999999999999MA1102035084495REMMET08501/22/25 05:15:02 METAR KEIK 221215Z 00000KT 10SM CLR M11/M18 A3013 RMK AO2 T11111184
0169720534001612025012212357+40017-105050FM-15+1564KEIK V0209999C000052200059N0160935N5-01345-01905999999ADDGA1005+999999999GD10991+9999999GF100991999999999999999999MA1102035084495REMMET08501/22/25 05:35:02 METAR KEIK 221235Z 00000KT 10SM CLR M13/M19 A3013 RMK AO2 T11341190
0169720534001612025012212557+40017-105050FM-15+1564KEIK V0202005N001552200059N0160935N5-01425-01905999999ADDGA1005+999999999GD10991+9999999GF100991999999999999999999MA1102075084525REMMET08501/22/25 05:55:02 METAR KEIK 221255Z 20003KT 10SM CLR M14/M19 A3014 RMK AO2 T11421190
0213720534001612025012213157+40017-105050FM-15+1564KEIK V0209999C000052200059N0160935N5-01375-01835999999ADDGA1045+027435999GD12991+0274359GE19AGL   +99999+99999GF104995999999027431999999MA1102105084555REMMET08801/22/25 06:15:02 METAR KEIK 221315Z 00000KT 10SM SCT090 M14/M18 A3015 RMK AO2 T11371183EQDD01      0ADE726
0194720534001612025012213357+40017-105050FM-15+1564KEIK V0209999C00005025915MN0160935N5-01415-01805999999ADDGA1075+025915999GD13991+0259159GE19AGL   +99999+99999GF199999999999025911999999MA1102135084585REMMET08801/22/25 06:35:02 METAR KEIK 221335Z 00000KT 10SM BKN085 M14/M18 A3016 RMK AO2 T11411180
0213720534001612025012213557+40017-105050FM-15+1564KEIK V0209999C000052200059N0160935N5-01435-01805999999ADDGA1045+025915999GD12991+0259159GE19AGL   +99999+99999GF104995999999025911999999MA1102135084585REMMET08801/22/25 06:55:02 METAR KEIK 221355Z 00000KT 10SM SCT085 M14/M18 A3016 RMK AO2 T11431180EQDD01      0ADE726
0212720534001612025012214157+40017-105050FM-15+1564KEIK V0209999C000052200059N0144845N5-01485-01895999999ADDGA1025+024385999GD11991+0243859GE19AGL   +99999+99999GF102995999999024381999999MA1102175084615REMMET08701/22/25 07:15:02 METAR KEIK 221415Z 00000KT 9SM FEW080 M15/M19 A3017 RMK AO2 T11481189EQDD01      0ADE726
0212720534001612025012214357+40017-105050FM-15+1564KEIK V0209999C000052200059N0144845N5-01545-01815999999ADDGA1045+025915999GD12991+0259159GE19AGL   +99999+99999GF104995999999025911999999MA1102205084645REMMET08701/22/25 07:35:02 METAR KEIK 221435Z 00000KT 9SM SCT085 M15/M18 A3018 RMK AO2 T11541181EQDD01      0ADE726
0193720534001612025012214557+40017-105050FM-15+1564KEIK V0209999C00005025915MN0144845N5-01445-01765999999ADDGA1075+025915999GD13991+0259159GE19AGL   +99999+99999GF199999999999025911999999MA1102245084665REMMET08701/22/25 07:55:02 METAR KEIK 221455Z 00000KT 9SM BKN085 M14/M18 A3019 RMK AO2 T11441176
0193720534001612025012215157+40017-105050FM-15+1564KEIK V0209999C00005027435MN0144845N5-01255-01625999999ADDGA1085+027435999GD14991+0274359GE19AGL   +99999+99999GF199999999999027431999999MA1102275084695REMMET08701/22/25 08:15:02 METAR KEIK 221515Z 00000KT 9SM OVC090 M12/M16 A3020 RMK AO2 T11251162
0251720534001612025012215357+40017-105050FM-15+1564KEIK V0209999C000052200059N0160935N5-01175-01655999999ADDGA1045+027435999GA2045+033535999GD12991+0274359GD22991+0335359GE19AGL   +99999+99999GF104995999999027431999999MA1102305084725REMMET09501/22/25 08:35:02 METAR KEIK 221535Z 00000KT 10SM SCT090 SCT110 M12/M17 A3021 RMK AO2 T11171165EQDD01      0ADE726
0213720534001612025012215557+40017-105050FM-15+1564KEIK V0209999C000052200059N0160935N5-00815-01625999999ADDGA1025+033535999GD11991+0335359GE19AGL   +99999+99999GF102995999999033531999999MA1102345084755REMMET08801/22/25 08:55:02 METAR KEIK 221555Z 00000KT 10SM FEW110 M08/M16 A3022 RMK AO2 T10811162EQDD01      0ADE726
0169720534001612025012216157+40017-105050FM-15+1564KEIK V0209999C000052200059N0160935N5-00555-01585999999ADDGA1005+999999999GD10991+9999999GF100991999999999999999999MA1102345084755REMMET08501/22/25 09:15:02 METAR KEIK 221615Z 00000KT 10SM CLR M05/M16 A3022 RMK AO2 T10551158
0169720534001612025012216357+40017-105050FM-15+1564KEIK V0209999C000052200059N0160935N5-00515-01525999999ADDGA1005+999999999GD10991+9999999GF100991999999999999999999MA1102375084785REMMET08501/22/25 09:35:02 METAR KEIK 221635Z 00000KT 10SM CLR M05/M15 A3023 RMK AO2 T10511152
0169720534001612025012216557+40017-105050FM-15+1564KEIK V0203605N003652200059N0160935N5-00355-01555999999ADDGA1005+999999999GD10991+9999999GF100991999999999999999999MA1102405084815REMMET08501/22/25 09:55:02 METAR KEIK 221655Z 36007KT 10SM CLR M04/M16 A3024 RMK AO2 T10351155
0224720534001612025012217157+40017-105050FM-15+1564KEIK V0200105N006252200059N0160935N5-00305-01525999999ADDGA1025+028965999GD11991+0289659GE19AGL   +99999+99999GF102995999999028961999999MA1102405084815OC100885REMMET09101/22/25 10:15:02 METAR KEIK 221715Z 01012G17KT 10SM FEW095 M03/M15 A3024 RMK AO2 T10301152EQDD01      0ADE726
0213720534001612025012217357+40017-105050FM-15+1564KEIK V0203605N004652200059N0160935N5-00305-01475999999ADDGA1045+025915999GD12991+0259159GE19AGL   +99999+99999GF104995999999025911999999MA1102445084845REMMET08801/22/25 10:35:02 METAR KEIK 221735Z 36009KT 10SM SCT085 M03/M15 A3025 RMK AO2 T10301147EQDD01      0ADE726
0194720534001612025012217557+40017-105050FM-15+1564KEIK V0200105N00515025915MN0160935N5-00305-01485999999ADDGA1075+025915999GD13991+0259159GE19AGL   +99999+99999GF199999999999025911999999MA1102445084845REMMET08801/22/25 10:55:02 METAR KEIK 221755Z 01010KT 10SM BKN085 M03/M15 A3025 RMK AO2 T10301148
0157720534001612025012218156+40017-105050FM-15+1564KEIK V0203605N00515024385MN0160935N5-00285-01505999999ADDGA1085+024385999GD14991+0243859MA1102445084845OC100985REMMET09101/22/25 11:15:02 METAR KEIK 221815Z 36010G19KT 10SM OVC080 M03/M15 A3025 RMK AO2 T10281150
0184720534001612025012218356+40017-105050FM-15+1564KEIK V0200105N00515024385MN0160935N5-00295-01415999999ADDGA1075+024385999GA2085+028965999GD13991+0243859GD24991+0289659MA1102445084845REMMET09501/22/25 11:35:02 METAR KEIK 221835Z 01010KT 10SM BKN080 OVC095 M03/M14 A3025 RMK AO2 T10291141
0157720534001612025012218556+40017-105050FM-15+1564KEIK V0200105N00465027435MN0160935N5-00285-01395999999ADDGA1075+027435999GD13991+0274359MA1102405084815OC100775REMMET09101/22/25 11:55:02 METAR KEIK 221855Z 01009G15KT 10SM BKN090 M03/M14 A3024 RMK AO2 T10281139
0146720534001612025012219156+40017-105050FM-15+1564KEIK V0200105N004152200059N0160935N5-00335-01425999999ADDGA1025+025915999GD11991+0259159MA1102405084815REMMET08801/22/25 12:15:02 METAR KEIK 221915Z 01008KT 10SM FEW085 M03/M14 A3024 RMK AO2 T10331142
0157720534001612025012219356+40017-105050FM-15+1564KEIK V0203505N004652200059N0160935N5-00245-01535999999ADDGA1025+027435999GD11991+0274359MA1102405084815OC100825REMMET09101/22/25 12:35:02 METAR KEIK 221935Z 35009G16KT 10SM FEW090 M02/M15 A3024 RMK AO2 T10241153
0224720534001612025012219557+40017-105050FM-15+1564KEIK V0203405N005752200059N0160935N5-00195-01575999999ADDGA1025+027435999GD11991+0274359GE19AGL   +99999+99999GF102995999999027431999999MA1102445084845OC100825REMMET09101/22/25 12:55:02 METAR KEIK 221955Z 34011G16KT 10SM FEW090 M02/M16 A3025 RMK AO2 T10191157EQDD01      0ADE726
0180720534001612025012220157+40017-105050FM-15+1564KEIK V0203305N006252200059N0160935N5-00175-01675999999ADDGA1005+999999999GD10991+9999999GF100991999999999999999999MA1102405084815OC100985REMMET08801/22/25 13:15:02 METAR KEIK 222015Z 33012G19KT 10SM CLR M02/M17 A3024 RMK AO2 T10171167
0169720534001612025012220357+40017-105050FM-15+1564KEIK V0203405N004152200059N0160935N5-00135-01675999999ADDGA1005+999999999GD10991+9999999GF100991999999999999999999MA1102445084845REMMET08501/22/25 13:35:02 METAR KEIK 222035Z 34008KT 10SM CLR M01/M17 A3025 RMK AO2 T10131167
0169720534001612025012220557+40017-105050FM-15+1564KEIK V0203605N003652200059N0160935N5-00135-01595999999ADDGA1005+999999999GD10991+9999999GF100991999999999999999999MA1102445084845REMMET08501/22/25 13:55:02 METAR KEIK 222055Z 36007KT 10SM CLR M01/M16 A3025 RMK AO2 T10131159
0205720534001612025012221157+40017-105050FM-15+1564KEIK V0203605N00415024385MN0160935N5-00105-01655999999ADDGA1075+024385999GD13991+0243859GE19AGL   +99999+99999GF199999999999024381999999MA1102445084845OC100725REMMET09101/22/25 14:15:02 METAR KEIK 222115Z 36008G14KT 10SM BKN080 M01/M16 A3025 RMK AO2 T10101165
0194720534001612025012221357+40017-105050FM-15+1564KEIK V0200105N00315024385MN0160935N5-00165-01615999999ADDGA1075+024385999GD13991+0243859GE19AGL   +99999+99999GF199999999999024381999999MA1102445084845REMMET08801/22/25 14:35:02 METAR KEIK 222135Z 01006KT 10SM BKN080 M02/M16 A3025 RMK AO2 T10161161
0213720534001612025012221557+40017-105050FM-15+1564KEIK V0203505N003152200059N0160935N5-00175-01595999999ADDGA1025+024385999GD11991+0243859GE19AGL   +99999+99999GF102995999999024381999999MA1102445084845REMMET08801/22/25 14:55:02 METAR KEIK 222155Z 35006KT 10SM FEW080 M02/M16 A3025 RMK AO2 T10171159EQDD01      0ADE726
0180720534001612025012222157+40017-105050FM-15+1564KEIK V0203305N006252200059N0160935N5-00225-01755999999ADDGA1005+999999999GD10991+9999999GF100991999999999999999999MA1102475084875OC100985REMMET08801/22/25 15:15:02 METAR KEIK 222215Z 33012G19KT 10SM CLR M02/M17 A3026 RMK AO2 T10221175
0169720534001612025012222357+40017-105050FM-15+1564KEIK V0203405N004152200059N0160935N5-00215-01795999999ADDGA1005+999999999GD10991+9999999GF100991999999999999999999MA1102515084905REMMET08501/22/25 15:35:02 METAR KEIK 222235Z 34008KT 10SM CLR M02/M18 A3027 RMK AO2 T10211179
0180720534001612025012222557+40017-105050FM-15+1564KEIK V0203605N003652200059N0160935N5-00215-01745999999ADDGA1005+999999999GD10991+9999999GF100991999999999999999999MA1102545084935OC100825REMMET08801/22/25 15:55:02 METAR KEIK 222255Z 36007G16KT 10SM CLR M02/M17 A3028 RMK AO2 T10211174
0213720534001612025012223157+40017-105050FM-15+1564KEIK V0203405N003652200059N0160935N5-00235-01615999999ADDGA1025+033535999GD11991+0335359GE19AGL   +99999+99999GF102995999999033531999999MA1102545084935REMMET08801/22/25 16:15:02 METAR KEIK 222315Z 34007KT 10SM FEW110 M02/M16 A3028 RMK AO2 T10231161EQDD01      0ADE726
0213720534001612025012223357+40017-105050FM-15+1564KEIK V0203305N003652200059N0160935N5-00315-01575999999ADDGA1045+030485999GD12991+0304859GE19AGL   +99999+99999GF104995999999030481999999MA1102575084965REMMET08801/22/25 16:35:02 METAR KEIK 222335Z 33007KT 10SM SCT100 M03/M16 A3029 RMK AO2 T10311157EQDD01      0ADE726
0212720534001612025012223557+40017-105050FM-15+1564KEIK V0203105N005152200059N0144845N5-00395-01755999999ADDGA1025+030485999GD11991+0304859GE19AGL   +99999+99999GF102995999999030481999999MA1102575084965REMMET08701/22/25 16:55:02 METAR KEIK 222355Z 31010KT 9SM FEW100 M04/M17 A3029 RMK AO2 T10391175EQDD01      0ADE726
0193720534001612025012300157+40017-105050FM-15+1564KEIK V0203105N00625025915MN0144845N5-00345-01935999999ADDGA1075+025915999GD13991+0259159GE19AGL   +99999+99999GF199999999999025911999999MA1102615084985REMMET08701/22/25 17:15:01 METAR KEIK 230015Z 31012KT 9SM BKN085 M03/M19 A3030 RMK AO2 T10341193
0213720534001612025012300357+40017-105050FM-15+1564KEIK V0203205N005752200059N0160935N5-00455-01895999999ADDGA1045+024385999GD12991+0243859GE19AGL   +99999+99999GF104995999999024381999999MA1102645085015REMMET08801/22/25 17:35:01 METAR KEIK 230035Z 32011KT 10SM SCT080 M04/M19 A3031 RMK AO2 T10451189EQDD01      0ADE726
0169720534001612025012300557+40017-105050FM-15+1564KEIK V0203305N003652200059N0160935N5-00495-01925999999ADDGA1005+999999999GD10991+9999999GF100991999999999999999999MA1102645085015REMMET08501/22/25 17:55:01 METAR KEIK 230055Z 33007KT 10SM CLR M05/M19 A3031 RMK AO2 T10491192
0169720534001612025012301157+40017-105050FM-15+1564KEIK V0203305N004652200059N0160935N5-00495-01945999999ADDGA1005+999999999GD10991+9999999GF100991999999999999999999MA1102645085015REMMET08501/22/25 18:15:01 METAR KEIK 230115Z 33009KT 10SM CLR M05/M19 A3031 RMK AO2 T10491194
0169720534001612025012301357+40017-105050FM-15+1564KEIK V0203105N004152200059N0160935N5-00535-01895999999ADDGA1005+999999999GD10991+9999999GF100991999999999999999999MA1102645085015REMMET08501/22/25 18:35:01 METAR KEIK 230135Z 31008KT 10SM CLR M05/M19 A3031 RMK AO2 T10531189
0194720534001612025012301557+40017-105050FM-15+1564KEIK V0203005N00265030485MN0160935N5-00755-01805999999ADDGA1075+030485999GD13991+0304859GE19AGL   +99999+99999GF199999999999030481999999MA1102645085015REMMET08801/22/25 18:55:01 METAR KEIK 230155Z 30005KT 10SM BKN100 M07/M18 A3031 RMK AO2 T10751180
0146720534001612025012302156+40017-105050FM-15+1564KEIK V0209999C00005030485MN0160935N5-00735-01765999999ADDGA1085+030485999GD14991+0304859MA1102645085015REMMET08801/22/25 19:15:01 METAR KEIK 230215Z 00000KT 10SM OVC100 M07/M18 A3031 RMK AO2 T10731176
0146720534001612025012302356+40017-105050FM-15+1564KEIK V0202505N00155030485MN0160935N5-00815-01805999999ADDGA1085+030485999GD14991+0304859MA1102685085045REMMET08801/22/25 19:35:01 METAR KEIK 230235Z 25003KT 10SM OVC100 M08/M18 A3032 RMK AO2 T10811180
0146720534001612025012302556+40017-105050FM-15+1564KEIK V0201905N00155030485MN0160935N5-00795-01795999999ADDGA1085+030485999GD14991+0304859MA1102685085045REMMET08801/22/25 19:55:01 METAR KEIK 230255Z 19003KT 10SM OVC100 M08/M18 A3032 RMK AO2 T10791179
0194720534001612025012303157+40017-105050FM-15+1564KEIK V0209999C00005030485MN0160935N5-00925-01755999999ADDGA1085+030485999GD14991+0304859GE19AGL   +99999+99999GF199999999999030481999999MA1102645085015REMMET08801/22/25 20:15:02 METAR KEIK 230315Z 00000KT 10SM OVC100 M09/M18 A3031 RMK AO2 T10921175
0194720534001612025012303357+40017-105050FM-15+1564KEIK V0201805N00265030485MN0160935N5-00725-01775999999ADDGA1085+030485999GD14991+0304859GE19AGL   +99999+99999GF199999999999030481999999MA1102645085015REMMET08801/22/25 20:35:02 METAR KEIK 230335Z 18005KT 10SM OVC100 M07/M18 A3031 RMK AO2 T10721177
0146720534001612025012303556+40017-105050FM-15+1564KEIK V0209999C00005030485MN0160935N5-00885-01575999999ADDGA1085+030485999GD14991+0304859MA1102685085045REMMET08801/22/25 20:55:02 METAR KEIK 230355Z 00000KT 10SM OVC100 M09/M16 A3032 RMK AO2 T10881157
0194720534001612025012304157+40017-105050FM-15+1564KEIK V0202505N00155030485MN0160935N5-00775-01735999999ADDGA1085+030485999GD14991+0304859GE19AGL   +99999+99999GF199999999999030481999999MA1102645085015REMMET08801/22/25 21:15:02 METAR KEIK 230415Z 25003KT 10SM OVC100 M08/M17 A3031 RMK AO2 T10771173
0194720534001612025012304357+40017-105050FM-15+1564KEIK V0202105N00155030485MN0160935N5-00825-01705999999ADDGA1085+030485999GD14991+0304859GE19AGL   +99999+99999GF199999999999030481999999MA1102685085045REMMET08801/22/25 21:35:02 METAR KEIK 230435Z 21003KT 10SM OVC100 M08/M17 A3032 RMK AO2 T10821170
0194720534001612025012304557+40017-105050FM-15+1564KEIK V0202805N00265030485MN0160935N5-00645-01775999999ADDGA1085+030485999GD14991+0304859GE19AGL   +99999+99999GF199999999999030481999999MA1102685085045REMMET08801/22/25 21:55:02 METAR KEIK 230455Z 28005KT 10SM OVC100 M06/M18 A3032 RMK AO2 T10641177
0194720534001612025012305157+40017-105050FM-15+1564KEIK V0203105N00415030485MN0160935N5-00465-01855999999ADDGA1085+030485999GD14991+0304859GE19AGL   +99999+99999GF199999999999030481999999MA1102685085045REMMET08801/22/25 22:15:02 METAR KEIK 230515Z 31008KT 10SM OVC100 M05/M18 A3032 RMK AO2 T10461185
0194720534001612025012305357+40017-105050FM-15+1564KEIK V0209999C00005030485MN0160935N5-00485-01825999999ADDGA1085+030485999GD14991+0304859GE19AGL   +99999+99999GF199999999999030481999999MA1102685085045REMMET08801/22/25 22:35:02 METAR KEIK 230535Z 00000KT 10SM OVC100 M05/M18 A3032 RMK AO2 T10481182
0146720534001612025012305556+40017-105050FM-15+1564KEIK V0209999C00005028965MN0160935N5-00645-01695999999ADDGA1085+028965999GD14991+0289659MA1102685085045REMMET08801/22/25 22:55:02 METAR KEIK 230555Z 00000KT 10SM OVC095 M06/M17 A3032 RMK AO2 T10641169
0194720534001612025012306157+40017-105050FM-15+1564KEIK V0202205N00215030485MN0160935N5-00505-01825999999ADDGA1085+030485999GD14991+0304859GE19AGL   +99999+99999GF199999999999030481999999MA1102715085075REMMET08801/22/25 23:15:02 METAR KEIK 230615Z 22004KT 10SM OVC100 M05/M18 A3033 RMK AO2 T10501182
0232720534001612025012306357+40017-105050FM-15+1564KEIK V0201705N00155030485MN0160935N5-00555-01735999999ADDGA1025+024385999GA2085+030485999GD11991+0243859GD24991+0304859GE19AGL   +99999+99999GF199999999999024381999999MA1102715085075REMMET09501/22/25 23:35:02 METAR KEIK 230635Z 17003KT 10SM FEW080 OVC100 M06/M17 A3033 RMK AO2 T10551173
0232720534001612025012306557+40017-105050FM-15+1564KEIK V0209999C00005025915MN0160935N5-00655-01645999999ADDGA1075+025915999GA2085+030485999GD13991+0259159GD24991+0304859GE19AGL   +99999+99999GF199999999999025911999999MA1102715085075REMMET09501/22/25 23:55:02 METAR KEIK 230655Z 00000KT 10SM BKN085 OVC100 M07/M16 A3033 RMK AO2 T10651164
0194720534001612025012307157+40017-105050FM-15+1564KEIK V0209999C00005022865MN0160935N5-00745-01495999999ADDGA1085+022865999GD14991+0228659GE19AGL   +99999+99999GF199999999999022861999999MA1102715085075REMMET08801/23/25 00:15:02 METAR KEIK 230715Z 00000KT 10SM OVC075 M07/M15 A3033 RMK AO2 T10741149
0184720534001612025012307356+40017-105050FM-15+1564KEIK V0200805N00315022865MN0160935N5-00695-01635999999ADDGA1075+022865999GA2085+027435999GD13991+0228659GD24991+0274359MA1102745085105REMMET09501/23/25 00:35:02 METAR KEIK 230735Z 08006KT 10SM BKN075 OVC090 M07/M16 A3034 RMK AO2 T10691163
0194720534001612025012307557+40017-105050FM-15+1564KEIK V0201005N00315025915MN0160935N5-00835-01545999999ADDGA1085+025915999GD14991+0259159GE19AGL   +99999+99999GF199999999999025911999999MA1102745085105REMMET08801/23/25 00:55:02 METAR KEIK 230755Z 10006KT 10SM OVC085 M08/M15 A3034 RMK AO2 T10831154
0194720534001612025012308157+40017-105050FM-15+1564KEIK V0201005N00265027435MN0160935N5-00765-01625999999ADDGA1075+027435999GD13991+0274359GE19AGL   +99999+99999GF199999999999027431999999MA1102785085135REMMET08801/23/25 01:15:02 METAR KEIK 230815Z 10005KT 10SM BKN090 M08/M16 A3035 RMK AO2 T10761162
0213720534001612025012308357+40017-105050FM-15+1564KEIK V0201205N001552200059N0160935N5-00835-01605999999ADDGA1045+027435999GD12991+0274359GE19AGL   +99999+99999GF104995999999027431999999MA1102785085135REMMET08801/23/25 01:35:02 METAR KEIK 230835Z 12003KT 10SM SCT090 M08/M16 A3035 RMK AO2 T10831160EQDD01      0ADE726
0169720534001612025012308557+40017-105050FM-15+1564KEIK V0209999V001552200059N0160935N5-01065-01715999999ADDGA1005+999999999GD10991+9999999GF100991999999999999999999MA1102785085135REMMET08501/23/25 01:55:02 METAR KEIK 230855Z VRB03KT 10SM CLR M11/M17 A3035 RMK AO2 T11061171
0169720534001612025012309157+40017-105050FM-15+1564KEIK V0209999V001552200059N0160935N5-01045-01705999999ADDGA1005+999999999GD10991+9999999GF100991999999999999999999MA1102785085135REMMET08501/23/25 02:15:02 METAR KEIK 230915Z VRB03KT 10SM CLR M10/M17 A3035 RMK AO2 T11041170
0143720534001612025012309356+40017-105050FM-15+1564KEIK V0201905N002152200059N0160935N5-00955-01725999999ADDGA1005+999999999GD10991+9999999MA1102785085135REMMET08501/23/25 02:35:02 METAR KEIK 230935Z 19004KT 10SM CLR M09/M17 A3035 RMK AO2 T10951172
0169720534001612025012309557+40017-105050FM-15+1564KEIK V0209999C000052200059N0160935N5-01225-01815999999ADDGA1005+999999999GD10991+9999999GF100991999999999999999999MA1102785085135REMMET08501/23/25 02:55:02 METAR KEIK 230955Z 00000KT 10SM CLR M12/M18 A3035 RMK AO2 T11221181
0169720534001612025012310157+40017-105050FM-15+1564KEIK V0209999C000052200059N0160935N5-01445-01865999999ADDGA1005+999999999GD10991+9999999GF100991999999999999999999MA1102815085165REMMET08501/23/25 03:15:02 METAR KEIK 231015Z 00000KT 10SM CLR M14/M19 A3036 RMK AO2 T11441186
0169720534001612025012310357+40017-105050FM-15+1564KEIK V0209999C000052200059N0160935N5-01495-01835999999ADDGA1005+999999999GD10991+9999999GF100991999999999999999999MA1102815085165REMMET08501/23/25 03:35:02 METAR KEIK 231035Z 00000KT 10SM CLR M15/M18 A3036 RMK AO2 T11491183
0169720534001612025012310557+40017-105050FM-15+1564KEIK V0209999C000052200059N0160935N5-01605-01925999999ADDGA1005+999999999GD10991+9999999GF100991999999999999999999MA1102815085165REMMET08501/23/25 03:55:02 METAR KEIK 231055Z 00000KT 10SM CLR M16/M19 A3036 RMK AO2 T11601192
0169720534001612025012311157+40017-105050FM-15+1564KEIK V0209999C000052200059N0160935N5-01725-02015999999ADDGA1005+999999999GD10991+9999999GF100991999999999999999999MA1102845085195REMMET08501/23/25 04:15:02 METAR KEIK 231115Z 00000KT 10SM CLR M17/M20 A3037 RMK AO2 T11721201
0169720534001612025012311357+40017-105050FM-15+1564KEIK V0209999C000052200059N0160935N5-01835-02095999999ADDGA1005+999999999GD10991+9999999GF100991999999999999999999MA1102845085195REMMET08501/23/25 04:35:02 METAR KEIK 231135Z 00000KT 10SM CLR M18/M21 A3037 RMK AO2 T11831209
0143720534001612025012311556+40017-105050FM-15+1564KEIK V0201605N002152200059N0160935N5-01715-01915999999ADDGA1005+999999999GD10991+9999999MA1102845085195REMMET08501/23/25 04:55:02 METAR KEIK 231155Z 16004KT 10SM CLR M17/M19 A3037 RMK AO2 T11711191
0169720534001612025012312157+40017-105050FM-15+1564KEIK V0209999C000052200059N0160935N5-01785-01995999999ADDGA1005+999999999GD10991+9999999GF100991999999999999999999MA1102885085225REMMET08501/23/25 05:15:02 METAR KEIK 231215Z 00000KT 10SM CLR M18/M20 A3038 RMK AO2 T11781199
0169720534001612025012312357+40017-105050FM-15+1564KEIK V0201605N001552200059N0160935N5-01665-01955999999ADDGA1005+999999999GD10991+9999999GF100991999999999999999999MA1102885085225REMMET08501/23/25 05:35:02 METAR KEIK 231235Z 16003KT 10SM CLR M17/M19 A3038 RMK AO2 T11661195
0168720534001612025012312557+40017-105050FM-15+1564KEIK V0209999C000052200059N0144845N5-01675-01965999999ADDGA1005+999999999GD10991+9999999GF100991999999999999999999MA1102915085255REMMET08401/23/25 05:55:02 METAR KEIK 231255Z 00000KT 9SM CLR M17/M20 A3039 RMK AO2 T11671196
0194720534001612025012313157+40017-105050FM-15+1564KEIK V0209999C00005028965MN0160935N5-01715-01975999999ADDGA1075+028965999GD13991+0289659GE19AGL   +99999+99999GF199999999999028961999999MA1102915085255REMMET08801/23/25 06:15:02 METAR KEIK 231315Z 00000KT 10SM BKN095 M17/M20 A3039 RMK AO2 T11711197
0146720534001612025012313356+40017-105050FM-15+1564KEIK V0209999C000052200059N0160935N5-01785-02025999999ADDGA1045+028965999GD12991+0289659MA1102915085255REMMET08801/23/25 06:35:02 METAR KEIK 231335Z 00000KT 10SM SCT095 M18/M20 A3039 RMK AO2 T11781202
0194720534001612025012313557+40017-105050FM-15+1564KEIK V0209999C00005027435MN0160935N5-01655-01905999999ADDGA1075+027435999GD13991+0274359GE19AGL   +99999+99999GF199999999999027431999999MA1102955085285REMMET08801/23/25 06:55:02 METAR KEIK 231355Z 00000KT 10SM BKN090 M16/M19 A3040 RMK AO2 T11651190
0145720534001612025012314156+40017-105050FM-15+1564KEIK V0201805N00155027435MN0144845N5-01545-01795999999ADDGA1085+027435999GD14991+0274359MA1102955085285REMMET08701/23/25 07:15:02 METAR KEIK 231415Z 18003KT 9SM OVC090 M15/M18 A3040 RMK AO2 T11541179
0194720534001612025012314357+40017-105050FM-15+1564KEIK V0209999C00005028965MN0160935N5-01405-01735999999ADDGA1085+028965999GD14991+0289659GE19AGL   +99999+99999GF199999999999028961999999MA1102955085285REMMET08801/23/25 07:35:02 METAR KEIK 231435Z 00000KT 10SM OVC095 M14/M17 A3040 RMK AO2 T11401173
0193720534001612025012314557+40017-105050FM-15+1564KEIK V0202205N00215030485MN0144845N5-01375-01695999999ADDGA1085+030485999GD14991+0304859GE19AGL   +99999+99999GF199999999999030481999999MA1102985085305REMMET08701/23/25 07:55:02 METAR KEIK 231455Z 22004KT 9SM OVC100 M14/M17 A3041 RMK AO2 T11371169
0145720534001612025012315156+40017-105050FM-15+1564KEIK V0209999C00005030485MN0144845N5-01325-01725999999ADDGA1075+030485999GD13991+0304859MA1102955085285REMMET08701/23/25 08:15:02 METAR KEIK 231515Z 00000KT 9SM BKN100 M13/M17 A3040 RMK AO2 T11321172
0213720534001612025012315357+40017-105050FM-15+1564KEIK V0209999C000052200059N0160935N5-01215-01695999999ADDGA1025+030485999GD11991+0304859GE19AGL   +99999+99999GF102995999999030481999999MA1102985085305REMMET08801/23/25 08:35:02 METAR KEIK 231535Z 00000KT 10SM FEW100 M12/M17 A3041 RMK AO2 T11211169EQDD01      0ADE726
0169720534001612025012315557+40017-105050FM-15+1564KEIK V0209999C000052200059N0160935N5-00975-01665999999ADDGA1005+999999999GD10991+9999999GF100991999999999999999999MA1102955085285REMMET08501/23/25 08:55:02 METAR KEIK 231555Z 00000KT 10SM CLR M10/M17 A3040 RMK AO2 T10971166
0169720534001612025012316157+40017-105050FM-15+1564KEIK V0209999C000052200059N0160935N5-00915-01645999999ADDGA1005+999999999GD10991+9999999GF100991999999999999999999MA1102955085285REMMET08501/23/25 09:15:02 METAR KEIK 231615Z 00000KT 10SM CLR M09/M16 A3040 RMK AO2 T10911164
0169720534001612025012316357+40017-105050FM-15+1564KEIK V0201305N002152200059N0160935N5-00515-01765999999ADDGA1005+999999999GD10991+9999999GF100991999999999999999999MA1102915085255REMMET08501/23/25 09:35:02 METAR KEIK 231635Z 13004KT 10SM CLR M05/M18 A3039 RMK AO2 T10511176
0169720534001612025012316557+40017-105050FM-15+1564KEIK V0201005N003152200059N0160935N5-00495-01555999999ADDGA1005+999999999GD10991+9999999GF100991999999999999999999MA1102955085285REMMET08501/23/25 09:55:02 METAR KEIK 231655Z 10006KT 10SM CLR M05/M16 A3040 RMK AO2 T10491155
0169720534001612025012317157+40017-105050FM-15+1564KEIK V0200905N003652200059N0160935N5-00445-01465999999ADDGA1005+999999999GD10991+9999999GF100991999999999999999999MA1102955085285REMMET08501/23/25 10:15:02 METAR KEIK 231715Z 09007KT 10SM CLR M04/M15 A3040 RMK AO2 T10441146
0169720534001612025012317357+40017-105050FM-15+1564KEIK V0201105N003652200059N0160935N5-00385-01475999999ADDGA1005+999999999GD10991+9999999GF100991999999999999999999MA1102915085255REMMET08501/23/25 10:35:02 METAR KEIK 231735Z 11007KT 10SM CLR M04/M15 A3039 RMK AO2 T10381147
0168720534001612025012317557+40017-105050FM-15+1564KEIK V0201105N003152200059N0144845N5-00345-01465999999ADDGA1005+999999999GD10991+9999999GF100991999999999999999999MA1102955085285REMMET08401/23/25 10:55:02 METAR KEIK 231755Z 11006KT 9SM CLR M03/M15 A3040 RMK AO2 T10341146
0169720534001612025012318157+40017-105050FM-15+1564KEIK V0201105N004152200059N0160935N5-00315-01665999999ADDGA1005+999999999GD10991+9999999GF100991999999999999999999MA1102885085225REMMET08501/23/25 11:15:02 METAR KEIK 231815Z 11008KT 10SM CLR M03/M17 A3038 RMK AO2 T10311166
0169720534001612025012318357+40017-105050FM-15+1564KEIK V0201105N004152200059N0160935N5-00305-01635999999ADDGA1005+999999999GD10991+9999999GF100991999999999999999999MA1102845085195REMMET08501/23/25 11:35:02 METAR KEIK 231835Z 11008KT 10SM CLR M03/M16 A3037 RMK AO2 T10301163
0169720534001612025012318557+40017-105050FM-15+1564KEIK V0201405N003652200059N0160935N5-00275-01615999999ADDGA1005+999999999GD10991+9999999GF100991999999999999999999MA1102815085165REMMET08501/23/25 11:55:02 METAR KEIK 231855Z 14007KT 10SM CLR M03/M16 A3036 RMK AO2 T10271161
0169720534001612025012319157+40017-105050FM-15+1564KEIK V0201305N003652200059N0160935N5-00245-01645999999ADDGA1005+999999999GD10991+9999999GF100991999999999999999999MA1102785085135REMMET08501/23/25 12:15:02 METAR KEIK 231915Z 13007KT 10SM CLR M02/M16 A3035 RMK AO2 T10241164
0169720534001612025012319357+40017-105050FM-15+1564KEIK V0201405N002652200059N0160935N5-00215-01745999999ADDGA1005+999999999GD10991+9999999GF100991999999999999999999MA1102715085075REMMET08501/23/25 12:35:02 METAR KEIK 231935Z 14005KT 10SM CLR M02/M17 A3033 RMK AO2 T10211174
0169720534001612025012319557+40017-105050FM-15+1564KEIK V0201205N003652200059N0160935N5-00205-01615999999ADDGA1005+999999999GD10991+9999999GF100991999999999999999999MA1102685085045REMMET08501/23/25 12:55:02 METAR KEIK 231955Z 12007KT 10SM CLR M02/M16 A3032 RMK AO2 T10201161
0169720534001612025012320157+40017-105050FM-15+1564KEIK V0209999V003152200059N0160935N5-00195-01665999999ADDGA1005+999999999GD10991+9999999GF100991999999999999999999MA1102645085015REMMET08501/23/25 13:15:02 METAR KEIK 232015Z VRB06KT 10SM CLR M02/M17 A3031 RMK AO2 T10191166
0169720534001612025012320357+40017-105050FM-15+1564KEIK V0201305N002652200059N0160935N5-00155-01625999999ADDGA1005+999999999GD10991+9999999GF100991999999999999999999MA1102575084965REMMET08501/23/25 13:35:02 METAR KEIK 232035Z 13005KT 10SM CLR M02/M16 A3029 RMK AO2 T10151162
0143720534001612025012320556+40017-105050FM-15+1564KEIK V0201305N003652200059N0160935N5-00145-01605999999ADDGA1005+999999999GD10991+9999999MA1102575084965REMMET08501/23/25 13:55:02 METAR KEIK 232055Z 13007KT 10SM CLR M01/M16 A3029 RMK AO2 T10141160
0143720534001612025012321156+40017-105050FM-15+1564KEIK V0201305N003152200059N0160935N5-00115-01585999999ADDGA1005+999999999GD10991+9999999MA1102545084935REMMET08501/23/25 14:15:02 METAR KEIK 232115Z 13006KT 10SM CLR M01/M16 A3028 RMK AO2 T10111158
0143720534001612025012321356+40017-105050FM-15+1564KEIK V0201205N002652200059N0160935N5-00105-01625999999ADDGA1005+999999999GD10991+9999999MA1102475084875REMMET08501/23/25 14:35:02 METAR KEIK 232135Z 12005KT 10SM CLR M01/M16 A3026 RMK AO2 T10101162
0169720534001612025012321557+40017-105050FM-15+1564KEIK V0201405N003152200059N0160935N5-00075-01615999999ADDGA1005+999999999GD10991+9999999GF100991999999999999999999MA1102475084875REMMET08501/23/25 14:55:02 METAR KEIK 232155Z 14006KT 10SM CLR M01/M16 A3026 RMK AO2 T10071161
0169720534001612025012322157+40017-105050FM-15+1564KEIK V0201505N002652200059N0160935N5-00075-01575999999ADDGA1005+999999999GD10991+9999999GF100991999999999999999999MA1102445084845REMMET08501/23/25 15:15:02 METAR KEIK 232215Z 15005KT 10SM CLR M01/M16 A3025 RMK AO2 T10071157
0169720534001612025012322357+40017-105050FM-15+1564KEIK V0201205N003152200059N0160935N5-00075-01575999999ADDGA1005+999999999GD10991+9999999GF100991999999999999999999MA1102405084815REMMET08501/23/25 15:35:02 METAR KEIK 232235Z 12006KT 10SM CLR M01/M16 A3024 RMK AO2 T10071157
0169720534001612025012322557+40017-105050FM-15+1564KEIK V0201305N002652200059N0160935N5-00075-01565999999ADDGA1005+999999999GD10991+9999999GF100991999999999999999999MA1102375084785REMMET08501/23/25 15:55:02 METAR KEIK 232255Z 13005KT 10SM CLR M01/M16 A3023 RMK AO2 T10071156
0169720534001612025012323157+40017-105050FM-15+1564KEIK V0201305N002652200059N0160935N5-00115-01525999999ADDGA1005+999999999GD10991+9999999GF100991999999999999999999MA1102375084785REMMET08501/23/25 16:15:02 METAR KEIK 232315Z 13005KT 10SM CLR M01/M15 A3023 RMK AO2 T10111152
0169720534001612025012323357+40017-105050FM-15+1564KEIK V0201505N002652200059N0160935N5-00145-01515999999ADDGA1005+999999999GD10991+9999999GF100991999999999999999999MA1102375084785REMMET08501/23/25 16:35:02 METAR KEIK 232335Z 15005KT 10SM CLR M01/M15 A3023 RMK AO2 T10141151
0169720534001612025012323557+40017-105050FM-15+1564KEIK V0201805N002652200059N0160935N5-00165-01635999999ADDGA1005+999999999GD10991+9999999GF100991999999999999999999MA1102345084755REMMET08501/23/25 16:55:02 METAR KEIK 232355Z 18005KT 10SM CLR M02/M16 A3022 RMK AO2 T10161163
0168720534001612025012400157+40017-105050FM-15+1564KEIK V0201605N002152200059N0144845N5-00335-01605999999ADDGA1005+999999999GD10991+9999999GF100991999999999999999999MA1102345084755REMMET08401/23/25 17:15:01 METAR KEIK 240015Z 16004KT 9SM CLR M03/M16 A3022 RMK AO2 T10331160
0168720534001612025012400357+40017-105050FM-15+1564KEIK V0201905N003152200059N0144845N5-00425-01635999999ADDGA1005+999999999GD10991+9999999GF100991999999999999999999MA1102305084725REMMET08401/23/25 17:35:01 METAR KEIK 240035Z 19006KT 9SM CLR M04/M16 A3021 RMK AO2 T10421163
0169720534001612025012400557+40017-105050FM-15+1564KEIK V0201805N002652200059N0160935N5-00515-01605999999ADDGA1005+999999999GD10991+9999999GF100991999999999999999999MA1102305084725REMMET08501/23/25 17:55:01 METAR KEIK 240055Z 18005KT 10SM CLR M05/M16 A3021 RMK AO2 T10511160
0169720534001612025012401157+40017-105050FM-15+1564KEIK V0201905N002152200059N0160935N5-00585-01685999999ADDGA1005+999999999GD10991+9999999GF100991999999999999999999MA1102275084695REMMET08501/23/25 18:15:01 METAR KEIK 240115Z 19004KT 10SM CLR M06/M17 A3020 RMK AO2 T10581168
0169720534001612025012401357+40017-105050FM-15+1564KEIK V0201705N002652200059N0160935N5-00635-01755999999ADDGA1005+999999999GD10991+9999999GF100991999999999999999999MA1102245084665REMMET08501/23/25 18:35:01 METAR KEIK 240135Z 17005KT 10SM CLR M06/M17 A3019 RMK AO2 T10631175
0169720534001612025012401557+40017-105050FM-15+1564KEIK V0201805N002652200059N0160935N5-00495-01745999999ADDGA1005+999999999GD10991+9999999GF100991999999999999999999MA1102205084645REMMET08501/23/25 18:55:01 METAR KEIK 240155Z 18005KT 10SM CLR M05/M17 A3018 RMK AO2 T10491174
0169720534001612025012402157+40017-105050FM-15+1564KEIK V0201805N003152200059N0160935N5-00515-01775999999ADDGA1005+999999999GD10991+9999999GF100991999999999999999999MA1102175084615REMMET08501/23/25 19:15:01 METAR KEIK 240215Z 18006KT 10SM CLR M05/M18 A3017 RMK AO2 T10511177
0169720534001612025012402357+40017-105050FM-15+1564KEIK V0201805N003152200059N0160935N5-00525-01835999999ADDGA1005+999999999GD10991+9999999GF100991999999999999999999MA1102135084585REMMET08501/23/25 19:35:01 METAR KEIK 240235Z 18006KT 10SM CLR M05/M18 A3016 RMK AO2 T10521183
0169720534001612025012402557+40017-105050FM-15+1564KEIK V0201805N003152200059N0160935N5-00485-01865999999ADDGA1005+999999999GD10991+9999999GF100991999999999999999999MA1102105084555REMMET08501/23/25 19:55:01 METAR KEIK 240255Z 18006KT 10SM CLR M05/M19 A3015 RMK AO2 T10481186
0169720534001612025012403157+40017-105050FM-15+1564KEIK V0201805N002652200059N0160935N5-00455-01835999999ADDGA1005+999999999GD10991+9999999GF100991999999999999999999MA1102075084525REMMET08501/23/25 20:15:02 METAR KEIK 240315Z 18005KT 10SM CLR M05/M18 A3014 RMK AO2 T10451183
0169720534001612025012403357+40017-105050FM-15+1564KEIK V0201905N004152200059N0160935N5-00485-01865999999ADDGA1005+999999999GD10991+9999999GF100991999999999999999999MA1102005084465REMMET08501/23/25 20:35:02 METAR KEIK 240335Z 19008KT 10SM CLR M05/M19 A3012 RMK AO2 T10481186
0169720534001612025012403557+40017-105050FM-15+1564KEIK V0209999V002152200059N0160935N5-00545-01855999999ADDGA1005+999999999GD10991+9999999GF100991999999999999999999MA1101965084435REMMET08501/23/25 20:55:02 METAR KEIK 240355Z VRB04KT 10SM CLR M05/M19 A3011 RMK AO2 T10541185
0169720534001612025012404157+40017-105050FM-15+1564KEIK V0202005N001552200059N0160935N5-00675-01855999999ADDGA1005+999999999GD10991+9999999GF100991999999999999999999MA1101905084375REMMET08501/23/25 21:15:02 METAR KEIK 240415Z 20003KT 10SM CLR M07/M19 A3009 RMK AO2 T10671185
0169720534001612025012404357+40017-105050FM-15+1564KEIK V0201905N001552200059N0160935N5-00825-01885999999ADDGA1005+999999999GD10991+9999999GF100991999999999999999999MA1101865084345REMMET08501/23/25 21:35:02 METAR KEIK 240435Z 19003KT 10SM CLR M08/M19 A3008 RMK AO2 T10821188
0169720534001612025012404557+40017-105050FM-15+1564KEIK V0209999C000052200059N0160935N5-00745-01825999999ADDGA1005+999999999GD10991+9999999GF100991999999999999999999MA1101835084325REMMET08501/23/25 21:55:02 METAR KEIK 240455Z 00000KT 10SM CLR M07/M18 A3007 RMK AO2 T10741182
0194720534001612025012405157+40017-105050FM-15+1564KEIK V0201705N00315030485MN0160935N5-00475-01725999999ADDGA1075+030485999GD13991+0304859GE19AGL   +99999+99999GF199999999999030481999999MA1101765084265REMMET08801/23/25 22:15:02 METAR KEIK 240515Z 17006KT 10SM BKN100 M05/M17 A3005 RMK AO2 T10471172
0232720534001612025012405357+40017-105050FM-15+1564KEIK V0209999C00005030485MN0160935N5-00485-01505999999ADDGA1075+030485999GA2075+039625999GD13991+0304859GD23991+0396259GE19AGL   +99999+99999GF199999999999030481999999MA1101765084265REMMET09501/23/25 22:35:02 METAR KEIK 240535Z 00000KT 10SM BKN100 BKN130 M05/M15 A3005 RMK AO2 T10481150
0213720534001612025012405557+40017-105050FM-15+1564KEIK V0209999C000052200059N0160935N5-00665-01455999999ADDGA1025+030485999GD11991+0304859GE19AGL   +99999+99999GF102995999999030481999999MA1101735084235REMMET08801/23/25 22:55:02 METAR KEIK 240555Z 00000KT 10SM FEW100 M07/M15 A3004 RMK AO2 T10661145EQDD01      0ADE726
0169720534001612025012406157+40017-105050FM-15+1564KEIK V0209999C000052200059N0160935N5-00735-01405999999ADDGA1005+999999999GD10991+9999999GF100991999999999999999999MA1101735084235REMMET08501/23/25 23:15:02 METAR KEIK 240615Z 00000KT 10SM CLR M07/M14 A3004 RMK AO2 T10731140
0169720534001612025012406357+40017-105050FM-15+1564KEIK V0202205N002652200059N0160935N5-00505-01485999999ADDGA1005+999999999GD10991+9999999GF100991999999999999999999MA1101695084205REMMET08501/23/25 23:35:02 METAR KEIK 240635Z 22005KT 10SM CLR M05/M15 A3003 RMK AO2 T10501148
0169720534001612025012406557+40017-105050FM-15+1564KEIK V0202105N002652200059N0160935N5-00395-01535999999ADDGA1005+999999999GD10991+9999999GF100991999999999999999999MA1101695084205REMMET08501/23/25 23:55:02 METAR KEIK 240655Z 21005KT 10SM CLR M04/M15 A3003 RMK AO2 T10391153
0169720534001612025012407157+40017-105050FM-15+1564KEIK V0202205N003152200059N0160935N5-00315-01595999999ADDGA1005+999999999GD10991+9999999GF100991999999999999999999MA1101665084175REMMET08501/24/25 00:15:02 METAR KEIK 240715Z 22006KT 10SM CLR M03/M16 A3002 RMK AO2 T10311159
0169720534001612025012407357+40017-105050FM-15+1564KEIK V0202405N004152200059N0160935N5-00045-01545999999ADDGA1005+999999999GD10991+9999999GF100991999999999999999999MA1101595084115REMMET08501/24/25 00:35:02 METAR KEIK 240735Z 24008KT 10SM CLR M00/M15 A3000 RMK AO2 T10041154
0169720534001612025012407557+40017-105050FM-15+1564KEIK V0202305N003152200059N0160935N5-00055-01535999999ADDGA1005+999999999GD10991+9999999GF100991999999999999999999MA1101595084115REMMET08501/24/25 00:55:02 METAR KEIK 240755Z 23006KT 10SM CLR M00/M15 A3000 RMK AO2 T10051153
0168720534001612025012408157+40017-105050FM-15+1564KEIK V0202605N005752200059N0160935N5+00155-01625999999ADDGA1005+999999999GD10991+9999999GF100991999999999999999999MA1101595084115REMMET08401/24/25 01:15:02 METAR KEIK 240815Z 26011KT 10SM CLR 01/M16 A3000 RMK AO2 T00151162
0179720534001612025012408357+40017-105050FM-15+1564KEIK V0202805N005752200059N0160935N5+00225-01575999999ADDGA1005+999999999GD10991+9999999GF100991999999999999999999MA1101565084085OC100985REMMET08701/24/25 01:35:02 METAR KEIK 240835Z 28011G19KT 10SM CLR 02/M16 A2999 RMK AO2 T00221157
0168720534001612025012408557+40017-105050FM-15+1564KEIK V0202705N005752200059N0160935N5+00255-01495999999ADDGA1005+999999999GD10991+9999999GF100991999999999999999999MA1101565084085REMMET08401/24/25 01:55:02 METAR KEIK 240855Z 27011KT 10SM CLR 03/M15 A2999 RMK AO2 T00251149
0168720534001612025012409157+40017-105050FM-15+1564KEIK V0202705N005152200059N0160935N5+00235-01545999999ADDGA1005+999999999GD10991+9999999GF100991999999999999999999MA1101525084055REMMET08401/24/25 02:15:02 METAR KEIK 240915Z 27010KT 10SM CLR 02/M15 A2998 RMK AO2 T00231154
0168720534001612025012409357+40017-105050FM-15+1564KEIK V0202905N005152200059N0160935N5+00195-01445999999ADDGA1005+999999999GD10991+9999999GF100991999999999999999999MA1101495084035REMMET08401/24/25 02:35:02 METAR KEIK 240935Z 29010KT 10SM CLR 02/M14 A2997 RMK AO2 T00191144
0168720534001612025012409557+40017-105050FM-15+1564KEIK V0202005N003152200059N0160935N5+00135-01305999999ADDGA1005+999999999GD10991+9999999GF100991999999999999999999MA1101465084005REMMET08401/24/25 02:55:02 METAR KEIK 240955Z 20006KT 10SM CLR 01/M13 A2996 RMK AO2 T00131130
0168720534001612025012410157+40017-105050FM-15+1564KEIK V0209999C000052200059N0160935N5+00035-01425999999ADDGA1005+999999999GD10991+9999999GF100991999999999999999999MA1101425083975REMMET08401/24/25 03:15:02 METAR KEIK 241015Z 00000KT 10SM CLR 00/M14 A2995 RMK AO2 T00031142
0168720534001612025012410357+40017-105050FM-15+1564KEIK V0209999V003152200059N0160935N5+00135-01405999999ADDGA1005+999999999GD10991+9999999GF100991999999999999999999MA1101395083945REMMET08401/24/25 03:35:02 METAR KEIK 241035Z VRB06KT 10SM CLR 01/M14 A2994 RMK AO2 T00131140
0169720534001612025012410557+40017-105050FM-15+1564KEIK V0209999C000052200059N0160935N5-00045-01385999999ADDGA1005+999999999GD10991+9999999GF100991999999999999999999MA1101355083915REMMET08501/24/25 03:55:02 METAR KEIK 241055Z 00000KT 10SM CLR M00/M14 A2993 RMK AO2 T10041138
0194720534001612025012411157+40017-105050FM-15+1564KEIK V0209999V00155057915MN0160935N5-00045-01245999999ADDGA1075+057915999GD13991+0579159GE19AGL   +99999+99999GF199999999999057911999999MA1101395083945REMMET08801/24/25 04:15:02 METAR KEIK 241115Z VRB03KT 10SM BKN190 M00/M12 A2994 RMK AO2 T10041124
0194720534001612025012411357+40017-105050FM-15+1564KEIK V0200205N00155057915MN0160935N5-00385-01345999999ADDGA1075+057915999GD13991+0579159GE19AGL   +99999+99999GF199999999999057911999999MA1101395083945REMMET08801/24/25 04:35:02 METAR KEIK 241135Z 02003KT 10SM BKN190 M04/M13 A2994 RMK AO2 T10381134
0213720534001612025012411557+40017-105050FM-15+1564KEIK V0209999C000052200059N0160935N5-00315-01285999999ADDGA1025+057915999GD11991+0579159GE19AGL   +99999+99999GF102995999999057911999999MA1101395083945REMMET08801/24/25 04:55:02 METAR KEIK 241155Z 00000KT 10SM FEW190 M03/M13 A2994 RMK AO2 T10311128EQDD01      0ADE726
0169720534001612025012412157+40017-105050FM-15+1564KEIK V0203305N002152200059N0160935N5-00445-01235999999ADDGA1005+999999999GD10991+9999999GF100991999999999999999999MA1101395083945REMMET08501/24/25 05:15:02 METAR KEIK 241215Z 33004KT 10SM CLR M04/M12 A2994 RMK AO2 T10441123
0213720534001612025012412357+40017-105050FM-15+1564KEIK V0209999V003152200059N0160935N5-00465-01265999999ADDGA1025+057915999GD11991+0579159GE19AGL   +99999+99999GF102995999999057911999999MA1101355083915REMMET08801/24/25 05:35:02 METAR KEIK 241235Z VRB06KT 10SM FEW190 M05/M13 A2993 RMK AO2 T10461126EQDD01      0ADE726
0169720534001612025012412557+40017-105050FM-15+1564KEIK V0201005N001552200059N0160935N5-00365-01245999999ADDGA1005+999999999GD10991+9999999GF100991999999999999999999MA1101325083885REMMET08501/24/25 05:55:02 METAR KEIK 241255Z 10003KT 10SM CLR M04/M12 A2992 RMK AO2 T10361124
0169720534001612025012413157+40017-105050FM-15+1564KEIK V0203605N002152200059N0160935N5-00185-01325999999ADDGA1005+999999999GD10991+9999999GF100991999999999999999999MA1101355083915REMMET08501/24/25 06:15:02 METAR KEIK 241315Z 36004KT 10SM CLR M02/M13 A2993 RMK AO2 T10181132
0213720534001612025012413357+40017-105050FM-15+1564KEIK V0201905N001552200059N0160935N5-00235-01315999999ADDGA1045+064015999GD12991+0640159GE19AGL   +99999+99999GF104995999999064011999999MA1101395083945REMMET08801/24/25 06:35:02 METAR KEIK 241335Z 19003KT 10SM SCT210 M02/M13 A2994 RMK AO2 T10231131EQDD01      0ADE726
0194720534001612025012413557+40017-105050FM-15+1564KEIK V0201005N00215064015MN0160935N5-00275-01265999999ADDGA1075+064015999GD13991+0640159GE19AGL   +99999+99999GF199999999999064011999999MA1101395083945REMMET08801/24/25 06:55:02 METAR KEIK 241355Z 10004KT 10SM BKN210 M03/M13 A2994 RMK AO2 T10271126
0194720534001612025012414157+40017-105050FM-15+1564KEIK V0209999C00005064015MN0160935N5-00495-01145999999ADDGA1075+064015999GD13991+0640159GE19AGL   +99999+99999GF199999999999064011999999MA1101395083945REMMET08801/24/25 07:15:02 METAR KEIK 241415Z 00000KT 10SM BKN210 M05/M11 A2994 RMK AO2 T10491114
0169720534001612025012414357+40017-105050FM-15+1564KEIK V0203405N002152200059N0160935N5-00385-01165999999ADDGA1005+999999999GD10991+9999999GF100991999999999999999999MA1101395083945REMMET08501/24/25 07:35:02 METAR KEIK 241435Z 34004KT 10SM CLR M04/M12 A2994 RMK AO2 T10381116
0169720534001612025012414557+40017-105050FM-15+1564KEIK V0201405N001552200059N0160935N5-00315-01185999999ADDGA1005+999999999GD10991+9999999GF100991999999999999999999MA1101355083915REMMET08501/24/25 07:55:02 METAR KEIK 241455Z 14003KT 10SM CLR M03/M12 A2993 RMK AO2 T10311118
0169720534001612025012415157+40017-105050FM-15+1564KEIK V0200105N001552200059N0160935N5-00315-01195999999ADDGA1005+999999999GD10991+9999999GF100991999999999999999999MA1101395083945REMMET08501/24/25 08:15:02 METAR KEIK 241515Z 01003KT 10SM CLR M03/M12 A2994 RMK AO2 T10311119
0169720534001612025012415357+40017-105050FM-15+1564KEIK V0201205N001552200059N0160935N5-00325-01185999999ADDGA1005+999999999GD10991+9999999GF100991999999999999999999MA1101355083915REMMET08501/24/25 08:35:02 METAR KEIK 241535Z 12003KT 10SM CLR M03/M12 A2993 RMK AO2 T10321118
0169720534001612025012415557+40017-105050FM-15+1564KEIK V0209999C000052200059N0160935N5-00185-01115999999ADDGA1005+999999999GD10991+9999999GF100991999999999999999999MA1101395083945REMMET08501/24/25 08:55:02 METAR KEIK 241555Z 00000KT 10SM CLR M02/M11 A2994 RMK AO2 T10181111
0169720534001612025012416157+40017-105050FM-15+1564KEIK V0209999V001552200059N0160935N5-00015-01025999999ADDGA1005+999999999GD10991+9999999GF100991999999999999999999MA1101355083915REMMET08501/24/25 09:15:02 METAR KEIK 241615Z VRB03KT 10SM CLR M00/M10 A2993 RMK AO2 T10011102
0168720534001612025012416357+40017-105050FM-15+1564KEIK V0209999V002152200059N0160935N5+00255-01095999999ADDGA1005+999999999GD10991+9999999GF100991999999999999999999MA1101395083945REMMET08401/24/25 09:35:02 METAR KEIK 241635Z VRB04KT 10SM CLR 02/M11 A2994 RMK AO2 T00251109
0168720534001612025012416557+40017-105050FM-15+1564KEIK V0200305N001552200059N0160935N5+00245-00965999999ADDGA1005+999999999GD10991+9999999GF100991999999999999999999MA1101355083915REMMET08401/24/25 09:55:02 METAR KEIK 241655Z 03003KT 10SM CLR 02/M10 A2993 RMK AO2 T00241096
0168720534001612025012417157+40017-105050FM-15+1564KEIK V0201005N004652200059N0160935N5+00405-00885999999ADDGA1005+999999999GD10991+9999999GF100991999999999999999999MA1101325083885REMMET08401/24/25 10:15:02 METAR KEIK 241715Z 10009KT 10SM CLR 04/M09 A2992 RMK AO2 T00401088
0168720534001612025012417357+40017-105050FM-15+1564KEIK V0201005N005152200059N0160935N5+00315-00815999999ADDGA1005+999999999GD10991+9999999GF100991999999999999999999MA1101295083855REMMET08401/24/25 10:35:02 METAR KEIK 241735Z 10010KT 10SM CLR 03/M08 A2991 RMK AO2 T00311081
0168720534001612025012417557+40017-105050FM-15+1564KEIK V0201005N004652200059N0160935N5+00425-00805999999ADDGA1005+999999999GD10991+9999999GF100991999999999999999999MA1101255083825REMMET08401/24/25 10:55:02 METAR KEIK 241755Z 10009KT 10SM CLR 04/M08 A2990 RMK AO2 T00421080
0168720534001612025012418157+40017-105050FM-15+1564KEIK V0201105N003152200059N0160935N5+00605-00865999999ADDGA1005+999999999GD10991+9999999GF100991999999999999999999MA1101225083795REMMET08401/24/25 11:15:02 METAR KEIK 241815Z 11006KT 10SM CLR 06/M09 A2989 RMK AO2 T00601086
0168720534001612025012418357+40017-105050FM-15+1564KEIK V0201005N003152200059N0160935N5+00735-00835999999ADDGA1005+999999999GD10991+9999999GF100991999999999999999999MA1101225083795REMMET08401/24/25 11:35:02 METAR KEIK 241835Z 10006KT 10SM CLR 07/M08 A2989 RMK AO2 T00731083
0168720534001612025012418557+40017-105050FM-15+1564KEIK V0201105N001552200059N0160935N5+00715-00805999999ADDGA1005+999999999GD10991+9999999GF100991999999999999999999MA1101225083795REMMET08401/24/25 11:55:02 METAR KEIK 241855Z 11003KT 10SM CLR 07/M08 A2989 RMK AO2 T00711080
0168720534001612025012419157+40017-105050FM-15+1564KEIK V0209999V001552200059N0160935N5+00715-00875999999ADDGA1005+999999999GD10991+9999999GF100991999999999999999999MA1101195083765REMMET08401/24/25 12:15:02 METAR KEIK 241915Z VRB03KT 10SM CLR 07/M09 A2988 RMK AO2 T00711087
0168720534001612025012419357+40017-105050FM-15+1564KEIK V0200505N004152200059N0160935N5+00385-00545999999ADDGA1005+999999999GD10991+9999999GF100991999999999999999999MA1101125083715REMMET08401/24/25 12:35:02 METAR KEIK 241935Z 05008KT 10SM CLR 04/M05 A2986 RMK AO2 T00381054
0168720534001612025012419557+40017-105050FM-15+1564KEIK V0203605N003652200059N0160935N5+00395-00575999999ADDGA1005+999999999GD10991+9999999GF100991999999999999999999MA1101085083685REMMET08401/24/25 12:55:02 METAR KEIK 241955Z 36007KT 10SM CLR 04/M06 A2985 RMK AO2 T00391057
0168720534001612025012420157+40017-105050FM-15+1564KEIK V0203305N004652200059N0160935N5+00355-00535999999ADDGA1005+999999999GD10991+9999999GF100991999999999999999999MA1101125083715REMMET08401/24/25 13:15:02 METAR KEIK 242015Z 33009KT 10SM CLR 03/M05 A2986 RMK AO2 T00351053
0212720534001612025012420357+40017-105050FM-15+1564KEIK V0200405N003652200059N0160935N5+00365-00535999999ADDGA1025+030485999GD11991+0304859GE19AGL   +99999+99999GF102995999999030481999999MA1101085083685REMMET08701/24/25 13:35:02 METAR KEIK 242035Z 04007KT 10SM FEW100 04/M05 A2985 RMK AO2 T00361053EQDD01      0ADE726
0212720534001612025012420557+40017-105050FM-15+1564KEIK V0200505N003652200059N0160935N5+00505-00655999999ADDGA1045+030485999GD12991+0304859GE19AGL   +99999+99999GF104995999999030481999999MA1101025083625REMMET08701/24/25 13:55:02 METAR KEIK 242055Z 05007KT 10SM SCT100 05/M07 A2983 RMK AO2 T00501065EQDD01      0ADE726
0168720534001612025012421157+40017-105050FM-15+1564KEIK V0200605N003652200059N0160935N5+00505-00595999999ADDGA1005+999999999GD10991+9999999GF100991999999999999999999MA1101025083625REMMET08401/24/25 14:15:02 METAR KEIK 242115Z 06007KT 10SM CLR 05/M06 A2983 RMK AO2 T00501059
0168720534001612025012421357+40017-105050FM-15+1564KEIK V0200505N005152200059N0160935N5+00405-00605999999ADDGA1005+999999999GD10991+9999999GF100991999999999999999999MA1101055083655REMMET08401/24/25 14:35:02 METAR KEIK 242135Z 05010KT 10SM CLR 04/M06 A2984 RMK AO2 T00401060
0168720534001612025012421557+40017-105050FM-15+1564KEIK V0200605N003652200059N0160935N5+00365-00505999999ADDGA1005+999999999GD10991+9999999GF100991999999999999999999MA1101085083685REMMET08401/24/25 14:55:02 METAR KEIK 242155Z 06007KT 10SM CLR 04/M05 A2985 RMK AO2 T00361050
0168720534001612025012422157+40017-105050FM-15+1564KEIK V0200605N004152200059N0160935N5+00425-00715999999ADDGA1005+999999999GD10991+9999999GF100991999999999999999999MA1101055083655REMMET08401/24/25 15:15:02 METAR KEIK 242215Z 06008KT 10SM CLR 04/M07 A2984 RMK AO2 T00421071
0168720534001612025012422357+40017-105050FM-15+1564KEIK V0200505N005152200059N0160935N5+00395-00705999999ADDGA1005+999999999GD10991+9999999GF100991999999999999999999MA1101085083685REMMET08401/24/25 15:35:02 METAR KEIK 242235Z 05010KT 10SM CLR 04/M07 A2985 RMK AO2 T00391070
0168720534001612025012422557+40017-105050FM-15+1564KEIK V0200405N005152200059N0160935N5+00345-00575999999ADDGA1005+999999999GD10991+9999999GF100991999999999999999999MA1101125083715REMMET08401/24/25 15:55:02 METAR KEIK 242255Z 04010KT 10SM CLR 03/M06 A2986 RMK AO2 T00341057
0168720534001612025012423157+40017-105050FM-15+1564KEIK V0200405N004652200059N0160935N5+00335-00625999999ADDGA1005+999999999GD10991+9999999GF100991999999999999999999MA1101155083735REMMET08401/24/25 16:15:02 METAR KEIK 242315Z 04009KT 10SM CLR 03/M06 A2987 RMK AO2 T00331062
0168720534001612025012423357+40017-105050FM-15+1564KEIK V0200605N004152200059N0160935N5+00285-00735999999ADDGA1005+999999999GD10991+9999999GF100991999999999999999999MA1101195083765REMMET08401/24/25 16:35:02 METAR KEIK 242335Z 06008KT 10SM CLR 03/M07 A2988 RMK AO2 T00281073
0231720534001612025012423557+40017-105050FM-15+1564KEIK V0200805N00465018295MN0160935N5+00285-00765999999ADDGA1075+018295999GA2075+024385999GD13991+0182959GD23991+0243859GE19AGL   +99999+99999GF199999999999018291999999MA1101225083795REMMET09401/24/25 16:55:02 METAR KEIK 242355Z 08009KT 10SM BKN060 BKN080 03/M08 A2989 RMK AO2 T00281076
0269720534001612025012500157+40017-105050FM-15+1564KEIK V0200605N00265030485MN0160935N5+00185-00715999999ADDGA1025+019815999GA2045+024385999GA3075+030485999GD11991+0198159GD22991+0243859GD33991+0304859GE19AGL   +99999+99999GF199999999999019811999999MA1101295083855REMMET10101/24/25 17:15:01 METAR KEIK 250015Z 06005KT 10SM FEW065 SCT080 BKN100 02/M07 A2991 RMK AO2 T00181071
0212720534001612025012500357+40017-105050FM-15+1564KEIK V0200705N003152200059N0160935N5+00145-00815999999ADDGA1025+019815999GD11991+0198159GE19AGL   +99999+99999GF102995999999019811999999MA1101325083885REMMET08701/24/25 17:35:01 METAR KEIK 250035Z 07006KT 10SM FEW065 01/M08 A2992 RMK AO2 T00141081EQDD01      0ADE726
0168720534001612025012500557+40017-105050FM-15+1564KEIK V0200805N003652200059N0160935N5+00115-00865999999ADDGA1005+999999999GD10991+9999999GF100991999999999999999999MA1101355083915REMMET08401/24/25 17:55:01 METAR KEIK 250055Z 08007KT 10SM CLR 01/M09 A2993 RMK AO2 T00111086
0212720534001612025012501157+40017-105050FM-15+1564KEIK V0200805N002652200059N0160935N5+00065-00815999999ADDGA1025+024385999GD11991+0243859GE19AGL   +99999+99999GF102995999999024381999999MA1101395083945REMMET08701/24/25 18:15:01 METAR KEIK 250115Z 08005KT 10SM FEW080 01/M08 A2994 RMK AO2 T00061081EQDD01      0ADE726
0168720534001612025012501357+40017-105050FM-15+1564KEIK V0209999C000052200059N0160935N5+00065-00935999999ADDGA1005+999999999GD10991+9999999GF100991999999999999999999MA1101425083975REMMET08401/24/25 18:35:01 METAR KEIK 250135Z 00000KT 10SM CLR 01/M09 A2995 RMK AO2 T00061093
0212720534001612025012501557+40017-105050FM-15+1564KEIK V0209999C000052200059N0160935N5+00035-00955999999ADDGA1025+033535999GD11991+0335359GE19AGL   +99999+99999GF102995999999033531999999MA1101425083975REMMET08701/24/25 18:55:01 METAR KEIK 250155Z 00000KT 10SM FEW110 00/M09 A2995 RMK AO2 T00031095EQDD01      0ADE726
0169720534001612025012502157+40017-105050FM-15+1564KEIK V0202105N003652200059N0160935N5-00055-00875999999ADDGA1005+999999999GD10991+9999999GF100991999999999999999999MA1101465084005REMMET08501/24/25 19:15:01 METAR KEIK 250215Z 21007KT 10SM CLR M01/M09 A2996 RMK AO2 T10051087
0212720534001612025012502357+40017-105050FM-15+1564KEIK V0201705N002152200059N0160935N5+00005-01035999999ADDGA1045+030485999GD12991+0304859GE19AGL   +99999+99999GF104995999999030481999999MA1101495084035REMMET08701/24/25 19:35:01 METAR KEIK 250235Z 17004KT 10SM SCT100 00/M10 A2997 RMK AO2 T00001103EQDD01      0ADE726
0194720534001612025012502557+40017-105050FM-15+1564KEIK V0209999C00005030485MN0160935N5-00065-00985999999ADDGA1085+030485999GD14991+0304859GE19AGL   +99999+99999GF199999999999030481999999MA1101525084055REMMET08801/24/25 19:55:01 METAR KEIK 250255Z 00000KT 10SM OVC100 M01/M10 A2998 RMK AO2 T10061098
0194720534001612025012503157+40017-105050FM-15+1564KEIK V0209999C00005028965MN0160935N5-00175-00865999999ADDGA1085+028965999GD14991+0289659GE19AGL   +99999+99999GF199999999999028961999999MA1101525084055REMMET08801/24/25 20:15:02 METAR KEIK 250315Z 00000KT 10SM OVC095 M02/M09 A2998 RMK AO2 T10171086
0194720534001612025012503357+40017-105050FM-15+1564KEIK V0209999C00005027435MN0160935N5-00245-00795999999ADDGA1085+027435999GD14991+0274359GE19AGL   +99999+99999GF199999999999027431999999MA1101525084055REMMET08801/24/25 20:35:02 METAR KEIK 250335Z 00000KT 10SM OVC090 M02/M08 A2998 RMK AO2 T10241079
0194720534001612025012503557+40017-105050FM-15+1564KEIK V0200105N00155027435MN0160935N5-00185-00835999999ADDGA1075+027435999GD13991+0274359GE19AGL   +99999+99999GF199999999999027431999999MA1101565084085REMMET08801/24/25 20:55:02 METAR KEIK 250355Z 01003KT 10SM BKN090 M02/M08 A2999 RMK AO2 T10181083
0232720534001612025012504157+40017-105050FM-15+1564KEIK V0203505N00155028965MN0160935N5-00255-00795999999ADDGA1025+009755999GA2075+028965999GD11991+0097559GD23991+0289659GE19AGL   +99999+99999GF199999999999009751999999MA1101635084145REMMET09501/24/25 21:15:02 METAR KEIK 250415Z 35003KT 10SM FEW032 BKN095 M02/M08 A3001 RMK AO2 T10251079
0285720534001612025012504357+40017-105050FM-15+1564KEIK V0200305N002152200059N0160935N5-00165-00815999999ADDGA1025+009755999GA2045+019815999GA3045+024385999GD11991+0097559GD22991+0198159GD32991+0243859GD43991+0304819GE19AGL   +99999+99999GF199999999999009751999999MA1101635084145REMMET10201/24/25 21:35:02 METAR KEIK 250435Z 03004KT 10SM FEW032 SCT065 SCT080 M02/M08 A3001 RMK AO2 T10161081
0285720534001612025012504557+40017-105050FM-15+1564KEIK V0200205N00215021345MN0160935N5-00185-00565999999ADDGA1045+009145999GA2075+021345999GA3075+024385999GD12991+0091459GD23991+0213459GD33991+0243859GD44991+0274319GE19AGL   +99999+99999GF199999999999009141999999MA1101635084145REMMET10201/24/25 21:55:02 METAR KEIK 250455Z 02004KT 10SM SCT030 BKN070 BKN080 M02/M06 A3001 RMK AO2 T10181056
0232720534001612025012505157+40017-105050FM-15+1564KEIK V0200205N00315009145MN0160935N5-00185-00445999999ADDGA1045+003665999GA2085+009145999GD12991+0036659GD24991+0091459GE19AGL   +99999+99999GF199999999999003661999999MA1101695084205REMMET09501/24/25 22:15:02 METAR KEIK 250515Z 02006KT 10SM SCT012 OVC030 M02/M04 A3003 RMK AO2 T10181044
0232720534001612025012505357+40017-105050FM-15+1564KEIK V0200205N00315004275MN0160935N5-00225-00375999999ADDGA1075+004275999GA2085+009455999GD13991+0042759GD24991+0094559GE19AGL   +99999+99999GF199999999999004271999999MA1101735084235REMMET09501/24/25 22:35:02 METAR KEIK 250535Z 02006KT 10SM BKN014 OVC031 M02/M04 A3004 RMK AO2 T10221037
0232720534001612025012505557+40017-105050FM-15+1564KEIK V0200205N00315004275MN0160935N5-00265-00335999999ADDGA1045+002135999GA2085+004275999GD12991+0021359GD24991+0042759GE19AGL   +99999+99999GF199999999999002131999999MA1101735084235REMMET09501/24/25 22:55:02 METAR KEIK 250555Z 02006KT 10SM SCT007 OVC014 M03/M03 A3004 RMK AO2 T10261033
0206720534001612025012506157+40017-105050FM-15+1564KEIK V0200205N00265001835MN0160935N5-00295-00325999999ADDGA1085+001835999GD14991+0018351GE19AGL   +99999+99999GF199999999999001831999999MA1101765084265REMMET10001/24/25 23:15:02 METAR KEIK 250615Z 02005KT 10SM OVC006 M03/M03 A3005 RMK AO2 CIG 006V009 T10291032
0276720534001612025012506357+40017-105050FM-15+1564KEIK V0200305N00265002135MN0080475N5-00315-00345999999ADDAA101000021AU120090015AU200001015AW1105AW2401AW3415GA1085+002135999GD14991+0021351GE19AGL   +99999+99999GF199999999999002131999999MA1101795084295REMMET11901/24/25 23:35:02 METAR KEIK 250635Z 03005KT 5SM UP BR OVC007 M03/M03 A3006 RMK AO2 UPB0625 CIG 006V008 P0000 T10311034
0268720534001612025012506557+40017-105050FM-15+1564KEIK V0200305N00215001835MN0080475N5-00315-00345999999ADDAA101000021AU120090015AU200001015AW1105AW2401AW3415GA1085+001835999GD14991+0018351GE19AGL   +99999+99999GF199999999999001831999999MA1101795084295REMMET11101/24/25 23:55:02 METAR KEIK 250655Z 03004KT 5SM UP BR OVC006 M03/M03 A3006 RMK AO2 CIG 005V009 P0000 T10311034
002772053400161202501250659O+40017-105050SOD  +1564KEIK V020999999999999999999999999999+99999+99999999999ADDAT1AU13BR  5AT2AU19UP  5
0268720534001612025012507157+40017-105050FM-15+1564KEIK V0200305N00365001835MN0096565N5-00365-00405999999ADDAA101000021AU120090015AU200001015AW1105AW2401AW3415GA1085+001835999GD14991+0018351GE19AGL   +99999+99999GF199999999999001831999999MA1101795084295REMMET11101/25/25 00:15:02 METAR KEIK 250715Z 03007KT 6SM UP BR OVC006 M04/M04 A3006 RMK AO2 CIG 004V009 P0000 T10361040
0261720534001612025012507357+40017-105050FM-15+1564KEIK V0200305N00415001835MN0128755N5-00405-00425999999ADDAA101000021AU120090015AW1401AW2415GA1085+001835999GD14991+0018351GE19AGL   +99999+99999GF199999999999001831999999MA1101835084325REMMET12101/25/25 00:35:02 METAR KEIK 250735Z 03008KT 8SM UP OVC006 M04/M04 A3007 RMK AO2 UPE0717B0733 CIG 005V009 P0000 T10401042
0269720534001612025012507557+40017-105050FM-15+1564KEIK V0200305N00415001835MN0064375N5-00455-00475999999ADDAA101000021AU110030015AU200001015AW1105AW2715GA1085+001835999GD14991+0018351GE19AGL   +99999+99999GF199999999999001831999999MA1101865084345MW1715REMMET11201/25/25 00:55:02 METAR KEIK 250755Z 03008KT 4SM -SN BR OVC006 M04/M05 A3008 RMK AO2 CIG 005V008 P0000 T10451047
0250720534001612025012508157+40017-105050FM-15+1564KEIK V0200505N00215002135MN0080475N5-00475-00525999999ADDAA101000021AU100001015AW1105GA1085+002135999GD14991+0021351GE19AGL   +99999+99999GF199999999999002131999999MA1101865084345REMMET11601/25/25 01:15:02 METAR KEIK 250815Z 05004KT 5SM BR OVC007 M05/M05 A3008 RMK AO2 SNE0811 CIG 005V010 P0000 T10471052
0282720534001612025012508357+40017-105050FM-15+1564KEIK V0200205N00215002135MN0064375N5-00495-00545999999ADDAA101000021AU110030015AU200001015AW1105AW2715GA1085+002135999GD14991+0021351GE19AGL   +99999+99999GF199999999999002131999999MA1101865084345MW1715REMMET12501/25/25 01:35:02 METAR KEIK 250835Z 02004KT 4SM -SN BR OVC007 M05/M05 A3008 RMK AO2 SNE0811B0828 CIG 006V009 P0000 T10491054
0307720534001612025012508557+40017-105050FM-15+1564KEIK V0200205N00265002135MN0064375N5-00515-00565999999ADDAA101000021AU110030015AU200001015AW1105AW2715GA1075+002135999GA2085+004575999GD13991+0021351GD24991+0045759GE19AGL   +99999+99999GF199999999999002131999999MA1101935084405MW1715REMMET11901/25/25 01:55:02 METAR KEIK 250855Z 02005KT 4SM -SN BR BKN007 OVC015 M05/M06 A3010 RMK AO2 CIG 006V010 P0000 T10511056
0269720534001612025012509157+40017-105050FM-15+1564KEIK V0200505N00365001835MN0048285N5-00555-00605999999ADDAA101000021AU110030015AU200001015AW1105AW2715GA1085+001835999GD14991+0018351GE19AGL   +99999+99999GF199999999999001831999999MA1101935084405MW1715REMMET11201/25/25 02:15:02 METAR KEIK 250915Z 05007KT 3SM -SN BR OVC006 M05/M06 A3010 RMK AO2 CIG 002V010 P0000 T10551060
0305720534001612025012509357+40017-105050FM-15+1564KEIK V0200405N00315003055MN0032195N5-00575-00625999999ADDAA101000021AU110030015AU200001015AW1105AW2715GA1045+000615999GA2085+003055999GD12991+0006159GD24991+0030559GE19AGL   +99999+99999GF199999999999000611999999MA1101965084435MW1715REMMET11701/25/25 02:35:02 METAR KEIK 250935Z 04006KT 2SM -SN BR SCT002 OVC010 M06/M06 A3011 RMK AO2 OVC V BKN P0000 T10571062
0295720534001612025012509557+40017-105050FM-15+1564KEIK V0200405N00265006105MN0032195N5-00585-00655999999ADDAA101000021AU110030015AU200001015AW1105AW2715GA1025+000915999GA2085+006105999GD11991+0009159GD24991+0061059GE19AGL   +99999+99999GF199999999999000911999999MA1102005084465MW1715REMMET10701/25/25 02:55:02 METAR KEIK 250955Z 04005KT 2SM -SN BR FEW003 OVC020 M06/M06 A3012 RMK AO2 P0000 T10581065
0295720534001612025012510157+40017-105050FM-15+1564KEIK V0200305N00265005795MN0032195N5-00595-00645999999ADDAA101000021AU110030015AU200001015AW1105AW2715GA1045+001525999GA2085+005795999GD12991+0015259GD24991+0057959GE19AGL   +99999+99999GF199999999999001521999999MA1102005084465MW1715REMMET10701/25/25 03:15:02 METAR KEIK 251015Z 03005KT 2SM -SN BR SCT005 OVC019 M06/M06 A3012 RMK AO2 P0000 T10591064
0299720534001612025012510357+40017-105050FM-15+1564KEIK V0200205N00215007015MN0040235N5-00595-00645999999ADDAA101000021AU110030015AU200001015AW1105AW2715GA1025+001525999GA2085+007015999GD11991+0015259GD24991+0070159GE19AGL   +99999+99999GF199999999999001521999999MA1102005084465MW1715REMMET11101/25/25 03:35:02 METAR KEIK 251035Z 02004KT 2 1/2SM -SN BR FEW005 OVC023 M06/M06 A3012 RMK AO2 P0000 T10591064
0337720534001612025012510557+40017-105050FM-15+1564KEIK V0200205N00155008845MN0040235N5-00595-00635999999ADDAA101000021AU110030015AU200001015AW1105AW2715GA1045+001225999GA2045+002445999GA3085+008845999GD12991+0012259GD22991+0024459GD34991+0088459GE19AGL   +99999+99999GF199999999999001221999999MA1102005084465MW1715REMMET11801/25/25 03:55:02 METAR KEIK 251055Z 02003KT 2 1/2SM -SN BR SCT004 SCT008 OVC029 M06/M06 A3012 RMK AO2 P0000 T10591063
0295720534001612025012511157+40017-105050FM-15+1564KEIK V0200305N00155007625MN0032195N5-00605-00625999999ADDAA101000395AU110030015AU200001015AW1105AW2715GA1045+001225999GA2085+007625999GD12991+0012259GD24991+0076259GE19AGL   +99999+99999GF199999999999001221999999MA1102035084495MW1715REMMET10701/25/25 04:15:02 METAR KEIK 251115Z 03003KT 2SM -SN BR SCT004 OVC025 M06/M06 A3013 RMK AO2 P0001 T10601062
0295720534001612025012511357+40017-105050FM-15+1564KEIK V0200405N00215007325MN0032195N5-00605-00635999999ADDAA101000395AU110030015AU200001015AW1105AW2715GA1025+001835999GA2085+007325999GD11991+0018359GD24991+0073259GE19AGL   +99999+99999GF199999999999001831999999MA1102035084495MW1715REMMET10701/25/25 04:35:02 METAR KEIK 251135Z 04004KT 2SM -SN BR FEW006 OVC024 M06/M06 A3013 RMK AO2 P0001 T10601063
0333720534001612025012511557+40017-105050FM-15+1564KEIK V0200405N00315006105MN0032195N5-00655-00695999999ADDAA101000021AU110030015AU200001015AW1105AW2715GA1045+000915999GA2045+002135999GA3085+006105999GD12991+0009159GD22991+0021359GD34991+0061059GE19AGL   +99999+99999GF199999999999000911999999MA1102075084525MW1715REMMET11401/25/25 04:55:02 METAR KEIK 251155Z 04006KT 2SM -SN BR SCT003 SCT007 OVC020 M06/M07 A3014 RMK AO2 P0000 T10651069
0337720534001612025012512157+40017-105050FM-15+1564KEIK V0200305N00265001835MN0040235N5-00665-00705999999ADDAA101000021AU110030015AU200001015AW1105AW2715GA1045+000615999GA2075+001835999GA3085+005795999GD12991+0006159GD23991+0018359GD34991+0057959GE19AGL   +99999+99999GF199999999999000611999999MA1102105084555MW1715REMMET11801/25/25 05:15:02 METAR KEIK 251215Z 03005KT 2 1/2SM -SN BR SCT002 BKN006 OVC019 M07/M07 A3015 RMK AO2 P0000 T10661070
0299720534001612025012512357+40017-105050FM-15+1564KEIK V0200205N00265000615MN0040235N5-00695-00735999999ADDAA101000395AU110030015AU200001015AW1105AW2715GA1075+000615999GA2085+001835999GD13991+0006159GD24991+0018359GE19AGL   +99999+99999GF199999999999000611999999MA1102105084555MW1715REMMET11101/25/25 05:35:02 METAR KEIK 251235Z 02005KT 2 1/2SM -SN BR BKN002 OVC006 M07/M07 A3015 RMK AO2 P0001 T10691073
0337720534001612025012512557+40017-105050FM-15+1564KEIK V0200205N00265002135MN0040235N5-00705-00745999999ADDAA101000021AU110030015AU200001015AW1105AW2715GA1045+000615999GA2075+002135999GA3085+006105999GD12991+0006159GD23991+0021359GD34991+0061059GE19AGL   +99999+99999GF199999999999000611999999MA1102135084585MW1715REMMET11801/25/25 05:55:02 METAR KEIK 251255Z 02005KT 2 1/2SM -SN BR SCT002 BKN007 OVC020 M07/M07 A3016 RMK AO2 P0000 T10701074
0336720534001612025012513157+40017-105050FM-15+1564KEIK V0200305N002152200059N0048285N5-00705-00745999999ADDAA101000021AW1101AW2711GA1025+000615999GA2045+002135999GA3045+003965999GD11991+0006159GD22991+0021359GD32991+0039659GD44991+0067119GE19AGL   +99999+99999GF199999999999000611999999MA1102175084615MW1715REMMET12401/25/25 06:15:02 METAR KEIK 251315Z 03004KT 3SM -SN BR FEW002 SCT007 SCT013 M07/M07 A3017 RMK AO2 FEW V SCT P0000 T10701074
0333720534001612025012513357+40017-105050FM-15+1564KEIK V0200405N00215003055MN0064375N5-00725-00775999999ADDAA101000021AU110030015AU200001015AW1105AW2715GA1045+001225999GA2075+003055999GA3085+007325999GD12991+0012259GD23991+0030559GD34991+0073259GE19AGL   +99999+99999GF199999999999001221999999MA1102205084645MW1715REMMET11401/25/25 06:35:02 METAR KEIK 251335Z 04004KT 4SM -SN BR SCT004 BKN010 OVC024 M07/M08 A3018 RMK AO2 P0000 T10721077
0343720534001612025012513557+40017-105050FM-15+1564KEIK V0200205N00155002135MN0064375N5-00725-00765999999ADDAA101000021AU110030015AU200001015AW1105AW2715GA1045+000915999GA2075+002135999GA3085+003965999GD12991+0009159GD23991+0021359GD34991+0039659GE19AGL   +99999+99999GF199999999999000911999999MA1102205084645MW1715REMMET12401/25/25 06:55:02 METAR KEIK 251355Z 02003KT 4SM -SN BR SCT003 BKN007 OVC013 M07/M08 A3018 RMK AO2 BKN V OVC P0000 T10721076
0295720534001612025012514157+40017-105050FM-15+1564KEIK V0200305N00215000915MN0032195N5-00735-00785999999ADDAA101000395AU110030015AU200001015AW1105AW2715GA1075+000915999GA2085+002135999GD13991+0009159GD24991+0021359GE19AGL   +99999+99999GF199999999999000911999999MA1102245084665MW1715REMMET10701/25/25 07:15:02 METAR KEIK 251415Z 03004KT 2SM -SN BR BKN003 OVC007 M07/M08 A3019 RMK AO2 P0001 T10731078
0295720534001612025012514357+40017-105050FM-15+1564KEIK V0200205N00155009455MN0064375N5-00735-00795999999ADDAA101000395AU110030015AU200001015AW1105AW2715GA1045+000915999GA2085+009455999GD12991+0009159GD24991+0094559GE19AGL   +99999+99999GF199999999999000911999999MA1102245084665MW1715REMMET10701/25/25 07:35:02 METAR KEIK 251435Z 02003KT 4SM -SN BR SCT003 OVC031 M07/M08 A3019 RMK AO2 P0001 T10731079
0299720534001612025012514557+40017-105050FM-15+1564KEIK V0200205N00155008845MN0040235N5-00735-00785999999ADDAA101000021AU110030015AU200001015AW1105AW2715GA1025+000915999GA2085+008845999GD11991+0009159GD24991+0088459GE19AGL   +99999+99999GF199999999999000911999999MA1102275084695MW1715REMMET11101/25/25 07:55:02 METAR KEIK 251455Z 02003KT 2 1/2SM -SN BR FEW003 OVC029 M07/M08 A3020 RMK AO2 P0000 T10731078
0347720534001612025012515157+40017-105050FM-15+1564KEIK V0200305N00215003355MN0028165N5-00735-00785999999ADDAA101000021AU110030015AU200001015AW1105AW2715GA1045+002135999GA2075+003355999GA3085+008535999GD12991+0021359GD23991+0033559GD34991+0085359GE19AGL   +99999+99999GF199999999999002131999999MA1102275084695MW1715REMMET12801/25/25 08:15:02 METAR KEIK 251515Z 03004KT 1 3/4SM -SN BR SCT007 BKN011 OVC028 M07/M08 A3020 RMK AO2 SCT V BKN P0000 T10731078
0269720534001612025012515357+40017-105050FM-15+1564KEIK V0200205N00155002135MN0032195N5-00725-00785999999ADDAA101000021AU110030015AU200001015AW1105AW2715GA1085+002135999GD14991+0021351GE19AGL   +99999+99999GF199999999999002131999999MA1102305084725MW1715REMMET11201/25/25 08:35:02 METAR KEIK 251535Z 02003KT 2SM -SN BR OVC007 M07/M08 A3021 RMK AO2 CIG 002V010 P0000 T10721078
0299720534001612025012515557+40017-105050FM-15+1564KEIK V0200405N00215000615MN0024145N5-00735-00805999999ADDAA101000021AU110030015AU200001015AW1105AW2715GA1075+000615999GA2085+001835999GD13991+0006159GD24991+0018359GE19AGL   +99999+99999GF199999999999000611999999MA1102305084725MW1715REMMET11101/25/25 08:55:02 METAR KEIK 251555Z 04004KT 1 1/2SM -SN BR BKN002 OVC006 M07/M08 A3021 RMK AO2 P0000 T10731080
0295720534001612025012516157+40017-105050FM-15+1564KEIK V0200405N00315006105MN0032195N5-00755-00835999999ADDAA101000021AU110030015AU200001015AW1105AW2715GA1045+000615999GA2085+006105999GD12991+0006159GD24991+0061059GE19AGL   +99999+99999GF199999999999000611999999MA1102345084755MW1715REMMET10701/25/25 09:15:02 METAR KEIK 251615Z 04006KT 2SM -SN BR SCT002 OVC020 M07/M08 A3022 RMK AO2 P0000 T10751083
0338720534001612025012516357+40017-105050FM-15+1564KEIK V0200705N00265005185MN0112655N5-00745-00825999999ADDAA101000021AU110030015AW1715GA1045+001525999GA2045+003055999GA3085+005185999GD12991+0015251GD22991+0030559GD34991+0051859GE19AGL   +99999+99999GF199999999999001521999999MA1102375084785MW1715REMMET13601/25/25 09:35:02 METAR KEIK 251635Z 07005KT 7SM -SN SCT005 SCT010 OVC017 M07/M08 A3023 RMK AO2 CIG 013V021 SCT010 V BKN P0000 T10741082
0335720534001612025012516557+40017-105050FM-15+1564KEIK V0200505N00315001835MN0144845N5-00745-00865999999ADDAA101000021AU110030015AW1715GA1045+000615999GA2075+001835999GA3085+004885999GD12991+0006151GD23991+0018359GD34991+0048859GE19AGL   +99999+99999GF199999999999000611999999MA1102375084785MW1715REMMET13301/25/25 09:55:02 METAR KEIK 251655Z 05006KT 9SM -SN SCT002 BKN006 OVC016 M07/M09 A3023 RMK AO2 CIG 005V011 BKN V OVC P0000 T10741086
0298720534001612025012517157+40017-105050FM-15+1564KEIK V0200605N00365004575MN0160935N5-00715-00885999999ADDAA101000021AU110030015AW1715GA1025+002135999GA2085+004575999GD11991+0021351GD24991+0045759GE19AGL   +99999+99999GF199999999999002131999999MA1102405084815MW1715REMMET12701/25/25 10:15:02 METAR KEIK 251715Z 06007KT 10SM -SN FEW007 OVC015 M07/M09 A3024 RMK AO2 CIG 012V018 OVC V BKN P0000 T10711088
0330720534001612025012517357+40017-105050FM-15+1564KEIK V0200705N00315005795MN0144845N5-00705-00875999999ADDAA101000021AW1711GA1045+003965999GA2075+005795999GA3075+008235999GD12991+0039659GD23991+0057959GD33991+0082359GD44991+0100619GE19AGL   +99999+99999GF199999999999003961999999MA1102405084815MW1715REMMET12401/25/25 10:35:02 METAR KEIK 251735Z 07006KT 9SM -SN SCT013 BKN019 BKN027 M07/M09 A3024 RMK AO2 BKN019 V SCT P0000 T10701087
0295720534001612025012517557+40017-105050FM-15+1564KEIK V0200505N00315007925MN0144845N5-00705-00855999999ADDAA101000021AU110030015AW1715GA1075+007925999GA2085+010065999GD13991+0079251GD24991+0100659GE19AGL   +99999+99999GF199999999999007921999999MA1102405084815MW1715REMMET12401/25/25 10:55:02 METAR KEIK 251755Z 05006KT 9SM -SN BKN026 OVC033 M07/M08 A3024 RMK AO2 SNB1753 CIG 024V029 P0000 T10701085
0341720534001612025012518157+40017-105050FM-15+1564KEIK V0200505N00415007625MN0080475N5-00735-00905999999ADDAA101000021AU110030015AU200001015AW1105AW2715GA1025+003055999GA2075+007625999GA3085+009145999GD11991+0030559GD23991+0076259GD34991+0091459GE19AGL   +99999+99999GF199999999999003051999999MA1102405084815MW1715REMMET12201/25/25 11:15:02 METAR KEIK 251815Z 05008KT 5SM -SN BR FEW010 BKN025 OVC030 M07/M09 A3024 RMK AO2 SNB1753 P0000 T10731090
0303720534001612025012518357+40017-105050FM-15+1564KEIK V0200705N00365007325MN0080475N5-00745-00885999999ADDAA101000021AU110030015AU200001015AW1105AW2715GA1025+000915999GA2085+007325999GD11991+0009159GD24991+0073259GE19AGL   +99999+99999GF199999999999000911999999MA1102375084785MW1715REMMET11501/25/25 11:35:02 METAR KEIK 251835Z 07007KT 5SM -SN BR FEW003 OVC024 M07/M09 A3023 RMK AO2 SNB1753 P0000 T10741088
0343720534001612025012518557+40017-105050FM-15+1564KEIK V0200605N00365007325MN0096565N5-00765-00925999999ADDAA101000021AU110030015AU200001015AW1105AW2715GA1025+000915999GA2045+002135999GA3085+007325999GD11991+0009159GD22991+0021359GD34991+0073259GE19AGL   +99999+99999GF199999999999000911999999MA1102345084755MW1715REMMET12401/25/25 11:55:02 METAR KEIK 251855Z 06007KT 6SM -SN BR FEW003 SCT007 OVC024 M08/M09 A3022 RMK AO2 FEW V SCT P0000 T10761092
0307720534001612025012519157+40017-105050FM-15+1564KEIK V0200505N00315007625MN0048285V5-00765-00925999999ADDAA101000021AU110030015AU200001015AW1105AW2715GA1025+000915999GA2085+007625999GD11991+0009159GD24991+0076259GE19AGL   +99999+99999GF199999999999000911999999MA1102305084725MW1715REMMET11901/25/25 12:15:02 METAR KEIK 251915Z 05006KT 3SM -SN BR FEW003 OVC025 M08/M09 A3021 RMK AO2 VIS 1 1/4V5 P0000 T10761092
0269720534001612025012519357+40017-105050FM-15+1564KEIK V0200405N00315008235MN0064375N5-00755-00915999999ADDAA101000021AU110030015AU200001015AW1105AW2715GA1085+008235999GD14991+0082351GE19AGL   +99999+99999GF199999999999008231999999MA1102305084725MW1715REMMET11201/25/25 12:35:02 METAR KEIK 251935Z 04006KT 4SM -SN BR OVC027 M08/M09 A3021 RMK AO2 CIG 025V032 P0000 T10751091
0295720534001612025012519557+40017-105050FM-15+1564KEIK V0200505N00315008535MN0080475N5-00765-00925999999ADDAA101000021AU110030015AU200001015AW1105AW2715GA1025+001225999GA2085+008535999GD11991+0012259GD24991+0085359GE19AGL   +99999+99999GF199999999999001221999999MA1102275084695MW1715REMMET10701/25/25 12:55:02 METAR KEIK 251955Z 05006KT 5SM -SN BR FEW004 OVC028 M08/M09 A3020 RMK AO2 P0000 T10761092
0338720534001612025012520157+40017-105050FM-15+1564KEIK V0200705N00215003965MN0112655N5-00745-00905999999ADDAA101000021AU110030015AW1715GA1075+003965999GA2075+008235999GA3085+010065999GD13991+0039651GD23991+0082359GD34991+0100659GE19AGL   +99999+99999GF199999999999003961999999MA1102275084695MW1715REMMET13601/25/25 13:15:02 METAR KEIK 252015Z 07004KT 7SM -SN BKN013 BKN027 OVC033 M07/M09 A3020 RMK AO2 CIG 011V016 BKN027 V OVC P0000 T10741090
0269720534001612025012520357+40017-105050FM-15+1564KEIK V0200605N00215003055MN0080475N5-00735-00875999999ADDAA101000021AU110030015AU200001015AW1105AW2715GA1085+003055999GD14991+0030551GE19AGL   +99999+99999GF199999999999003051999999MA1102275084695MW1715REMMET11201/25/25 13:35:02 METAR KEIK 252035Z 06004KT 5SM -SN BR OVC010 M07/M09 A3020 RMK AO2 CIG 010V015 P0000 T10731087
0292720534001612025012520557+40017-105050FM-15+1564KEIK V0200405N00215006405MN0160935N5-00725-00875999999ADDGA1045+003055999GA2075+006405999GA3085+010365999GD12991+0030551GD23991+0064059GD34991+0103659GE19AGL   +99999+99999GF199999999999003051999999MA1102275084695REMMET12401/25/25 13:55:02 METAR KEIK 252055Z 04004KT 10SM SCT010 BKN021 OVC034 M07/M09 A3020 RMK AO2 CIG 019V024 BKN V SCT T10721087
0284720534001612025012521157+40017-105050FM-15+1564KEIK V0200505N00155007015MN0144845N5-00725-00875999999ADDGA1045+003055999GA2045+005185999GA3075+007015999GD12991+0030559GD22991+0051859GD33991+0070159GD44991+0103619GE19AGL   +99999+99999GF199999999999003051999999MA1102275084695REMMET10101/25/25 14:15:02 METAR KEIK 252115Z 05003KT 9SM SCT010 SCT017 BKN023 M07/M09 A3020 RMK AO2 T10721087
0324720534001612025012521357+40017-105050FM-15+1564KEIK V0201005N00215005185MN0128755N5-00695-00915999999ADDAA101000395GA1045+003355999GA2075+005185999GA3075+007325999GD12991+0033559GD23991+0051859GD33991+0073259GD44991+0103619GE19AGL   +99999+99999GF199999999999003351999999MA1102275084695REMMET13001/25/25 14:35:02 METAR KEIK 252135Z 10004KT 8SM SCT011 BKN017 BKN024 M07/M09 A3020 RMK AO2 SNB2124E2128B2131E2134 P0001 T10691091
0269720534001612025012521557+40017-105050FM-15+1564KEIK V0200905N00315007625MN0144845N5-00695-01015999999ADDGA1025+005495999GA2075+007625999GA3085+010065999GD11991+0054959GD23991+0076259GD34991+0100659GE19AGL   +99999+99999GF199999999999005491999999MA1102305084725REMMET10101/25/25 14:55:02 METAR KEIK 252155Z 09006KT 9SM FEW018 BKN025 OVC033 M07/M10 A3021 RMK AO2 T10691101
0243720534001612025012522157+40017-105050FM-15+1564KEIK V0201205N00265007325MN0144845N5-00685-01005999999ADDGA1075+007325999GA2085+010365999GD13991+0073251GD24991+0103659GE19AGL   +99999+99999GF199999999999007321999999MA1102305084725REMMET10601/25/25 15:15:02 METAR KEIK 252215Z 12005KT 9SM BKN024 OVC034 M07/M10 A3021 RMK AO2 CIG 022V027 T10681100
0283720534001612025012522357+40017-105050FM-15+1564KEIK V0201105N00215011285MN0128755N5-00685-00975999999ADDAA101000021AU110030015AW1715GA1025+007625999GA2085+011285999GD11991+0076259GD24991+0112859GE19AGL   +99999+99999GF199999999999007621999999MA1102305084725MW1715REMMET11201/25/25 15:35:02 METAR KEIK 252235Z 11004KT 8SM -SN FEW025 OVC037 M07/M10 A3021 RMK AO2 SNB2227 P0000 T10681097
0245720534001612025012522557+40017-105050FM-15+1564KEIK V0201205N00265010975MN0112655N5-00695-00945999999ADDAA101000021AU110030015AW1715GA1085+010975999GD14991+0109759GE19AGL   +99999+99999GF199999999999010971999999MA1102305084725MW1715REMMET10501/25/25 15:55:02 METAR KEIK 252255Z 12005KT 7SM -SN OVC036 M07/M09 A3021 RMK AO2 SNB2251 P0000 T10691094
0255720534001612025012523157+40017-105050FM-15+1564KEIK V0201105N00215010675MN0128755N5-00715-00965999999ADDAA101000021AU110030015AW1715GA1085+010675999GD14991+0106759GE19AGL   +99999+99999GF199999999999010671999999MA1102305084725MW1715REMMET11501/25/25 16:15:02 METAR KEIK 252315Z 11004KT 8SM -SN OVC035 M07/M10 A3021 RMK AO2 SNB2251E2303B2308 P0000 T10711096
0233720534001612025012523357+40017-105050FM-15+1564KEIK V0201105N00215010065MN0144845N5-00715-00985999999ADDAA101000021GA1085+010065999GD14991+0100659GE19AGL   +99999+99999GF199999999999010061999999MA1102305084725REMMET11601/25/25 16:35:02 METAR KEIK 252335Z 11004KT 9SM OVC033 M07/M10 A3021 RMK AO2 SNB2251E2303B2308E2320 P0000 T10711098
0232720534001612025012523557+40017-105050FM-15+1564KEIK V0201005N00215010365MN0160935N5-00735-01005999999ADDGA1025+006405999GA2085+010365999GD11991+0064059GD24991+0103659GE19AGL   +99999+99999GF199999999999006401999999MA1102305084725REMMET09501/25/25 16:55:02 METAR KEIK 252355Z 10004KT 10SM FEW021 OVC034 M07/M10 A3021 RMK AO2 T10731100
0232720534001612025012600157+40017-105050FM-15+1564KEIK V0201105N00215010365MN0160935N5-00735-00985999999ADDGA1045+006715999GA2085+010365999GD12991+0067159GD24991+0103659GE19AGL   +99999+99999GF199999999999006711999999MA1102345084755REMMET09501/25/25 17:15:01 METAR KEIK 260015Z 11004KT 10SM SCT022 OVC034 M07/M10 A3022 RMK AO2 T10731098
0294720534001612025012600357+40017-105050FM-15+1564KEIK V0201005N00155010365MN0160935N5-00755-00945999999ADDAA101000021AU110030015AW1715GA1045+007015999GA2085+010365999GD12991+0070159GD24991+0103659GE19AGL   +99999+99999GF199999999999007011999999MA1102345084755MW1715REMMET12301/25/25 17:35:01 METAR KEIK 260035Z 10003KT 10SM -SN SCT023 OVC034 M08/M09 A3022 RMK AO2 SNB0031E0032B0033 P0000 T10751094
0194720534001612025012600557+40017-105050FM-15+1564KEIK V0201105N00155010675MN0160935N5-00755-00935999999ADDGA1085+010675999GD14991+0106759GE19AGL   +99999+99999GF199999999999010671999999MA1102375084785REMMET08801/25/25 17:55:01 METAR KEIK 260055Z 11003KT 10SM OVC035 M08/M09 A3023 RMK AO2 T10751093
0194720534001612025012601157+40017-105050FM-15+1564KEIK V0201005N00155010675MN0160935N5-00755-00935999999ADDGA1085+010675999GD14991+0106759GE19AGL   +99999+99999GF199999999999010671999999MA1102375084785REMMET08801/25/25 18:15:01 METAR KEIK 260115Z 10003KT 10SM OVC035 M08/M09 A3023 RMK AO2 T10751093
0270720534001612025012601357+40017-105050FM-15+1564KEIK V0209999C00005009145MN0160935N5-00755-00915999999ADDGA1025+002745999GA2075+009145999GA3085+010975999GD11991+0027459GD23991+0091459GD34991+0109759GE19AGL   +99999+99999GF199999999999002741999999MA1102405084815REMMET10201/25/25 18:35:01 METAR KEIK 260135Z 00000KT 10SM FEW009 BKN030 OVC036 M07/M09 A3024 RMK AO2 T10751091
0275720534001612025012601557+40017-105050FM-15+1564KEIK V0201005N00155008535MN0144845N5-00775-00905999999ADDAA101000021AU110030015AW1715GA1025+002135999GA2085+008535999GD11991+0021359GD24991+0085359GE19AGL   +99999+99999GF199999999999002131999999MA1102405084815MW1715REMMET10401/25/25 18:55:01 METAR KEIK 260155Z 10003KT 9SM -SN FEW007 OVC028 M08/M09 A3024 RMK AO2 P0000 T10771090
0250720534001612025012602157+40017-105050FM-15+1564KEIK V0201105N00215008535MN0144845N5-00755-00915999999ADDAA101000021AU110030015AW1715GA1085+008535999GD14991+0085359GE19AGL   +99999+99999GF199999999999008531999999MA1102405084815MW1715REMMET11001/25/25 19:15:01 METAR KEIK 260215Z 11004KT 9SM -SN OVC028 M07/M09 A3024 RMK AO2 SNE0159B0202 P0000 T10751091
0262720534001612025012602357+40017-105050FM-15+1564KEIK V0201105N00215008235MN0144845N5-00755-00935999999ADDAA101000021AU110030015AW1715GA1085+008235999GD14991+0082351GE19AGL   +99999+99999GF199999999999008231999999MA1102405084815MW1715REMMET12201/25/25 19:35:01 METAR KEIK 260235Z 11004KT 9SM -SN OVC027 M07/M09 A3024 RMK AO2 SNE0159B0202 CIG 025V032 P0000 T10751093
0287720534001612025012602557+40017-105050FM-15+1564KEIK V0201005N00265008235MN0128755N5-00775-00915999999ADDAA101000021AU110030015AW1715GA1025+002135999GA2085+008235999GD11991+0021351GD24991+0082359GE19AGL   +99999+99999GF199999999999002131999999MA1102405084815MW1715REMMET11601/25/25 19:55:01 METAR KEIK 260255Z 10005KT 8SM -SN FEW007 OVC027 M08/M09 A3024 RMK AO2 CIG 024V031 P0000 T10771091
0287720534001612025012603157+40017-105050FM-15+1564KEIK V0201105N00155008235MN0128755N5-00775-00905999999ADDAA101000021AU110030015AW1715GA1025+002135999GA2085+008235999GD11991+0021351GD24991+0082359GE19AGL   +99999+99999GF199999999999002131999999MA1102405084815MW1715REMMET11601/25/25 20:15:02 METAR KEIK 260315Z 11003KT 8SM -SN FEW007 OVC027 M08/M09 A3024 RMK AO2 CIG 024V030 P0000 T10771090
0348720534001612025012603357+40017-105050FM-15+1564KEIK V0201005N00215008235MN0128755N5-00785-00915999999ADDAA101000021AU110030015AW1715GA1025+002135999GA2045+003965999GA3085+008235999GD11991+0021351GD22991+0039659GD34991+0082359GE19AGL   +99999+99999GF199999999999002131999999MA1102375084785MW1715REMMET14601/25/25 20:35:02 METAR KEIK 260335Z 10004KT 8SM -SN FEW007 SCT013 OVC027 M08/M09 A3023 RMK AO2 SNE0323B0330 CIG 025V031 FEW V SCT P0000 T10781091
0249720534001612025012603557+40017-105050FM-15+1564KEIK V0200905N00155007925MN0128755N5-00785-00905999999ADDAA101000021AU110030015AW1715GA1085+007925999GD14991+0079251GE19AGL   +99999+99999GF199999999999007921999999MA1102375084785MW1715REMMET10901/25/25 20:55:02 METAR KEIK 260355Z 09003KT 8SM -SN OVC026 M08/M09 A3023 RMK AO2 CIG 021V030 P0000 T10781090
0230720534001612025012604157+40017-105050FM-15+1564KEIK V0209999C00005006715MN0128755N5-00785-00905999999ADDAA101000021GA1085+006715999GD14991+0067151GE19AGL   +99999+99999GF199999999999006711999999MA1102375084785REMMET11301/25/25 21:15:02 METAR KEIK 260415Z 00000KT 8SM OVC022 M08/M09 A3023 RMK AO2 SNE0414 CIG 021V027 P0000 T10781090
0298720534001612025012604357+40017-105050FM-15+1564KEIK V0209999C00005007015MN0128755N5-00785-00905999999ADDAA101000021AU110030015AW1715GA1075+007015999GA2085+009145999GD13991+0070159GD24991+0091459GE19AGL   +99999+99999GF199999999999007011999999MA1102345084755MW1715REMMET12701/25/25 21:35:02 METAR KEIK 260435Z 00000KT 8SM -SN BKN023 OVC030 M08/M09 A3022 RMK AO2 SNE0414B0421 BKN V SCT P0000 T10781090
0325720534001612025012604557+40017-105050FM-15+1564KEIK V0209999C00005006405MN0144845N5-00795-00905999999ADDAA101000021AU110030015AW1715GA1025+002745999GA2075+006405999GA3085+009755999GD11991+0027451GD23991+0064059GD34991+0097559GE19AGL   +99999+99999GF199999999999002741999999MA1102345084755MW1715REMMET12301/25/25 21:55:02 METAR KEIK 260455Z 00000KT 9SM -SN FEW009 BKN021 OVC032 M08/M09 A3022 RMK AO2 CIG 019V025 P0000 T10791090
0272720534001612025012605157+40017-105050FM-15+1564KEIK V0201105N00215006405MN0128755N5-00795-00905999999ADDAA101000021AU110030015AW1715GA1085+006405999GD14991+0064051GE19AGL   +99999+99999GF199999999999006401999999MA1102345084755MW1715REMMET13201/25/25 22:15:02 METAR KEIK 260515Z 11004KT 8SM -SN OVC021 M08/M09 A3022 RMK AO2 SNE0501B0502E0503B0505 CIG 019V026 P0000 T10791090
0260720534001612025012605357+40017-105050FM-15+1564KEIK V0201205N00215006715MN0128755N5-00795-00905999999ADDAA101000021AU110030015AW1715GA1085+006715999GD14991+0067159GE19AGL   +99999+99999GF199999999999006711999999MA1102305084725MW1715REMMET12001/25/25 22:35:02 METAR KEIK 260535Z 12004KT 8SM -SN OVC022 M08/M09 A3021 RMK AO2 SNE0501B0502E0503B0505 P0000 T10791090
0237720534001612025012605557+40017-105050FM-15+1564KEIK V0201005N00155006715MN0128755N5-00805-00905999999ADDAA101000021AU110030015AW1715GA1085+006715999GD14991+0067159GE19AGL   +99999+99999GF199999999999006711999999MA1102305084725MW1715REMMET09701/25/25 22:55:02 METAR KEIK 260555Z 10003KT 8SM -SN OVC022 M08/M09 A3021 RMK AO2 P0000 T10801090
0249720534001612025012606157+40017-105050FM-15+1564KEIK V0200905N00215006405MN0112655N5-00815-00905999999ADDAA101000021AU110030015AW1715GA1085+006405999GD14991+0064051GE19AGL   +99999+99999GF199999999999006401999999MA1102305084725MW1715REMMET10901/25/25 23:15:02 METAR KEIK 260615Z 09004KT 7SM -SN OVC021 M08/M09 A3021 RMK AO2 CIG 017V024 P0000 T10811090
0249720534001612025012606357+40017-105050FM-15+1564KEIK V0209999C00005006105MN0128755N5-00805-00885999999ADDAA101000021AU110030015AW1715GA1085+006105999GD14991+0061051GE19AGL   +99999+99999GF199999999999006101999999MA1102275084695MW1715REMMET10901/25/25 23:35:02 METAR KEIK 260635Z 00000KT 8SM -SN OVC020 M08/M09 A3020 RMK AO2 CIG 015V024 P0000 T10801088
0287720534001612025012606557+40017-105050FM-15+1564KEIK V0209999C00005004885MN0144845N5-00815-00895999999ADDAA101000021AU110030015AW1715GA1075+004885999GA2085+006715999GD13991+0048851GD24991+0067159GE19AGL   +99999+99999GF199999999999004881999999MA1102275084695MW1715REMMET11601/25/25 23:55:02 METAR KEIK 260655Z 00000KT 9SM -SN BKN016 OVC022 M08/M09 A3020 RMK AO2 CIG 012V019 P0000 T10811089
003972053400161202501260659O+40017-105050SOD  +1564KEIK V020999999999999999999999999999+99999+99999999999ADDAT1AU18SN  5AT2AU13BR  5AT3AU19UP  5
0275720534001612025012607157+40017-105050FM-15+1564KEIK V0203505N00155006715MN0144845N5-00775-00885999999ADDAA101000021AU110030015AW1715GA1025+004575999GA2085+006715999GD11991+0045759GD24991+0067159GE19AGL   +99999+99999GF199999999999004571999999MA1102275084695MW1715REMMET10401/26/25 00:15:02 METAR KEIK 260715Z 35003KT 9SM -SN FEW015 OVC022 M08/M09 A3020 RMK AO2 P0000 T10771088
0287720534001612025012607357+40017-105050FM-15+1564KEIK V0209999C00005003665MN0128755N5-00785-00875999999ADDAA101000021AU110030015AW1715GA1075+003665999GA2085+006715999GD13991+0036651GD24991+0067159GE19AGL   +99999+99999GF199999999999003661999999MA1102245084665MW1715REMMET11601/26/25 00:35:02 METAR KEIK 260735Z 00000KT 8SM -SN BKN012 OVC022 M08/M09 A3019 RMK AO2 CIG 011V017 P0000 T10781087
0287720534001612025012607557+40017-105050FM-15+1564KEIK V0203605N00155003055MN0112655N5-00795-00875999999ADDAA101000021AU110030015AW1715GA1075+003055999GA2085+004885999GD13991+0030551GD24991+0048859GE19AGL   +99999+99999GF199999999999003051999999MA1102245084665MW1715REMMET11601/26/25 00:55:02 METAR KEIK 260755Z 36003KT 7SM -SN BKN010 OVC016 M08/M09 A3019 RMK AO2 CIG 006V012 P0000 T10791087
0339720534001612025012608157+40017-105050FM-15+1564KEIK V0203605N00155005185MN0160935N5-00805-00885999999ADDAA101000021AU110030015AW1715GA1045+002445999GA2075+005185999GA3085+008235999GD12991+0024451GD23991+0051859GD34991+0082359GE19AGL   +99999+99999GF199999999999002441999999MA1102245084665MW1715REMMET13701/26/25 01:15:02 METAR KEIK 260815Z 36003KT 10SM -SN SCT008 BKN017 OVC027 M08/M09 A3019 RMK AO2 SNE0807B0814 CIG 017V021 P0000 T10801088
0311720534001612025012608357+40017-105050FM-15+1564KEIK V0203405N00155005795MN0160935N5-00815-00895999999ADDAA101000021AU110030015AW1715GA1045+002745999GA2085+005795999GD12991+0027451GD24991+0057959GE19AGL   +99999+99999GF199999999999002741999999MA1102205084645MW1715REMMET14001/26/25 01:35:02 METAR KEIK 260835Z 34003KT 10SM -SN SCT009 OVC019 M08/M09 A3018 RMK AO2 SNE0807B0814 CIG 013V022 OVC V BKN P0000 T10811089
0287720534001612025012608557+40017-105050FM-15+1564KEIK V0209999C00005002745MN0144845N5-00835-00895999999ADDAA101000021AU110030015AW1715GA1075+002745999GA2085+005795999GD13991+0027451GD24991+0057959GE19AGL   +99999+99999GF199999999999002741999999MA1102205084645MW1715REMMET11601/26/25 01:55:02 METAR KEIK 260855Z 00000KT 9SM -SN BKN009 OVC019 M08/M09 A3018 RMK AO2 CIG 008V010 P0000 T10831089
0262720534001612025012609157+40017-105050FM-15+1564KEIK V0203405N00155003055MN0144845N5-00835-00905999999ADDAA101000021AU110030015AW1715GA1085+003055999GD14991+0030551GE19AGL   +99999+99999GF199999999999003051999999MA1102205084645MW1715REMMET12201/26/25 02:15:02 METAR KEIK 260915Z 34003KT 9SM -SN OVC010 M08/M09 A3018 RMK AO2 SNE0907B0911 CIG 008V010 P0000 T10831090
0250720534001612025012609357+40017-105050FM-15+1564KEIK V0203405N00155003055MN0128755N5-00845-00915999999ADDAA101000021AU110030015AW1715GA1085+003055999GD14991+0030559GE19AGL   +99999+99999GF199999999999003051999999MA1102205084645MW1715REMMET11001/26/25 02:35:02 METAR KEIK 260935Z 34003KT 8SM -SN OVC010 M08/M09 A3018 RMK AO2 SNE0907B0911 P0000 T10841091
0249720534001612025012609557+40017-105050FM-15+1564KEIK V0203405N00215002745MN0144845N5-00855-00905999999ADDAA101000021AU110030015AW1715GA1085+002745999GD14991+0027451GE19AGL   +99999+99999GF199999999999002741999999MA1102205084645MW1715REMMET10901/26/25 02:55:02 METAR KEIK 260955Z 34004KT 9SM -SN OVC009 M09/M09 A3018 RMK AO2 CIG 007V010 P0000 T10851090
0262720534001612025012610157+40017-105050FM-15+1564KEIK V0203405N00155002135MN0144845N5-00855-00905999999ADDAA101000021AU110030015AW1715GA1085+002135999GD14991+0021351GE19AGL   +99999+99999GF199999999999002131999999MA1102175084615MW1715REMMET12201/26/25 03:15:02 METAR KEIK 261015Z 34003KT 9SM -SN OVC007 M09/M09 A3017 RMK AO2 SNE1009B1010 CIG 005V009 P0000 T10851090
0272720534001612025012610357+40017-105050FM-15+1564KEIK V0203405N00155001525MN0128755N5-00875-00915999999ADDAA101000021AU110030015AW1715GA1085+001525999GD14991+0015251GE19AGL   +99999+99999GF199999999999001521999999MA1102175084615MW1715REMMET13201/26/25 03:35:02 METAR KEIK 261035Z 34003KT 8SM -SN OVC005 M09/M09 A3017 RMK AO2 SNE1009B1010E1020B1023 CIG 005V008 P0000 T10871091
0193720534001612025012610557+40017-105050FM-15+1564KEIK V0203405N00215001525MN0144845N5-00865-00905999999ADDGA1085+001525999GD14991+0015259GE19AGL   +99999+99999GF199999999999001521999999MA1102135084585REMMET08701/26/25 03:55:02 METAR KEIK 261055Z 34004KT 9SM OVC005 M09/M09 A3016 RMK AO2 T10861090
0193720534001612025012611157+40017-105050FM-15+1564KEIK V0203305N00265001525MN0128755N5-00865-00915999999ADDGA1085+001525999GD14991+0015259GE19AGL   +99999+99999GF199999999999001521999999MA1102135084585REMMET08701/26/25 04:15:02 METAR KEIK 261115Z 33005KT 8SM OVC005 M09/M09 A3016 RMK AO2 T10861091
0193720534001612025012611357+40017-105050FM-15+1564KEIK V0203405N00215001525MN0144845N5-00875-00915999999ADDGA1085+001525999GD14991+0015259GE19AGL   +99999+99999GF199999999999001521999999MA1102105084555REMMET08701/26/25 04:35:02 METAR KEIK 261135Z 34004KT 9SM OVC005 M09/M09 A3015 RMK AO2 T10871091
0193720534001612025012611557+40017-105050FM-15+1564KEIK V0203305N00215001525MN0128755N5-00865-00915999999ADDGA1085+001525999GD14991+0015259GE19AGL   +99999+99999GF199999999999001521999999MA1102105084555REMMET08701/26/25 04:55:02 METAR KEIK 261155Z 33004KT 8SM OVC005 M09/M09 A3015 RMK AO2 T10861091
0193720534001612025012612157+40017-105050FM-15+1564KEIK V0203405N00155001835MN0128755N5-00865-00915999999ADDGA1085+001835999GD14991+0018359GE19AGL   +99999+99999GF199999999999001831999999MA1102105084555REMMET08701/26/25 05:15:02 METAR KEIK 261215Z 34003KT 8SM OVC006 M09/M09 A3015 RMK AO2 T10861091
0193720534001612025012612357+40017-105050FM-15+1564KEIK V0203405N00155001525MN0128755N5-00875-00925999999ADDGA1085+001525999GD14991+0015259GE19AGL   +99999+99999GF199999999999001521999999MA1102075084525REMMET08701/26/25 05:35:02 METAR KEIK 261235Z 34003KT 8SM OVC005 M09/M09 A3014 RMK AO2 T10871092
0193720534001612025012612557+40017-105050FM-15+1564KEIK V0203405N00215001835MN0128755N5-00875-00935999999ADDGA1085+001835999GD14991+0018359GE19AGL   +99999+99999GF199999999999001831999999MA1102105084555REMMET08701/26/25 05:55:02 METAR KEIK 261255Z 34004KT 8SM OVC006 M09/M09 A3015 RMK AO2 T10871093
0205720534001612025012613157+40017-105050FM-15+1564KEIK V0203305N00215001835MN0112655N5-00895-00935999999ADDGA1085+001835999GD14991+0018351GE19AGL   +99999+99999GF199999999999001831999999MA1102105084555REMMET09901/26/25 06:15:02 METAR KEIK 261315Z 33004KT 7SM OVC006 M09/M09 A3015 RMK AO2 CIG 004V006 T10891093
0193720534001612025012613357+40017-105050FM-15+1564KEIK V0203205N00265001525MN0112655N5-00895-00935999999ADDGA1085+001525999GD14991+0015259GE19AGL   +99999+99999GF199999999999001521999999MA1102135084585REMMET08701/26/25 06:35:02 METAR KEIK 261335Z 32005KT 7SM OVC005 M09/M09 A3016 RMK AO2 T10891093
0205720534001612025012613557+40017-105050FM-15+1564KEIK V0203405N00155001525MN0112655N5-00895-00935999999ADDGA1085+001525999GD14991+0015251GE19AGL   +99999+99999GF199999999999001521999999MA1102135084585REMMET09901/26/25 06:55:02 METAR KEIK 261355Z 34003KT 7SM OVC005 M09/M09 A3016 RMK AO2 CIG 004V006 T10891093
0225720534001612025012614157+40017-105050FM-15+1564KEIK V0203405N00265001525MN0080475N5-00905-00935999999ADDAU100001015AW1105GA1085+001525999GD14991+0015251GE19AGL   +99999+99999GF199999999999001521999999MA1102135084585REMMET10201/26/25 07:15:02 METAR KEIK 261415Z 34005KT 5SM BR OVC005 M09/M09 A3016 RMK AO2 CIG 004V006 T10901093
0205720534001612025012614357+40017-105050FM-15+1564KEIK V0203305N00155001835MN0144845N5-00885-00955999999ADDGA1085+001835999GD14991+0018351GE19AGL   +99999+99999GF199999999999001831999999MA1102175084615REMMET09901/26/25 07:35:02 METAR KEIK 261435Z 33003KT 9SM OVC006 M09/M09 A3017 RMK AO2 CIG 005V007 T10881095
0206720534001612025012614557+40017-105050FM-15+1564KEIK V0209999V00155001835MN0160935N5-00905-00955999999ADDGA1085+001835999GD14991+0018351GE19AGL   +99999+99999GF199999999999001831999999MA1102205084645REMMET10001/26/25 07:55:02 METAR KEIK 261455Z VRB03KT 10SM OVC006 M09/M10 A3018 RMK AO2 CIG 005V007 T10901095
0194720534001612025012615157+40017-105050FM-15+1564KEIK V0203205N00315002135MN0160935N5-00895-00965999999ADDGA1085+002135999GD14991+0021359GE19AGL   +99999+99999GF199999999999002131999999MA1102205084645REMMET08801/26/25 08:15:01 METAR KEIK 261515Z 32006KT 10SM OVC007 M09/M10 A3018 RMK AO2 T10891096
0206720534001612025012615357+40017-105050FM-15+1564KEIK V0203105N00265002135MN0160935N5-00905-00985999999ADDGA1085+002135999GD14991+0021351GE19AGL   +99999+99999GF199999999999002131999999MA1102245084665REMMET10001/26/25 08:35:01 METAR KEIK 261535Z 31005KT 10SM OVC007 M09/M10 A3019 RMK AO2 CIG 006V008 T10901098
0206720534001612025012615557+40017-105050FM-15+1564KEIK V0203105N00315002135MN0160935N5-00905-00965999999ADDGA1085+002135999GD14991+0021351GE19AGL   +99999+99999GF199999999999002131999999MA1102245084665REMMET10001/26/25 08:55:01 METAR KEIK 261555Z 31006KT 10SM OVC007 M09/M10 A3019 RMK AO2 CIG 006V008 T10901096
0206720534001612025012616157+40017-105050FM-15+1564KEIK V0202705N00155002135MN0160935N5-00885-00965999999ADDGA1085+002135999GD14991+0021351GE19AGL   +99999+99999GF199999999999002131999999MA1102275084695REMMET10001/26/25 09:15:02 METAR KEIK 261615Z 27003KT 10SM OVC007 M09/M10 A3020 RMK AO2 CIG 006V008 T10881096
0194720534001612025012616357+40017-105050FM-15+1564KEIK V0202905N00215002445MN0160935N5-00845-00955999999ADDGA1085+002445999GD14991+0024459GE19AGL   +99999+99999GF199999999999002441999999MA1102305084725REMMET08801/26/25 09:35:02 METAR KEIK 261635Z 29004KT 10SM OVC008 M08/M09 A3021 RMK AO2 T10841095
0206720534001612025012616557+40017-105050FM-15+1564KEIK V0203305N00155002445MN0160935N5-00855-00965999999ADDGA1085+002445999GD14991+0024451GE19AGL   +99999+99999GF199999999999002441999999MA1102305084725REMMET10001/26/25 09:55:02 METAR KEIK 261655Z 33003KT 10SM OVC008 M08/M10 A3021 RMK AO2 CIG 007V009 T10851096
0194720534001612025012617157+40017-105050FM-15+1564KEIK V0209999C00005002745MN0160935N5-00835-00965999999ADDGA1085+002745999GD14991+0027459GE19AGL   +99999+99999GF199999999999002741999999MA1102345084755REMMET08801/26/25 10:15:02 METAR KEIK 261715Z 00000KT 10SM OVC009 M08/M10 A3022 RMK AO2 T10831096
0206720534001612025012617357+40017-105050FM-15+1564KEIK V0203105N00215002745MN0160935N5-00795-00955999999ADDGA1085+002745999GD14991+0027451GE19AGL   +99999+99999GF199999999999002741999999MA1102345084755REMMET10001/26/25 10:35:02 METAR KEIK 261735Z 31004KT 10SM OVC009 M08/M09 A3022 RMK AO2 CIG 008V010 T10791095
0194720534001612025012617557+40017-105050FM-15+1564KEIK V0209999V00155002745MN0160935N5-00765-00945999999ADDGA1085+002745999GD14991+0027459GE19AGL   +99999+99999GF199999999999002741999999MA1102375084785REMMET08801/26/25 10:55:02 METAR KEIK 261755Z VRB03KT 10SM OVC009 M08/M09 A3023 RMK AO2 T10761094
0194720534001612025012618157+40017-105050FM-15+1564KEIK V0203305N00155003055MN0160935N5-00765-00925999999ADDGA1085+003055999GD14991+0030559GE19AGL   +99999+99999GF199999999999003051999999MA1102375084785REMMET08801/26/25 11:15:02 METAR KEIK 261815Z 33003KT 10SM OVC010 M08/M09 A3023 RMK AO2 T10761092
0194720534001612025012618357+40017-105050FM-15+1564KEIK V0203505N00155003055MN0160935N5-00735-00925999999ADDGA1085+003055999GD14991+0030559GE19AGL   +99999+99999GF199999999999003051999999MA1102375084785REMMET08801/26/25 11:35:02 METAR KEIK 261835Z 35003KT 10SM OVC010 M07/M09 A3023 RMK AO2 T10731092
0232720534001612025012618557+40017-105050FM-15+1564KEIK V0203205N00215022865MN0160935N5-00745-00955999999ADDGA1045+003055999GA2085+022865999GD12991+0030559GD24991+0228659GE19AGL   +99999+99999GF199999999999003051999999MA1102375084785REMMET09501/26/25 11:55:02 METAR KEIK 261855Z 32004KT 10SM SCT010 OVC075 M07/M10 A3023 RMK AO2 T10741095
0270720534001612025012619157+40017-105050FM-15+1564KEIK V0209999C00005027435MN0160935N5-00645-00905999999ADDGA1025+003965999GA2045+022865999GA3075+027435999GD11991+0039659GD22991+0228659GD33991+0274359GE19AGL   +99999+99999GF199999999999003961999999MA1102345084755REMMET10201/26/25 12:15:02 METAR KEIK 261915Z 00000KT 10SM FEW013 SCT075 BKN090 M06/M09 A3022 RMK AO2 T10641090
0213720534001612025012619357+40017-105050FM-15+1564KEIK V0209999C000052200059N0160935N5-00585-00925999999ADDGA1025+003965999GD11991+0039659GE19AGL   +99999+99999GF102995999999003961999999MA1102305084725REMMET08801/26/25 12:35:02 METAR KEIK 261935Z 00000KT 10SM FEW013 M06/M09 A3021 RMK AO2 T10581092EQDD01      0ADE726
0169720534001612025012619557+40017-105050FM-15+1564KEIK V0209999C000052200059N0160935N5-00655-00975999999ADDGA1005+999999999GD10991+9999999GF100991999999999999999999MA1102275084695REMMET08501/26/25 12:55:02 METAR KEIK 261955Z 00000KT 10SM CLR M07/M10 A3020 RMK AO2 T10651097
0169720534001612025012620157+40017-105050FM-15+1564KEIK V0209999C000052200059N0160935N5-00625-00945999999ADDGA1005+999999999GD10991+9999999GF100991999999999999999999MA1102275084695REMMET08501/26/25 13:15:02 METAR KEIK 262015Z 00000KT 10SM CLR M06/M09 A3020 RMK AO2 T10621094
0169720534001612025012620357+40017-105050FM-15+1564KEIK V0209999C000052200059N0160935N5-00465-00895999999ADDGA1005+999999999GD10991+9999999GF100991999999999999999999MA1102245084665REMMET08501/26/25 13:35:02 METAR KEIK 262035Z 00000KT 10SM CLR M05/M09 A3019 RMK AO2 T10461089
0169720534001612025012620557+40017-105050FM-15+1564KEIK V0201905N002152200059N0160935N5-00375-00865999999ADDGA1005+999999999GD10991+9999999GF100991999999999999999999MA1102275084695REMMET08501/26/25 13:55:02 METAR KEIK 262055Z 19004KT 10SM CLR M04/M09 A3020 RMK AO2 T10371086
0194720534001612025012621157+40017-105050FM-15+1564KEIK V0202105N00315030485MN0160935N5-00365-00825999999ADDGA1075+030485999GD13991+0304859GE19AGL   +99999+99999GF199999999999030481999999MA1102305084725REMMET08801/26/25 14:15:02 METAR KEIK 262115Z 21006KT 10SM BKN100 M04/M08 A3021 RMK AO2 T10361082
0194720534001612025012621357+40017-105050FM-15+1564KEIK V0202005N00155030485MN0160935N5-00365-00835999999ADDGA1075+030485999GD13991+0304859GE19AGL   +99999+99999GF199999999999030481999999MA1102275084695REMMET08801/26/25 14:35:02 METAR KEIK 262135Z 20003KT 10SM BKN100 M04/M08 A3020 RMK AO2 T10361083
0232720534001612025012621557+40017-105050FM-15+1564KEIK V0201805N00155024385MN0160935N5-00325-00825999999ADDGA1075+024385999GA2075+030485999GD13991+0243859GD23991+0304859GE19AGL   +99999+99999GF199999999999024381999999MA1102275084695REMMET09501/26/25 14:55:02 METAR KEIK 262155Z 18003KT 10SM BKN080 BKN100 M03/M08 A3020 RMK AO2 T10321082
0232720534001612025012622157+40017-105050FM-15+1564KEIK V0209999C00005030485MN0160935N5-00275-00825999999ADDGA1045+024385999GA2075+030485999GD12991+0243859GD23991+0304859GE19AGL   +99999+99999GF199999999999024381999999MA1102275084695REMMET09501/26/25 15:15:02 METAR KEIK 262215Z 00000KT 10SM SCT080 BKN100 M03/M08 A3020 RMK AO2 T10271082
0194720534001612025012622357+40017-105050FM-15+1564KEIK V0209999C00005028965MN0160935N5-00215-00845999999ADDGA1075+028965999GD13991+0289659GE19AGL   +99999+99999GF199999999999028961999999MA1102305084725REMMET08801/26/25 15:35:02 METAR KEIK 262235Z 00000KT 10SM BKN095 M02/M08 A3021 RMK AO2 T10211084
0232720534001612025012622557+40017-105050FM-15+1564KEIK V0209999C00005028965MN0160935N5-00335-00905999999ADDGA1045+022865999GA2075+028965999GD12991+0228659GD23991+0289659GE19AGL   +99999+99999GF199999999999022861999999MA1102305084725REMMET09501/26/25 15:55:02 METAR KEIK 262255Z 00000KT 10SM SCT075 BKN095 M03/M09 A3021 RMK AO2 T10331090
0213720534001612025012623157+40017-105050FM-15+1564KEIK V0209999C000052200059N0160935N5-00365-00995999999ADDGA1045+024385999GD12991+0243859GE19AGL   +99999+99999GF104995999999024381999999MA1102345084755REMMET08801/26/25 16:15:02 METAR KEIK 262315Z 00000KT 10SM SCT080 M04/M10 A3022 RMK AO2 T10361099EQDD01      0ADE726
0213720534001612025012623357+40017-105050FM-15+1564KEIK V0200605N001552200059N0160935N5-00385-00965999999ADDGA1025+028965999GD11991+0289659GE19AGL   +99999+99999GF102995999999028961999999MA1102345084755REMMET08801/26/25 16:35:02 METAR KEIK 262335Z 06003KT 10SM FEW095 M04/M10 A3022 RMK AO2 T10381096EQDD01      0ADE726
0213720534001612025012623557+40017-105050FM-15+1564KEIK V0209999C000052200059N0160935N5-00485-00965999999ADDGA1025+024385999GD11991+0243859GE19AGL   +99999+99999GF102995999999024381999999MA1102345084755REMMET08801/26/25 16:55:02 METAR KEIK 262355Z 00000KT 10SM FEW080 M05/M10 A3022 RMK AO2 T10481096EQDD01      0ADE726
0169720534001612025012700157+40017-105050FM-15+1564KEIK V0200805N002152200059N0160935N5-00735-01055999999ADDGA1005+999999999GD10991+9999999GF100991999999999999999999MA1102375084785REMMET08501/26/25 17:15:01 METAR KEIK 270015Z 08004KT 10SM CLR M07/M10 A3023 RMK AO2 T10731105
0169720534001612025012700357+40017-105050FM-15+1564KEIK V0200905N002652200059N0160935N5-00815-01045999999ADDGA1005+999999999GD10991+9999999GF100991999999999999999999MA1102375084785REMMET08501/26/25 17:35:01 METAR KEIK 270035Z 09005KT 10SM CLR M08/M10 A3023 RMK AO2 T10811104
0169720534001612025012700557+40017-105050FM-15+1564KEIK V0200905N002152200059N0160935N5-00855-01065999999ADDGA1005+999999999GD10991+9999999GF100991999999999999999999MA1102375084785REMMET08501/26/25 17:55:01 METAR KEIK 270055Z 09004KT 10SM CLR M09/M11 A3023 RMK AO2 T10851106
0169720534001612025012701157+40017-105050FM-15+1564KEIK V0209999C000052200059N0160935N5-00945-01115999999ADDGA1005+999999999GD10991+9999999GF100991999999999999999999MA1102375084785REMMET08501/26/25 18:15:01 METAR KEIK 270115Z 00000KT 10SM CLR M09/M11 A3023 RMK AO2 T10941111
0169720534001612025012701357+40017-105050FM-15+1564KEIK V0209999C000052200059N0160935N5-00985-01105999999ADDGA1005+999999999GD10991+9999999GF100991999999999999999999MA1102375084785REMMET08501/26/25 18:35:01 METAR KEIK 270135Z 00000KT 10SM CLR M10/M11 A3023 RMK AO2 T10981110
0169720534001612025012701557+40017-105050FM-15+1564KEIK V0209999C000052200059N0160935N5-01075-01155999999ADDGA1005+999999999GD10991+9999999GF100991999999999999999999MA1102375084785REMMET08501/26/25 18:55:01 METAR KEIK 270155Z 00000KT 10SM CLR M11/M12 A3023 RMK AO2 T11071115
0169720534001612025012702157+40017-105050FM-15+1564KEIK V0209999C000052200059N0160935N5-01205-01295999999ADDGA1005+999999999GD10991+9999999GF100991999999999999999999MA1102375084785REMMET08501/26/25 19:15:01 METAR KEIK 270215Z 00000KT 10SM CLR M12/M13 A3023 RMK AO2 T11201129
0168720534001612025012702357+40017-105050FM-15+1564KEIK V0209999C000052200059N0144845N5-01185-01225999999ADDGA1005+999999999GD10991+9999999GF100991999999999999999999MA1102375084785REMMET08401/26/25 19:35:01 METAR KEIK 270235Z 00000KT 9SM CLR M12/M12 A3023 RMK AO2 T11181122
0169720534001612025012702557+40017-105050FM-15+1564KEIK V0209999C000052200059N0160935N5-01225-01285999999ADDGA1005+999999999GD10991+9999999GF100991999999999999999999MA1102405084815REMMET08501/26/25 19:55:01 METAR KEIK 270255Z 00000KT 10SM CLR M12/M13 A3024 RMK AO2 T11221128
0169720534001612025012703157+40017-105050FM-15+1564KEIK V0209999C000052200059N0160935N5-01265-01335999999ADDGA1005+999999999GD10991+9999999GF100991999999999999999999MA1102375084785REMMET08501/26/25 20:15:01 METAR KEIK 270315Z 00000KT 10SM CLR M13/M13 A3023 RMK AO2 T11261133
0168720534001612025012703357+40017-105050FM-15+1564KEIK V0209999C000052200059N0144845N5-01375-01435999999ADDGA1005+999999999GD10991+9999999GF100991999999999999999999MA1102405084815REMMET08401/26/25 20:35:01 METAR KEIK 270335Z 00000KT 9SM CLR M14/M14 A3024 RMK AO2 T11371143
0168720534001612025012703557+40017-105050FM-15+1564KEIK V0209999C000052200059N0144845N5-01425-01485999999ADDGA1005+999999999GD10991+9999999GF100991999999999999999999MA1102405084815REMMET08401/26/25 20:55:01 METAR KEIK 270355Z 00000KT 9SM CLR M14/M15 A3024 RMK AO2 T11421148
0168720534001612025012704157+40017-105050FM-15+1564KEIK V0209999C000052200059N0144845N5-01365-01415999999ADDGA1005+999999999GD10991+9999999GF100991999999999999999999MA1102375084785REMMET08401/26/25 21:15:01 METAR KEIK 270415Z 00000KT 9SM CLR M14/M14 A3023 RMK AO2 T11361141
0169720534001612025012704357+40017-105050FM-15+1564KEIK V0209999C000052200059N0160935N5-01375-01445999999ADDGA1005+999999999GD10991+9999999GF100991999999999999999999MA1102375084785REMMET08501/26/25 21:35:01 METAR KEIK 270435Z 00000KT 10SM CLR M14/M14 A3023 RMK AO2 T11371144
0169720534001612025012704557+40017-105050FM-15+1564KEIK V0209999C000052200059N0160935N5-01325-01385999999ADDGA1005+999999999GD10991+9999999GF100991999999999999999999MA1102345084755REMMET08501/26/25 21:55:01 METAR KEIK 270455Z 00000KT 10SM CLR M13/M14 A3022 RMK AO2 T11321138
0169720534001612025012705157+40017-105050FM-15+1564KEIK V0209999C000052200059N0160935N5-01395-01465999999ADDGA1005+999999999GD10991+9999999GF100991999999999999999999MA1102345084755REMMET08501/26/25 22:15:01 METAR KEIK 270515Z 00000KT 10SM CLR M14/M15 A3022 RMK AO2 T11391146
0168720534001612025012705357+40017-105050FM-15+1564KEIK V0209999C000052200059N0144845N5-01375-01435999999ADDGA1005+999999999GD10991+9999999GF100991999999999999999999MA1102345084755REMMET08401/26/25 22:35:01 METAR KEIK 270535Z 00000KT 9SM CLR M14/M14 A3022 RMK AO2 T11371143
0168720534001612025012705557+40017-105050FM-15+1564KEIK V0203305N001552200059N0128755N5-01475-01535999999ADDGA1005+999999999GD10991+9999999GF100991999999999999999999MA1102345084755REMMET08401/26/25 22:55:01 METAR KEIK 270555Z 33003KT 8SM CLR M15/M15 A3022 RMK AO2 T11471153
0168720534001612025012706157+40017-105050FM-15+1564KEIK V0203505N002152200059N0128755N5-01365-01415999999ADDGA1005+999999999GD10991+9999999GF100991999999999999999999MA1102345084755REMMET08401/26/25 23:15:01 METAR KEIK 270615Z 35004KT 8SM CLR M14/M14 A3022 RMK AO2 T11361141
0169720534001612025012706357+40017-105050FM-15+1564KEIK V0209999C000052200059N0160935N5-01505-01565999999ADDGA1005+999999999GD10991+9999999GF100991999999999999999999MA1102345084755REMMET08501/26/25 23:35:01 METAR KEIK 270635Z 00000KT 10SM CLR M15/M16 A3022 RMK AO2 T11501156
0168720534001612025012706557+40017-105050FM-15+1564KEIK V0209999C000052200059N0128755N5-01435-01485999999ADDGA1005+999999999GD10991+9999999GF100991999999999999999999MA1102345084755REMMET08401/26/25 23:55:01 METAR KEIK 270655Z 00000KT 8SM CLR M14/M15 A3022 RMK AO2 T11431148
002772053400161202501270659O+40017-105050SOD  +1564KEIK V020999999999999999999999999999+99999+99999999999ADDAT1AU18SN  5AT2AU13BR  5
0168720534001612025012707157+40017-105050FM-15+1564KEIK V0209999C000052200059N0144845N5-01525-01575999999ADDGA1005+999999999GD10991+9999999GF100991999999999999999999MA1102305084725REMMET08401/27/25 00:15:01 METAR KEIK 270715Z 00000KT 9SM CLR M15/M16 A3021 RMK AO2 T11521157
0168720534001612025012707357+40017-105050FM-15+1564KEIK V0209999C000052200059N0128755N5-01535-01605999999ADDGA1005+999999999GD10991+9999999GF100991999999999999999999MA1102305084725REMMET08401/27/25 00:35:01 METAR KEIK 270735Z 00000KT 8SM CLR M15/M16 A3021 RMK AO2 T11531160
0168720534001612025012707557+40017-105050FM-15+1564KEIK V0209999C000052200059N0144845N5-01605-01665999999ADDGA1005+999999999GD10991+9999999GF100991999999999999999999MA1102275084695REMMET08401/27/25 00:55:01 METAR KEIK 270755Z 00000KT 9SM CLR M16/M17 A3020 RMK AO2 T11601166
0168720534001612025012708157+40017-105050FM-15+1564KEIK V0209999C000052200059N0144845N5-01705-01795999999ADDGA1005+999999999GD10991+9999999GF100991999999999999999999MA1102275084695REMMET08401/27/25 01:15:01 METAR KEIK 270815Z 00000KT 9SM CLR M17/M18 A3020 RMK AO2 T11701179
0168720534001612025012708357+40017-105050FM-15+1564KEIK V0209999C000052200059N0128755N5-01705-01785999999ADDGA1005+999999999GD10991+9999999GF100991999999999999999999MA1102245084665REMMET08401/27/25 01:35:01 METAR KEIK 270835Z 00000KT 8SM CLR M17/M18 A3019 RMK AO2 T11701178
0168720534001612025012708557+40017-105050FM-15+1564KEIK V0201605N002652200059N0128755N5-01735-01825999999ADDGA1005+999999999GD10991+9999999GF100991999999999999999999MA1102175084615REMMET08401/27/25 01:55:01 METAR KEIK 270855Z 16005KT 8SM CLR M17/M18 A3017 RMK AO2 T11731182
0168720534001612025012709157+40017-105050FM-15+1564KEIK V0209999C000052200059N0128755N5-01535-01605999999ADDGA1005+999999999GD10991+9999999GF100991999999999999999999MA1102175084615REMMET08401/27/25 02:15:01 METAR KEIK 270915Z 00000KT 8SM CLR M15/M16 A3017 RMK AO2 T11531160
0168720534001612025012709357+40017-105050FM-15+1564KEIK V0201205N001552200059N0112655N5-01595-01675999999ADDGA1005+999999999GD10991+9999999GF100991999999999999999999MA1102135084585REMMET08401/27/25 02:35:01 METAR KEIK 270935Z 12003KT 7SM CLR M16/M17 A3016 RMK AO2 T11591167
0168720534001612025012709557+40017-105050FM-15+1564KEIK V0209999C000052200059N0128755N5-01615-01705999999ADDGA1005+999999999GD10991+9999999GF100991999999999999999999MA1102075084525REMMET08401/27/25 02:55:01 METAR KEIK 270955Z 00000KT 8SM CLR M16/M17 A3014 RMK AO2 T11611170
0168720534001612025012710157+40017-105050FM-15+1564KEIK V0209999C000052200059N0144845N5-01675-01775999999ADDGA1005+999999999GD10991+9999999GF100991999999999999999999MA1102075084525REMMET08401/27/25 03:15:01 METAR KEIK 271015Z 00000KT 9SM CLR M17/M18 A3014 RMK AO2 T11671177
0168720534001612025012710357+40017-105050FM-15+1564KEIK V0202305N001552200059N0144845N5-01625-01715999999ADDGA1005+999999999GD10991+9999999GF100991999999999999999999MA1102035084495REMMET08401/27/25 03:35:01 METAR KEIK 271035Z 23003KT 9SM CLR M16/M17 A3013 RMK AO2 T11621171
0168720534001612025012710557+40017-105050FM-15+1564KEIK V0209999C000052200059N0144845N5-01665-01765999999ADDGA1005+999999999GD10991+9999999GF100991999999999999999999MA1102005084465REMMET08401/27/25 03:55:01 METAR KEIK 271055Z 00000KT 9SM CLR M17/M18 A3012 RMK AO2 T11661176
0168720534001612025012711157+40017-105050FM-15+1564KEIK V0209999C000052200059N0144845N5-01595-01695999999ADDGA1005+999999999GD10991+9999999GF100991999999999999999999MA1101965084435REMMET08401/27/25 04:15:01 METAR KEIK 271115Z 00000KT 9SM CLR M16/M17 A3011 RMK AO2 T11591169
0168720534001612025012711357+40017-105050FM-15+1564KEIK V0209999C000052200059N0144845N5-01735-01845999999ADDGA1005+999999999GD10991+9999999GF100991999999999999999999MA1101965084435REMMET08401/27/25 04:35:01 METAR KEIK 271135Z 00000KT 9SM CLR M17/M18 A3011 RMK AO2 T11731184
0168720534001612025012711557+40017-105050FM-15+1564KEIK V0209999C000052200059N0128755N5-01715-01815999999ADDGA1005+999999999GD10991+9999999GF100991999999999999999999MA1101965084435REMMET08401/27/25 04:55:01 METAR KEIK 271155Z 00000KT 8SM CLR M17/M18 A3011 RMK AO2 T11711181
0168720534001612025012712157+40017-105050FM-15+1564KEIK V0209999C000052200059N0144845N5-01755-01865999999ADDGA1005+999999999GD10991+9999999GF100991999999999999999999MA1101965084435REMMET08401/27/25 05:15:01 METAR KEIK 271215Z 00000KT 9SM CLR M18/M19 A3011 RMK AO2 T11751186
0168720534001612025012712357+40017-105050FM-15+1564KEIK V0209999C000052200059N0144845N5-01785-01895999999ADDGA1005+999999999GD10991+9999999GF100991999999999999999999MA1101965084435REMMET08401/27/25 05:35:01 METAR KEIK 271235Z 00000KT 9SM CLR M18/M19 A3011 RMK AO2 T11781189
0168720534001612025012712557+40017-105050FM-15+1564KEIK V0209999C000052200059N0128755N5-01835-01945999999ADDGA1005+999999999GD10991+9999999GF100991999999999999999999MA1102005084465REMMET08401/27/25 05:55:01 METAR KEIK 271255Z 00000KT 8SM CLR M18/M19 A3012 RMK AO2 T11831194
0168720534001612025012713157+40017-105050FM-15+1564KEIK V0209999C000052200059N0128755N5-01825-01935999999ADDGA1005+999999999GD10991+9999999GF100991999999999999999999MA1102005084465REMMET08401/27/25 06:15:01 METAR KEIK 271315Z 00000KT 8SM CLR M18/M19 A3012 RMK AO2 T11821193
0168720534001612025012713357+40017-105050FM-15+1564KEIK V0209999C000052200059N0144845N5-01745-01855999999ADDGA1005+999999999GD10991+9999999GF100991999999999999999999MA1102005084465REMMET08401/27/25 06:35:01 METAR KEIK 271335Z 00000KT 9SM CLR M17/M18 A3012 RMK AO2 T11741185
0168720534001612025012713557+40017-105050FM-15+1564KEIK V0209999C000052200059N0128755N5-01795-01895999999ADDGA1005+999999999GD10991+9999999GF100991999999999999999999MA1101965084435REMMET08401/27/25 06:55:01 METAR KEIK 271355Z 00000KT 8SM CLR M18/M19 A3011 RMK AO2 T11791189
0168720534001612025012714157+40017-105050FM-15+1564KEIK V0209999C000052200059N0112655N5-01775-01885999999ADDGA1005+999999999GD10991+9999999GF100991999999999999999999MA1101965084435REMMET08401/27/25 07:15:01 METAR KEIK 271415Z 00000KT 7SM CLR M18/M19 A3011 RMK AO2 T11771188
0168720534001612025012714357+40017-105050FM-15+1564KEIK V0209999C000052200059N0112655N5-01725-01825999999ADDGA1005+999999999GD10991+9999999GF100991999999999999999999MA1101965084435REMMET08401/27/25 07:35:01 METAR KEIK 271435Z 00000KT 7SM CLR M17/M18 A3011 RMK AO2 T11721182
0168720534001612025012714557+40017-105050FM-15+1564KEIK V0209999C000052200059N0128755N5-01565-01655999999ADDGA1005+999999999GD10991+9999999GF100991999999999999999999MA1101965084435REMMET08401/27/25 07:55:01 METAR KEIK 271455Z 00000KT 8SM CLR M16/M16 A3011 RMK AO2 T11561165
0168720534001612025012715157+40017-105050FM-15+1564KEIK V0209999C000052200059N0144845N5-01385-01455999999ADDGA1005+999999999GD10991+9999999GF100991999999999999999999MA1101965084435REMMET08401/27/25 08:15:01 METAR KEIK 271515Z 00000KT 9SM CLR M14/M15 A3011 RMK AO2 T11381145
0168720534001612025012715357+40017-105050FM-15+1564KEIK V0209999C000052200059N0144845N5-01205-01275999999ADDGA1005+999999999GD10991+9999999GF100991999999999999999999MA1101965084435REMMET08401/27/25 08:35:01 METAR KEIK 271535Z 00000KT 9SM CLR M12/M13 A3011 RMK AO2 T11201127
0169720534001612025012715557+40017-105050FM-15+1564KEIK V0202305N001552200059N0160935N5-00905-00965999999ADDGA1005+999999999GD10991+9999999GF100991999999999999999999MA1101965084435REMMET08501/27/25 08:55:01 METAR KEIK 271555Z 23003KT 10SM CLR M09/M10 A3011 RMK AO2 T10901096
0169720534001612025012716157+40017-105050FM-15+1564KEIK V0209999C000052200059N0160935N5-00785-00875999999ADDGA1005+999999999GD10991+9999999GF100991999999999999999999MA1101965084435REMMET08501/27/25 09:15:02 METAR KEIK 271615Z 00000KT 10SM CLR M08/M09 A3011 RMK AO2 T10781087
0169720534001612025012716357+40017-105050FM-15+1564KEIK V0209999C000052200059N0160935N5-00615-00785999999ADDGA1005+999999999GD10991+9999999GF100991999999999999999999MA1101935084405REMMET08501/27/25 09:35:02 METAR KEIK 271635Z 00000KT 10SM CLR M06/M08 A3010 RMK AO2 T10611078
0169720534001612025012716557+40017-105050FM-15+1564KEIK V0209999C000052200059N0160935N5-00385-00675999999ADDGA1005+999999999GD10991+9999999GF100991999999999999999999MA1101935084405REMMET08501/27/25 09:55:02 METAR KEIK 271655Z 00000KT 10SM CLR M04/M07 A3010 RMK AO2 T10381067
0169720534001612025012717157+40017-105050FM-15+1564KEIK V0209999C000052200059N0160935N5-00275-00645999999ADDGA1005+999999999GD10991+9999999GF100991999999999999999999MA1101935084405REMMET08501/27/25 10:15:02 METAR KEIK 271715Z 00000KT 10SM CLR M03/M06 A3010 RMK AO2 T10271064
0169720534001612025012717357+40017-105050FM-15+1564KEIK V0209999C000052200059N0160935N5-00145-00606999999ADDGA1005+999999999GD10991+9999999GF100991999999999999999999MA1101935084405REMMET08501/27/25 10:35:02 METAR KEIK 271735Z 00000KT 10SM CLR M01/M06 A3010 RMK AO2 T10141060
0169720534001612025012717557+40017-105050FM-15+1564KEIK V0209999C000052200059N0160935N5-00015-00675999999ADDGA1005+999999999GD10991+9999999GF100991999999999999999999MA1101905084375REMMET08501/27/25 10:55:02 METAR KEIK 271755Z 00000KT 10SM CLR M00/M07 A3009 RMK AO2 T10011067
0169720534001612025012718157+40017-105050FM-15+1564KEIK V0203205N001552200059N0160935N5-00025-00645999999ADDGA1005+999999999GD10991+9999999GF100991999999999999999999MA1101905084375REMMET08501/27/25 11:15:02 METAR KEIK 271815Z 32003KT 10SM CLR M00/M06 A3009 RMK AO2 T10021064
0168720534001612025012718357+40017-105050FM-15+1564KEIK V0203605N001552200059N0160935N5+00115-00725999999ADDGA1005+999999999GD10991+9999999GF100991999999999999999999MA1101865084345REMMET08401/27/25 11:35:02 METAR KEIK 271835Z 36003KT 10SM CLR 01/M07 A3008 RMK AO2 T00111072
0168720534001612025012718557+40017-105050FM-15+1564KEIK V0203205N002152200059N0160935N5+00105-00645999999ADDGA1005+999999999GD10991+9999999GF100991999999999999999999MA1101835084325REMMET08401/27/25 11:55:02 METAR KEIK 271855Z 32004KT 10SM CLR 01/M06 A3007 RMK AO2 T00101064
0168720534001612025012719157+40017-105050FM-15+1564KEIK V0209999C000052200059N0160935N5+00145-00715999999ADDGA1005+999999999GD10991+9999999GF100991999999999999999999MA1101795084295REMMET08401/27/25 12:15:02 METAR KEIK 271915Z 00000KT 10SM CLR 01/M07 A3006 RMK AO2 T00141071
0168720534001612025012719357+40017-105050FM-15+1564KEIK V0209999C000052200059N0160935N5+00185-00755999999ADDGA1005+999999999GD10991+9999999GF100991999999999999999999MA1101765084265REMMET08401/27/25 12:35:02 METAR KEIK 271935Z 00000KT 10SM CLR 02/M07 A3005 RMK AO2 T00181075
0168720534001612025012719557+40017-105050FM-15+1564KEIK V0203205N001552200059N0160935N5+00235-00805999999ADDGA1005+999999999GD10991+9999999GF100991999999999999999999MA1101765084265REMMET08401/27/25 12:55:02 METAR KEIK 271955Z 32003KT 10SM CLR 02/M08 A3005 RMK AO2 T00231080
0168720534001612025012720157+40017-105050FM-15+1564KEIK V0203505N001552200059N0160935N5+00305-00805999999ADDGA1005+999999999GD10991+9999999GF100991999999999999999999MA1101735084235REMMET08401/27/25 13:15:02 METAR KEIK 272015Z 35003KT 10SM CLR 03/M08 A3004 RMK AO2 T00301080
0168720534001612025012720357+40017-105050FM-15+1564KEIK V0200105N001552200059N0160935N5+00325-00815999999ADDGA1005+999999999GD10991+9999999GF100991999999999999999999MA1101735084235REMMET08401/27/25 13:35:02 METAR KEIK 272035Z 01003KT 10SM CLR 03/M08 A3004 RMK AO2 T00321081
0168720534001612025012720557+40017-105050FM-15+1564KEIK V0209999C000052200059N0160935N5+00365-00835999999ADDGA1005+999999999GD10991+9999999GF100991999999999999999999MA1101695084205REMMET08401/27/25 13:55:02 METAR KEIK 272055Z 00000KT 10SM CLR 04/M08 A3003 RMK AO2 T00361083
0168720534001612025012721157+40017-105050FM-15+1564KEIK V0203205N001552200059N0160935N5+00405-00705999999ADDGA1005+999999999GD10991+9999999GF100991999999999999999999MA1101695084205REMMET08401/27/25 14:15:02 METAR KEIK 272115Z 32003KT 10SM CLR 04/M07 A3003 RMK AO2 T00401070
0168720534001612025012721357+40017-105050FM-15+1564KEIK V0209999C000052200059N0160935N5+00545-00755999999ADDGA1005+999999999GD10991+9999999GF100991999999999999999999MA1101695084205REMMET08401/27/25 14:35:02 METAR KEIK 272135Z 00000KT 10SM CLR 05/M08 A3003 RMK AO2 T00541075
0168720534001612025012721557+40017-105050FM-15+1564KEIK V0209999C000052200059N0160935N5+00455-00685999999ADDGA1005+999999999GD10991+9999999GF100991999999999999999999MA1101665084175REMMET08401/27/25 14:55:02 METAR KEIK 272155Z 00000KT 10SM CLR 04/M07 A3002 RMK AO2 T00451068
0168720534001612025012722157+40017-105050FM-15+1564KEIK V0203205N002152200059N0160935N5+00455-00735999999ADDGA1005+999999999GD10991+9999999GF100991999999999999999999MA1101695084205REMMET08401/27/25 15:15:02 METAR KEIK 272215Z 32004KT 10SM CLR 05/M07 A3003 RMK AO2 T00451073
0168720534001612025012722357+40017-105050FM-15+1564KEIK V0200105N002152200059N0160935N5+00525-00755999999ADDGA1005+999999999GD10991+9999999GF100991999999999999999999MA1101695084205REMMET08401/27/25 15:35:02 METAR KEIK 272235Z 01004KT 10SM CLR 05/M07 A3003 RMK AO2 T00521075
0168720534001612025012722557+40017-105050FM-15+1564KEIK V0203605N002152200059N0160935N5+00445-00795999999ADDGA1005+999999999GD10991+9999999GF100991999999999999999999MA1101735084235REMMET08401/27/25 15:55:02 METAR KEIK 272255Z 36004KT 10SM CLR 04/M08 A3004 RMK AO2 T00441079
0168720534001612025012723157+40017-105050FM-15+1564KEIK V0201005N001552200059N0160935N5+00355-00735999999ADDGA1005+999999999GD10991+9999999GF100991999999999999999999MA1101735084235REMMET08401/27/25 16:15:02 METAR KEIK 272315Z 10003KT 10SM CLR 03/M07 A3004 RMK AO2 T00351073
0168720534001612025012723357+40017-105050FM-15+1564KEIK V0209999C000052200059N0160935N5+00305-00685999999ADDGA1005+999999999GD10991+9999999GF100991999999999999999999MA1101765084265REMMET08401/27/25 16:35:02 METAR KEIK 272335Z 00000KT 10SM CLR 03/M07 A3005 RMK AO2 T00301068
0168720534001612025012723557+40017-105050FM-15+1564KEIK V0209999C000052200059N0160935N5+00035-00655999999ADDGA1005+999999999GD10991+9999999GF100991999999999999999999MA1101765084265REMMET08401/27/25 16:55:02 METAR KEIK 272355Z 00000KT 10SM CLR 00/M06 A3005 RMK AO2 T00031065
0169720534001612025012800157+40017-105050FM-15+1564KEIK V0209999C000052200059N0160935N5-00165-00735999999ADDGA1005+999999999GD10991+9999999GF100991999999999999999999MA1101795084295REMMET08501/27/25 17:15:01 METAR KEIK 280015Z 00000KT 10SM CLR M02/M07 A3006 RMK AO2 T10161073
0169720534001612025012800357+40017-105050FM-15+1564KEIK V0209999C000052200059N0160935N5-00285-00805999999ADDGA1005+999999999GD10991+9999999GF100991999999999999999999MA1101835084325REMMET08501/27/25 17:35:01 METAR KEIK 280035Z 00000KT 10SM CLR M03/M08 A3007 RMK AO2 T10281080
0169720534001612025012800557+40017-105050FM-15+1564KEIK V0209999C000052200059N0160935N5-00515-00865999999ADDGA1005+999999999GD10991+9999999GF100991999999999999999999MA1101865084345REMMET08501/27/25 17:55:01 METAR KEIK 280055Z 00000KT 10SM CLR M05/M09 A3008 RMK AO2 T10511086
0169720534001612025012801157+40017-105050FM-15+1564KEIK V0202305N001552200059N0160935N5-00525-00825999999ADDGA1005+999999999GD10991+9999999GF100991999999999999999999MA1101905084375REMMET08501/27/25 18:15:01 METAR KEIK 280115Z 23003KT 10SM CLR M05/M08 A3009 RMK AO2 T10521082
0169720534001612025012801357+40017-105050FM-15+1564KEIK V0202105N001552200059N0160935N5-00425-00795999999ADDGA1005+999999999GD10991+9999999GF100991999999999999999999MA1101905084375REMMET08501/27/25 18:35:01 METAR KEIK 280135Z 21003KT 10SM CLR M04/M08 A3009 RMK AO2 T10421079
0169720534001612025012801557+40017-105050FM-15+1564KEIK V0209999C000052200059N0160935N5-00555-00835999999ADDGA1005+999999999GD10991+9999999GF100991999999999999999999MA1101935084405REMMET08501/27/25 18:55:01 METAR KEIK 280155Z 00000KT 10SM CLR M06/M08 A3010 RMK AO2 T10551083
0169720534001612025012802157+40017-105050FM-15+1564KEIK V0201805N001552200059N0160935N5-00685-00875999999ADDGA1005+999999999GD10991+9999999GF100991999999999999999999MA1101935084405REMMET08501/27/25 19:15:01 METAR KEIK 280215Z 18003KT 10SM CLR M07/M09 A3010 RMK AO2 T10681087
0169720534001612025012802357+40017-105050FM-15+1564KEIK V0209999C000052200059N0160935N5-00735-00935999999ADDGA1005+999999999GD10991+9999999GF100991999999999999999999MA1101935084405REMMET08501/27/25 19:35:01 METAR KEIK 280235Z 00000KT 10SM CLR M07/M09 A3010 RMK AO2 T10731093
0169720534001612025012802557+40017-105050FM-15+1564KEIK V0201905N002152200059N0160935N5-00875-01005999999ADDGA1005+999999999GD10991+9999999GF100991999999999999999999MA1101935084405REMMET08501/27/25 19:55:01 METAR KEIK 280255Z 19004KT 10SM CLR M09/M10 A3010 RMK AO2 T10871100
0169720534001612025012803157+40017-105050FM-15+1564KEIK V0201905N002152200059N0160935N5-00735-00915999999ADDGA1005+999999999GD10991+9999999GF100991999999999999999999MA1101935084405REMMET08501/27/25 20:15:01 METAR KEIK 280315Z 19004KT 10SM CLR M07/M09 A3010 RMK AO2 T10731091
0169720534001612025012803357+40017-105050FM-15+1564KEIK V0201605N002152200059N0160935N5-00345-00825999999ADDGA1005+999999999GD10991+9999999GF100991999999999999999999MA1101935084405REMMET08501/27/25 20:35:01 METAR KEIK 280335Z 16004KT 10SM CLR M03/M08 A3010 RMK AO2 T10341082
0169720534001612025012803557+40017-105050FM-15+1564KEIK V0209999C000052200059N0160935N5-00255-00965999999ADDGA1005+999999999GD10991+9999999GF100991999999999999999999MA1101935084405REMMET08501/27/25 20:55:01 METAR KEIK 280355Z 00000KT 10SM CLR M03/M10 A3010 RMK AO2 T10251096
0169720534001612025012804157+40017-105050FM-15+1564KEIK V0209999C000052200059N0160935N5-00395-00975999999ADDGA1005+999999999GD10991+9999999GF100991999999999999999999MA1101965084435REMMET08501/27/25 21:15:01 METAR KEIK 280415Z 00000KT 10SM CLR M04/M10 A3011 RMK AO2 T10391097
0169720534001612025012804357+40017-105050FM-15+1564KEIK V0201805N001552200059N0160935N5-00635-01055999999ADDGA1005+999999999GD10991+9999999GF100991999999999999999999MA1101935084405REMMET08501/27/25 21:35:01 METAR KEIK 280435Z 18003KT 10SM CLR M06/M10 A3010 RMK AO2 T10631105
0169720534001612025012804557+40017-105050FM-15+1564KEIK V0209999C000052200059N0160935N5-00815-01095999999ADDGA1005+999999999GD10991+9999999GF100991999999999999999999MA1101965084435REMMET08501/27/25 21:55:01 METAR KEIK 280455Z 00000KT 10SM CLR M08/M11 A3011 RMK AO2 T10811109
0169720534001612025012805157+40017-105050FM-15+1564KEIK V0209999C000052200059N0160935N5-00955-01155999999ADDGA1005+999999999GD10991+9999999GF100991999999999999999999MA1102005084465REMMET08501/27/25 22:15:01 METAR KEIK 280515Z 00000KT 10SM CLR M10/M11 A3012 RMK AO2 T10951115
0168720534001612025012805357+40017-105050FM-15+1564KEIK V0209999C000052200059N0144845N5-00985-01155999999ADDGA1005+999999999GD10991+9999999GF100991999999999999999999MA1102005084465REMMET08401/27/25 22:35:01 METAR KEIK 280535Z 00000KT 9SM CLR M10/M12 A3012 RMK AO2 T10981115
0168720534001612025012805557+40017-105050FM-15+1564KEIK V0203505N001552200059N0144845N5-01045-01215999999ADDGA1005+999999999GD10991+9999999GF100991999999999999999999MA1102035084495REMMET08401/27/25 22:55:01 METAR KEIK 280555Z 35003KT 9SM CLR M10/M12 A3013 RMK AO2 T11041121
0169720534001612025012806157+40017-105050FM-15+1564KEIK V0209999C000052200059N0160935N5-00995-01185999999ADDGA1005+999999999GD10991+9999999GF100991999999999999999999MA1102005084465REMMET08501/27/25 23:15:01 METAR KEIK 280615Z 00000KT 10SM CLR M10/M12 A3012 RMK AO2 T10991118
0169720534001612025012806357+40017-105050FM-15+1564KEIK V0202505N001552200059N0160935N5-01085-01215999999ADDGA1005+999999999GD10991+9999999GF100991999999999999999999MA1102035084495REMMET08501/27/25 23:35:01 METAR KEIK 280635Z 25003KT 10SM CLR M11/M12 A3013 RMK AO2 T11081121
0169720534001612025012806557+40017-105050FM-15+1564KEIK V0209999C000052200059N0160935N5-01095-01225999999ADDGA1005+999999999GD10991+9999999GF100991999999999999999999MA1102005084465REMMET08501/27/25 23:55:01 METAR KEIK 280655Z 00000KT 10SM CLR M11/M12 A3012 RMK AO2 T11091122
0169720534001612025012807157+40017-105050FM-15+1564KEIK V0209999C000052200059N0160935N5-00965-01185999999ADDGA1005+999999999GD10991+9999999GF100991999999999999999999MA1102005084465REMMET08501/28/25 00:15:01 METAR KEIK 280715Z 00000KT 10SM CLR M10/M12 A3012 RMK AO2 T10961118
0169720534001612025012807357+40017-105050FM-15+1564KEIK V0209999C000052200059N0160935N5-01045-01225999999ADDGA1005+999999999GD10991+9999999GF100991999999999999999999MA1102005084465REMMET08501/28/25 00:35:01 METAR KEIK 280735Z 00000KT 10SM CLR M10/M12 A3012 RMK AO2 T11041122
0169720534001612025012807557+40017-105050FM-15+1564KEIK V0202005N001552200059N0160935N5-01105-01275999999ADDGA1005+999999999GD10991+9999999GF100991999999999999999999MA1101965084435REMMET08501/28/25 00:55:01 METAR KEIK 280755Z 20003KT 10SM CLR M11/M13 A3011 RMK AO2 T11101127
0169720534001612025012808157+40017-105050FM-15+1564KEIK V0201805N001552200059N0160935N5-01025-01315999999ADDGA1005+999999999GD10991+9999999GF100991999999999999999999MA1101935084405REMMET08501/28/25 01:15:01 METAR KEIK 280815Z 18003KT 10SM CLR M10/M13 A3010 RMK AO2 T11021131
0169720534001612025012808357+40017-105050FM-15+1564KEIK V0209999C000052200059N0160935N5-01115-01315999999ADDGA1005+999999999GD10991+9999999GF100991999999999999999999MA1101935084405REMMET08501/28/25 01:35:01 METAR KEIK 280835Z 00000KT 10SM CLR M11/M13 A3010 RMK AO2 T11111131
0169720534001612025012808557+40017-105050FM-15+1564KEIK V0201905N001552200059N0160935N5-01165-01325999999ADDGA1005+999999999GD10991+9999999GF100991999999999999999999MA1101905084375REMMET08501/28/25 01:55:01 METAR KEIK 280855Z 19003KT 10SM CLR M12/M13 A3009 RMK AO2 T11161132
0169720534001612025012809157+40017-105050FM-15+1564KEIK V0209999C000052200059N0160935N5-01025-01255999999ADDGA1005+999999999GD10991+9999999GF100991999999999999999999MA1101905084375REMMET08501/28/25 02:15:01 METAR KEIK 280915Z 00000KT 10SM CLR M10/M12 A3009 RMK AO2 T11021125
0169720534001612025012809357+40017-105050FM-15+1564KEIK V0209999C000052200059N0160935N5-01025-01275999999ADDGA1005+999999999GD10991+9999999GF100991999999999999999999MA1101905084375REMMET08501/28/25 02:35:01 METAR KEIK 280935Z 00000KT 10SM CLR M10/M13 A3009 RMK AO2 T11021127
0169720534001612025012809557+40017-105050FM-15+1564KEIK V0209999C000052200059N0160935N5-01145-01335999999ADDGA1005+999999999GD10991+9999999GF100991999999999999999999MA1101905084375REMMET08501/28/25 02:55:01 METAR KEIK 280955Z 00000KT 10SM CLR M11/M13 A3009 RMK AO2 T11141133
0169720534001612025012810157+40017-105050FM-15+1564KEIK V0209999C000052200059N0160935N5-01205-01355999999ADDGA1005+999999999GD10991+9999999GF100991999999999999999999MA1101865084345REMMET08501/28/25 03:15:01 METAR KEIK 281015Z 00000KT 10SM CLR M12/M14 A3008 RMK AO2 T11201135
0169720534001612025012810357+40017-105050FM-15+1564KEIK V0201905N001552200059N0160935N5-01335-01485999999ADDGA1005+999999999GD10991+9999999GF100991999999999999999999MA1101835084325REMMET08501/28/25 03:35:01 METAR KEIK 281035Z 19003KT 10SM CLR M13/M15 A3007 RMK AO2 T11331148
0169720534001612025012810557+40017-105050FM-15+1564KEIK V0209999C000052200059N0160935N5-01285-01455999999ADDGA1005+999999999GD10991+9999999GF100991999999999999999999MA1101835084325REMMET08501/28/25 03:55:01 METAR KEIK 281055Z 00000KT 10SM CLR M13/M15 A3007 RMK AO2 T11281145
0169720534001612025012811157+40017-105050FM-15+1564KEIK V0201805N002652200059N0160935N5-01165-01365999999ADDGA1005+999999999GD10991+9999999GF100991999999999999999999MA1101795084295REMMET08501/28/25 04:15:01 METAR KEIK 281115Z 18005KT 10SM CLR M12/M14 A3006 RMK AO2 T11161136
0169720534001612025012811357+40017-105050FM-15+1564KEIK V0209999C000052200059N0160935N5-00835-01305999999ADDGA1005+999999999GD10991+9999999GF100991999999999999999999MA1101765084265REMMET08501/28/25 04:35:01 METAR KEIK 281135Z 00000KT 10SM CLR M08/M13 A3005 RMK AO2 T10831130
0169720534001612025012811557+40017-105050FM-15+1564KEIK V0209999C000052200059N0160935N5-01055-01375999999ADDGA1005+999999999GD10991+9999999GF100991999999999999999999MA1101765084265REMMET08501/28/25 04:55:01 METAR KEIK 281155Z 00000KT 10SM CLR M11/M14 A3005 RMK AO2 T11051137
0169720534001612025012812157+40017-105050FM-15+1564KEIK V0209999C000052200059N0160935N5-01165-01415999999ADDGA1005+999999999GD10991+9999999GF100991999999999999999999MA1101765084265REMMET08501/28/25 05:15:01 METAR KEIK 281215Z 00000KT 10SM CLR M12/M14 A3005 RMK AO2 T11161141
0169720534001612025012812357+40017-105050FM-15+1564KEIK V0209999C000052200059N0160935N5-01205-01405999999ADDGA1005+999999999GD10991+9999999GF100991999999999999999999MA1101765084265REMMET08501/28/25 05:35:01 METAR KEIK 281235Z 00000KT 10SM CLR M12/M14 A3005 RMK AO2 T11201140
0169720534001612025012812557+40017-105050FM-15+1564KEIK V0209999C000052200059N0160935N5-01175-01415999999ADDGA1005+999999999GD10991+9999999GF100991999999999999999999MA1101765084265REMMET08501/28/25 05:55:01 METAR KEIK 281255Z 00000KT 10SM CLR M12/M14 A3005 RMK AO2 T11171141
0169720534001612025012813157+40017-105050FM-15+1564KEIK V0209999C000052200059N0160935N5-01325-01505999999ADDGA1005+999999999GD10991+9999999GF100991999999999999999999MA1101765084265REMMET08501/28/25 06:15:01 METAR KEIK 281315Z 00000KT 10SM CLR M13/M15 A3005 RMK AO2 T11321150
0169720534001612025012813357+40017-105050FM-15+1564KEIK V0202205N002152200059N0160935N5-01285-01485999999ADDGA1005+999999999GD10991+9999999GF100991999999999999999999MA1101765084265REMMET08501/28/25 06:35:01 METAR KEIK 281335Z 22004KT 10SM CLR M13/M15 A3005 RMK AO2 T11281148
0168720534001612025012813557+40017-105050FM-15+1564KEIK V0209999C000052200059N0144845N5-01315-01515999999ADDGA1005+999999999GD10991+9999999GF100991999999999999999999MA1101795084295REMMET08401/28/25 06:55:01 METAR KEIK 281355Z 00000KT 9SM CLR M13/M15 A3006 RMK AO2 T11311151
0168720534001612025012814157+40017-105050FM-15+1564KEIK V0209999C000052200059N0144845N5-01165-01435999999ADDGA1005+999999999GD10991+9999999GF100991999999999999999999MA1101795084295REMMET08401/28/25 07:15:01 METAR KEIK 281415Z 00000KT 9SM CLR M12/M14 A3006 RMK AO2 T11161143
0168720534001612025012814357+40017-105050FM-15+1564KEIK V0209999C000052200059N0144845N5-01345-01525999999ADDGA1005+999999999GD10991+9999999GF100991999999999999999999MA1101795084295REMMET08401/28/25 07:35:01 METAR KEIK 281435Z 00000KT 9SM CLR M13/M15 A3006 RMK AO2 T11341152
0169720534001612025012814557+40017-105050FM-15+1564KEIK V0209999C000052200059N0160935N5-01125-01425999999ADDGA1005+999999999GD10991+9999999GF100991999999999999999999MA1101795084295REMMET08501/28/25 07:55:01 METAR KEIK 281455Z 00000KT 10SM CLR M11/M14 A3006 RMK AO2 T11121142
0169720534001612025012815157+40017-105050FM-15+1564KEIK V0209999C000052200059N0160935N5-00945-01215999999ADDGA1005+999999999GD10991+9999999GF100991999999999999999999MA1101795084295REMMET08501/28/25 08:15:01 METAR KEIK 281515Z 00000KT 10SM CLR M09/M12 A3006 RMK AO2 T10941121
0169720534001612025012815357+40017-105050FM-15+1564KEIK V0209999C000052200059N0160935N5-00655-01105999999ADDGA1005+999999999GD10991+9999999GF100991999999999999999999MA1101835084325REMMET08501/28/25 08:35:01 METAR KEIK 281535Z 00000KT 10SM CLR M07/M11 A3007 RMK AO2 T10651110
0169720534001612025012815557+40017-105050FM-15+1564KEIK V0209999C000052200059N0160935N5-00575-01125999999ADDGA1005+999999999GD10991+9999999GF100991999999999999999999MA1101835084325REMMET08501/28/25 08:55:01 METAR KEIK 281555Z 00000KT 10SM CLR M06/M11 A3007 RMK AO2 T10571112
0169720534001612025012816157+40017-105050FM-15+1564KEIK V0209999C000052200059N0160935N5-00445-01075999999ADDGA1005+999999999GD10991+9999999GF100991999999999999999999MA1101835084325REMMET08501/28/25 09:15:02 METAR KEIK 281615Z 00000KT 10SM CLR M04/M11 A3007 RMK AO2 T10441107
0169720534001612025012816357+40017-105050FM-15+1564KEIK V0209999C000052200059N0160935N5-00175-01045999999ADDGA1005+999999999GD10991+9999999GF100991999999999999999999MA1101835084325REMMET08501/28/25 09:35:02 METAR KEIK 281635Z 00000KT 10SM CLR M02/M10 A3007 RMK AO2 T10171104
0168720534001612025012816557+40017-105050FM-15+1564KEIK V0209999C000052200059N0160935N5+00175-00915999999ADDGA1005+999999999GD10991+9999999GF100991999999999999999999MA1101865084345REMMET08401/28/25 09:55:02 METAR KEIK 281655Z 00000KT 10SM CLR 02/M09 A3008 RMK AO2 T00171091
0168720534001612025012817157+40017-105050FM-15+1564KEIK V0209999C000052200059N0160935N5+00265-01185999999ADDGA1005+999999999GD10991+9999999GF100991999999999999999999MA1101865084345REMMET08401/28/25 10:15:02 METAR KEIK 281715Z 00000KT 10SM CLR 03/M12 A3008 RMK AO2 T00261118
0168720534001612025012817357+40017-105050FM-15+1564KEIK V0209999C000052200059N0160935N5+00195-01335999999ADDGA1005+999999999GD10991+9999999GF100991999999999999999999MA1101865084345REMMET08401/28/25 10:35:02 METAR KEIK 281735Z 00000KT 10SM CLR 02/M13 A3008 RMK AO2 T00191133
0168720534001612025012817557+40017-105050FM-15+1564KEIK V0209999C000052200059N0160935N5+00485-01305999999ADDGA1005+999999999GD10991+9999999GF100991999999999999999999MA1101835084325REMMET08401/28/25 10:55:02 METAR KEIK 281755Z 00000KT 10SM CLR 05/M13 A3007 RMK AO2 T00481130
0168720534001612025012818157+40017-105050FM-15+1564KEIK V0209999C000052200059N0160935N5+00355-01245999999ADDGA1005+999999999GD10991+9999999GF100991999999999999999999MA1101835084325REMMET08401/28/25 11:15:02 METAR KEIK 281815Z 00000KT 10SM CLR 04/M12 A3007 RMK AO2 T00351124
0168720534001612025012818357+40017-105050FM-15+1564KEIK V0209999C000052200059N0160935N5+00625-01385999999ADDGA1005+999999999GD10991+9999999GF100991999999999999999999MA1101765084265REMMET08401/28/25 11:35:02 METAR KEIK 281835Z 00000KT 10SM CLR 06/M14 A3005 RMK AO2 T00621138
0168720534001612025012818557+40017-105050FM-15+1564KEIK V0209999C000052200059N0160935N5+00705-01175999999ADDGA1005+999999999GD10991+9999999GF100991999999999999999999MA1101735084235REMMET08401/28/25 11:55:02 METAR KEIK 281855Z 00000KT 10SM CLR 07/M12 A3004 RMK AO2 T00701117
0168720534001612025012819157+40017-105050FM-15+1564KEIK V0209999C000052200059N0160935N5+00725-01305999999ADDGA1005+999999999GD10991+9999999GF100991999999999999999999MA1101695084205REMMET08401/28/25 12:15:02 METAR KEIK 281915Z 00000KT 10SM CLR 07/M13 A3003 RMK AO2 T00721130
0168720534001612025012819357+40017-105050FM-15+1564KEIK V0209999C000052200059N0160935N5+00715-01255999999ADDGA1005+999999999GD10991+9999999GF100991999999999999999999MA1101665084175REMMET08401/28/25 12:35:02 METAR KEIK 281935Z 00000KT 10SM CLR 07/M12 A3002 RMK AO2 T00711125
0168720534001612025012819557+40017-105050FM-15+1564KEIK V0209999C000052200059N0160935N5+00615-01285999999ADDGA1005+999999999GD10991+9999999GF100991999999999999999999MA1101635084145REMMET08401/28/25 12:55:02 METAR KEIK 281955Z 00000KT 10SM CLR 06/M13 A3001 RMK AO2 T00611128
0168720534001612025012820157+40017-105050FM-15+1564KEIK V0209999C000052200059N0160935N5+00755-01225999999ADDGA1005+999999999GD10991+9999999GF100991999999999999999999MA1101595084115REMMET08401/28/25 13:15:02 METAR KEIK 282015Z 00000KT 10SM CLR 08/M12 A3000 RMK AO2 T00751122
0168720534001612025012820357+40017-105050FM-15+1564KEIK V0200205N001552200059N0160935N5+00685-01195999999ADDGA1005+999999999GD10991+9999999GF100991999999999999999999MA1101595084115REMMET08401/28/25 13:35:02 METAR KEIK 282035Z 02003KT 10SM CLR 07/M12 A3000 RMK AO2 T00681119
0168720534001612025012820557+40017-105050FM-15+1564KEIK V0203205N002152200059N0160935N5+00675-00975999999ADDGA1005+999999999GD10991+9999999GF100991999999999999999999MA1101565084085REMMET08401/28/25 13:55:02 METAR KEIK 282055Z 32004KT 10SM CLR 07/M10 A2999 RMK AO2 T00671097
0168720534001612025012821157+40017-105050FM-15+1564KEIK V0203505N001552200059N0160935N5+00655-01095999999ADDGA1005+999999999GD10991+9999999GF100991999999999999999999MA1101565084085REMMET08401/28/25 14:15:02 METAR KEIK 282115Z 35003KT 10SM CLR 07/M11 A2999 RMK AO2 T00651109
0168720534001612025012821357+40017-105050FM-15+1564KEIK V0203405N002152200059N0160935N5+00675-01175999999ADDGA1005+999999999GD10991+9999999GF100991999999999999999999MA1101565084085REMMET08401/28/25 14:35:02 METAR KEIK 282135Z 34004KT 10SM CLR 07/M12 A2999 RMK AO2 T00671117
0168720534001612025012821557+40017-105050FM-15+1564KEIK V0203505N002152200059N0160935N5+00675-01105999999ADDGA1005+999999999GD10991+9999999GF100991999999999999999999MA1101565084085REMMET08401/28/25 14:55:02 METAR KEIK 282155Z 35004KT 10SM CLR 07/M11 A2999 RMK AO2 T00671110
0168720534001612025012822157+40017-105050FM-15+1564KEIK V0203205N002152200059N0160935N5+00605-00995999999ADDGA1005+999999999GD10991+9999999GF100991999999999999999999MA1101565084085REMMET08401/28/25 15:15:02 METAR KEIK 282215Z 32004KT 10SM CLR 06/M10 A2999 RMK AO2 T00601099
0168720534001612025012822357+40017-105050FM-15+1564KEIK V0203305N001552200059N0160935N5+00605-01065999999ADDGA1005+999999999GD10991+9999999GF100991999999999999999999MA1101565084085REMMET08401/28/25 15:35:02 METAR KEIK 282235Z 33003KT 10SM CLR 06/M11 A2999 RMK AO2 T00601106
0168720534001612025012822557+40017-105050FM-15+1564KEIK V0203505N001552200059N0160935N5+00585-00985999999ADDGA1005+999999999GD10991+9999999GF100991999999999999999999MA1101565084085REMMET08401/28/25 15:55:02 METAR KEIK 282255Z 35003KT 10SM CLR 06/M10 A2999 RMK AO2 T00581098
0168720534001612025012823157+40017-105050FM-15+1564KEIK V0203505N001552200059N0160935N5+00565-01015999999ADDGA1005+999999999GD10991+9999999GF100991999999999999999999MA1101565084085REMMET08401/28/25 16:15:02 METAR KEIK 282315Z 35003KT 10SM CLR 06/M10 A2999 RMK AO2 T00561101
0168720534001612025012823357+40017-105050FM-15+1564KEIK V0209999C000052200059N0160935N5+00555-01065999999ADDGA1005+999999999GD10991+9999999GF100991999999999999999999MA1101565084085REMMET08401/28/25 16:35:02 METAR KEIK 282335Z 00000KT 10SM CLR 05/M11 A2999 RMK AO2 T00551106
0168720534001612025012823557+40017-105050FM-15+1564KEIK V0209999C000052200059N0160935N5+00495-00985999999ADDGA1005+999999999GD10991+9999999GF100991999999999999999999MA1101565084085REMMET08401/28/25 16:55:02 METAR KEIK 282355Z 00000KT 10SM CLR 05/M10 A2999 RMK AO2 T00491098
0168720534001612025012900157+40017-105050FM-15+1564KEIK V0209999C000052200059N0160935N5+00125-00865999999ADDGA1005+999999999GD10991+9999999GF100991999999999999999999MA1101565084085REMMET08401/28/25 17:15:01 METAR KEIK 290015Z 00000KT 10SM CLR 01/M09 A2999 RMK AO2 T00121086
0169720534001612025012900357+40017-105050FM-15+1564KEIK V0209999C000052200059N0160935N5-00315-00875999999ADDGA1005+999999999GD10991+9999999GF100991999999999999999999MA1101565084085REMMET08501/28/25 17:35:01 METAR KEIK 290035Z 00000KT 10SM CLR M03/M09 A2999 RMK AO2 T10311087
0169720534001612025012900557+40017-105050FM-15+1564KEIK V0209999C000052200059N0160935N5-00335-00875999999ADDGA1005+999999999GD10991+9999999GF100991999999999999999999MA1101595084115REMMET08501/28/25 17:55:01 METAR KEIK 290055Z 00000KT 10SM CLR M03/M09 A3000 RMK AO2 T10331087
0169720534001612025012901157+40017-105050FM-15+1564KEIK V0209999C000052200059N0160935N5-00455-00825999999ADDGA1005+999999999GD10991+9999999GF100991999999999999999999MA1101595084115REMMET08501/28/25 18:15:01 METAR KEIK 290115Z 00000KT 10SM CLR M05/M08 A3000 RMK AO2 T10451082
0169720534001612025012901357+40017-105050FM-15+1564KEIK V0209999C000052200059N0160935N5-00525-00895999999ADDGA1005+999999999GD10991+9999999GF100991999999999999999999MA1101635084145REMMET08501/28/25 18:35:01 METAR KEIK 290135Z 00000KT 10SM CLR M05/M09 A3001 RMK AO2 T10521089
0169720534001612025012901557+40017-105050FM-15+1564KEIK V0209999C000052200059N0160935N5-00435-00945999999ADDGA1005+999999999GD10991+9999999GF100991999999999999999999MA1101665084175REMMET08501/28/25 18:55:01 METAR KEIK 290155Z 00000KT 10SM CLR M04/M09 A3002 RMK AO2 T10431094
0169720534001612025012902157+40017-105050FM-15+1564KEIK V0209999C000052200059N0160935N5-00575-01005999999ADDGA1005+999999999GD10991+9999999GF100991999999999999999999MA1101665084175REMMET08501/28/25 19:15:01 METAR KEIK 290215Z 00000KT 10SM CLR M06/M10 A3002 RMK AO2 T10571100
0169720534001612025012902357+40017-105050FM-15+1564KEIK V0209999C000052200059N0160935N5-00645-00945999999ADDGA1005+999999999GD10991+9999999GF100991999999999999999999MA1101665084175REMMET08501/28/25 19:35:01 METAR KEIK 290235Z 00000KT 10SM CLR M06/M09 A3002 RMK AO2 T10641094
0169720534001612025012902557+40017-105050FM-15+1564KEIK V0209999C000052200059N0160935N5-00635-00985999999ADDGA1005+999999999GD10991+9999999GF100991999999999999999999MA1101695084205REMMET08501/28/25 19:55:01 METAR KEIK 290255Z 00000KT 10SM CLR M06/M10 A3003 RMK AO2 T10631098
0169720534001612025012903157+40017-105050FM-15+1564KEIK V0209999C000052200059N0160935N5-00725-00975999999ADDGA1005+999999999GD10991+9999999GF100991999999999999999999MA1101695084205REMMET08501/28/25 20:15:01 METAR KEIK 290315Z 00000KT 10SM CLR M07/M10 A3003 RMK AO2 T10721097
0169720534001612025012903357+40017-105050FM-15+1564KEIK V0209999C000052200059N0160935N5-00775-00975999999ADDGA1005+999999999GD10991+9999999GF100991999999999999999999MA1101735084235REMMET08501/28/25 20:35:01 METAR KEIK 290335Z 00000KT 10SM CLR M08/M10 A3004 RMK AO2 T10771097
0169720534001612025012903557+40017-105050FM-15+1564KEIK V0209999C000052200059N0160935N5-00655-00985999999ADDGA1005+999999999GD10991+9999999GF100991999999999999999999MA1101735084235REMMET08501/28/25 20:55:01 METAR KEIK 290355Z 00000KT 10SM CLR M06/M10 A3004 RMK AO2 T10651098
0169720534001612025012904157+40017-105050FM-15+1564KEIK V0209999C000052200059N0160935N5-00755-00955999999ADDGA1005+999999999GD10991+9999999GF100991999999999999999999MA1101765084265REMMET08501/28/25 21:15:01 METAR KEIK 290415Z 00000KT 10SM CLR M07/M09 A3005 RMK AO2 T10751095
0169720534001612025012904357+40017-105050FM-15+1564KEIK V0209999C000052200059N0160935N5-00725-00985999999ADDGA1005+999999999GD10991+9999999GF100991999999999999999999MA1101765084265REMMET08501/28/25 21:35:01 METAR KEIK 290435Z 00000KT 10SM CLR M07/M10 A3005 RMK AO2 T10721098
0169720534001612025012904557+40017-105050FM-15+1564KEIK V0209999C000052200059N0160935N5-00765-01025999999ADDGA1005+999999999GD10991+9999999GF100991999999999999999999MA1101795084295REMMET08501/28/25 21:55:01 METAR KEIK 290455Z 00000KT 10SM CLR M08/M10 A3006 RMK AO2 T10761102
0169720534001612025012905157+40017-105050FM-15+1564KEIK V0209999C000052200059N0160935N5-00835-01015999999ADDGA1005+999999999GD10991+9999999GF100991999999999999999999MA1101795084295REMMET08501/28/25 22:15:01 METAR KEIK 290515Z 00000KT 10SM CLR M08/M10 A3006 RMK AO2 T10831101
0169720534001612025012905357+40017-105050FM-15+1564KEIK V0209999C000052200059N0160935N5-00825-01025999999ADDGA1005+999999999GD10991+9999999GF100991999999999999999999MA1101795084295REMMET08501/28/25 22:35:01 METAR KEIK 290535Z 00000KT 10SM CLR M08/M10 A3006 RMK AO2 T10821102
0169720534001612025012905557+40017-105050FM-15+1564KEIK V0209999C000052200059N0160935N5-00845-01035999999ADDGA1005+999999999GD10991+9999999GF100991999999999999999999MA1101795084295REMMET08501/28/25 22:55:01 METAR KEIK 290555Z 00000KT 10SM CLR M08/M10 A3006 RMK AO2 T10841103
0169720534001612025012906157+40017-105050FM-15+1564KEIK V0209999C000052200059N0160935N5-00805-01025999999ADDGA1005+999999999GD10991+9999999GF100991999999999999999999MA1101835084325REMMET08501/28/25 23:15:01 METAR KEIK 290615Z 00000KT 10SM CLR M08/M10 A3007 RMK AO2 T10801102
0169720534001612025012906357+40017-105050FM-15+1564KEIK V0209999C000052200059N0160935N5-00855-01055999999ADDGA1005+999999999GD10991+9999999GF100991999999999999999999MA1101835084325REMMET08501/28/25 23:35:01 METAR KEIK 290635Z 00000KT 10SM CLR M08/M10 A3007 RMK AO2 T10851105
0169720534001612025012906557+40017-105050FM-15+1564KEIK V0209999C000052200059N0160935N5-00845-01045999999ADDGA1005+999999999GD10991+9999999GF100991999999999999999999MA1101795084295REMMET08501/28/25 23:55:01 METAR KEIK 290655Z 00000KT 10SM CLR M08/M10 A3006 RMK AO2 T10841104
0169720534001612025012907157+40017-105050FM-15+1564KEIK V0209999C000052200059N0160935N5-00855-01035999999ADDGA1005+999999999GD10991+9999999GF100991999999999999999999MA1101795084295REMMET08501/29/25 00:15:01 METAR KEIK 290715Z 00000KT 10SM CLR M09/M10 A3006 RMK AO2 T10851103
0169720534001612025012907357+40017-105050FM-15+1564KEIK V0209999C000052200059N0160935N5-00765-00975999999ADDGA1005+999999999GD10991+9999999GF100991999999999999999999MA1101795084295REMMET08501/29/25 00:35:01 METAR KEIK 290735Z 00000KT 10SM CLR M08/M10 A3006 RMK AO2 T10761097
0169720534001612025012907557+40017-105050FM-15+1564KEIK V0209999C000052200059N0160935N5-00905-01065999999ADDGA1005+999999999GD10991+9999999GF100991999999999999999999MA1101795084295REMMET08501/29/25 00:55:01 METAR KEIK 290755Z 00000KT 10SM CLR M09/M11 A3006 RMK AO2 T10901106
0169720534001612025012908157+40017-105050FM-15+1564KEIK V0209999C000052200059N0160935N5-00895-01055999999ADDGA1005+999999999GD10991+9999999GF100991999999999999999999MA1101765084265REMMET08501/29/25 01:15:01 METAR KEIK 290815Z 00000KT 10SM CLR M09/M11 A3005 RMK AO2 T10891105
0169720534001612025012908357+40017-105050FM-15+1564KEIK V0209999C000052200059N0160935N5-00935-01085999999ADDGA1005+999999999GD10991+9999999GF100991999999999999999999MA1101765084265REMMET08501/29/25 01:35:01 METAR KEIK 290835Z 00000KT 10SM CLR M09/M11 A3005 RMK AO2 T10931108
0169720534001612025012908557+40017-105050FM-15+1564KEIK V0209999C000052200059N0160935N5-00825-00995999999ADDGA1005+999999999GD10991+9999999GF100991999999999999999999MA1101765084265REMMET08501/29/25 01:55:01 METAR KEIK 290855Z 00000KT 10SM CLR M08/M10 A3005 RMK AO2 T10821099
0169720534001612025012909157+40017-105050FM-15+1564KEIK V0209999C000052200059N0160935N5-00965-01105999999ADDGA1005+999999999GD10991+9999999GF100991999999999999999999MA1101735084235REMMET08501/29/25 02:15:01 METAR KEIK 290915Z 00000KT 10SM CLR M10/M11 A3004 RMK AO2 T10961110
0169720534001612025012909357+40017-105050FM-15+1564KEIK V0202005N001552200059N0160935N5-01025-01155999999ADDGA1005+999999999GD10991+9999999GF100991999999999999999999MA1101735084235REMMET08501/29/25 02:35:01 METAR KEIK 290935Z 20003KT 10SM CLR M10/M11 A3004 RMK AO2 T11021115
0169720534001612025012909557+40017-105050FM-15+1564KEIK V0209999C000052200059N0160935N5-00955-01075999999ADDGA1005+999999999GD10991+9999999GF100991999999999999999999MA1101695084205REMMET08501/29/25 02:55:01 METAR KEIK 290955Z 00000KT 10SM CLR M10/M11 A3003 RMK AO2 T10951107
0169720534001612025012910157+40017-105050FM-15+1564KEIK V0209999C000052200059N0160935N5-00925-01055999999ADDGA1005+999999999GD10991+9999999GF100991999999999999999999MA1101665084175REMMET08501/29/25 03:15:01 METAR KEIK 291015Z 00000KT 10SM CLR M09/M11 A3002 RMK AO2 T10921105
0169720534001612025012910357+40017-105050FM-15+1564KEIK V0209999C000052200059N0160935N5-00945-01105999999ADDGA1005+999999999GD10991+9999999GF100991999999999999999999MA1101665084175REMMET08501/29/25 03:35:01 METAR KEIK 291035Z 00000KT 10SM CLR M09/M11 A3002 RMK AO2 T10941110
0169720534001612025012910557+40017-105050FM-15+1564KEIK V0209999C000052200059N0160935N5-01015-01145999999ADDGA1005+999999999GD10991+9999999GF100991999999999999999999MA1101665084175REMMET08501/29/25 03:55:01 METAR KEIK 291055Z 00000KT 10SM CLR M10/M11 A3002 RMK AO2 T11011114
0169720534001612025012911157+40017-105050FM-15+1564KEIK V0209999C000052200059N0160935N5-00925-01055999999ADDGA1005+999999999GD10991+9999999GF100991999999999999999999MA1101635084145REMMET08501/29/25 04:15:01 METAR KEIK 291115Z 00000KT 10SM CLR M09/M11 A3001 RMK AO2 T10921105
0169720534001612025012911357+40017-105050FM-15+1564KEIK V0209999C000052200059N0160935N5-00965-01085999999ADDGA1005+999999999GD10991+9999999GF100991999999999999999999MA1101635084145REMMET08501/29/25 04:35:01 METAR KEIK 291135Z 00000KT 10SM CLR M10/M11 A3001 RMK AO2 T10961108
0169720534001612025012911557+40017-105050FM-15+1564KEIK V0209999C000052200059N0160935N5-00945-01065999999ADDGA1005+999999999GD10991+9999999GF100991999999999999999999MA1101635084145REMMET08501/29/25 04:55:01 METAR KEIK 291155Z 00000KT 10SM CLR M09/M11 A3001 RMK AO2 T10941106
0169720534001612025012912157+40017-105050FM-15+1564KEIK V0209999C000052200059N0160935N5-00985-01085999999ADDGA1005+999999999GD10991+9999999GF100991999999999999999999MA1101635084145REMMET08501/29/25 05:15:01 METAR KEIK 291215Z 00000KT 10SM CLR M10/M11 A3001 RMK AO2 T10981108
0169720534001612025012912357+40017-105050FM-15+1564KEIK V0209999C000052200059N0160935N5-01045-01155999999ADDGA1005+999999999GD10991+9999999GF100991999999999999999999MA1101635084145REMMET08501/29/25 05:35:01 METAR KEIK 291235Z 00000KT 10SM CLR M10/M12 A3001 RMK AO2 T11041115
0169720534001612025012912557+40017-105050FM-15+1564KEIK V0209999C000052200059N0160935N5-00995-01105999999ADDGA1005+999999999GD10991+9999999GF100991999999999999999999MA1101635084145REMMET08501/29/25 05:55:01 METAR KEIK 291255Z 00000KT 10SM CLR M10/M11 A3001 RMK AO2 T10991110
0169720534001612025012913157+40017-105050FM-15+1564KEIK V0209999C000052200059N0160935N5-01065-01155999999ADDGA1005+999999999GD10991+9999999GF100991999999999999999999MA1101635084145REMMET08501/29/25 06:15:01 METAR KEIK 291315Z 00000KT 10SM CLR M11/M12 A3001 RMK AO2 T11061115
0169720534001612025012913357+40017-105050FM-15+1564KEIK V0209999C000052200059N0160935N5-01095-01175999999ADDGA1005+999999999GD10991+9999999GF100991999999999999999999MA1101635084145REMMET08501/29/25 06:35:01 METAR KEIK 291335Z 00000KT 10SM CLR M11/M12 A3001 RMK AO2 T11091117
0169720534001612025012913557+40017-105050FM-15+1564KEIK V0209999C000052200059N0160935N5-01115-01195999999ADDGA1005+999999999GD10991+9999999GF100991999999999999999999MA1101635084145REMMET08501/29/25 06:55:01 METAR KEIK 291355Z 00000KT 10SM CLR M11/M12 A3001 RMK AO2 T11111119
0169720534001612025012914157+40017-105050FM-15+1564KEIK V0209999C000052200059N0160935N5-01135-01195999999ADDGA1005+999999999GD10991+9999999GF100991999999999999999999MA1101665084175REMMET08501/29/25 07:15:01 METAR KEIK 291415Z 00000KT 10SM CLR M11/M12 A3002 RMK AO2 T11131119
0169720534001612025012914357+40017-105050FM-15+1564KEIK V0209999C000052200059N0160935N5-01095-01175999999ADDGA1005+999999999GD10991+9999999GF100991999999999999999999MA1101665084175REMMET08501/29/25 07:35:01 METAR KEIK 291435Z 00000KT 10SM CLR M11/M12 A3002 RMK AO2 T11091117
0169720534001612025012914557+40017-105050FM-15+1564KEIK V0209999C000052200059N0160935N5-00915-01075999999ADDGA1005+999999999GD10991+9999999GF100991999999999999999999MA1101665084175REMMET08501/29/25 07:55:01 METAR KEIK 291455Z 00000KT 10SM CLR M09/M11 A3002 RMK AO2 T10911107
0169720534001612025012915157+40017-105050FM-15+1564KEIK V0209999C000052200059N0160935N5-00695-00875999999ADDGA1005+999999999GD10991+9999999GF100991999999999999999999MA1101665084175REMMET08501/29/25 08:15:01 METAR KEIK 291515Z 00000KT 10SM CLR M07/M09 A3002 RMK AO2 T10691087
0169720534001612025012915357+40017-105050FM-15+1564KEIK V0209999C000052200059N0160935N5-00555-00765999999ADDGA1005+999999999GD10991+9999999GF100991999999999999999999MA1101665084175REMMET08501/29/25 08:35:01 METAR KEIK 291535Z 00000KT 10SM CLR M05/M08 A3002 RMK AO2 T10551076
0169720534001612025012915557+40017-105050FM-15+1564KEIK V0209999C000052200059N0160935N5-00435-00665999999ADDGA1005+999999999GD10991+9999999GF100991999999999999999999MA1101665084175REMMET08501/29/25 08:55:01 METAR KEIK 291555Z 00000KT 10SM CLR M04/M07 A3002 RMK AO2 T10431066
0169720534001612025012916157+40017-105050FM-15+1564KEIK V0209999C000052200059N0160935N5-00125-00545999999ADDGA1005+999999999GD10991+9999999GF100991999999999999999999MA1101665084175REMMET08501/29/25 09:15:02 METAR KEIK 291615Z 00000KT 10SM CLR M01/M05 A3002 RMK AO2 T10121054
0169720534001612025012916357+40017-105050FM-15+1564KEIK V0209999C000052200059N0160935N5-00045-00525999999ADDGA1005+999999999GD10991+9999999GF100991999999999999999999MA1101665084175REMMET08501/29/25 09:35:02 METAR KEIK 291635Z 00000KT 10SM CLR M00/M05 A3002 RMK AO2 T10041052
0168720534001612025012916557+40017-105050FM-15+1564KEIK V0209999C000052200059N0160935N5+00095-00595999999ADDGA1005+999999999GD10991+9999999GF100991999999999999999999MA1101665084175REMMET08401/29/25 09:55:02 METAR KEIK 291655Z 00000KT 10SM CLR 01/M06 A3002 RMK AO2 T00091059
0168720534001612025012917157+40017-105050FM-15+1564KEIK V0209999C000052200059N0160935N5+00305-00705999999ADDGA1005+999999999GD10991+9999999GF100991999999999999999999MA1101665084175REMMET08401/29/25 10:15:02 METAR KEIK 291715Z 00000KT 10SM CLR 03/M07 A3002 RMK AO2 T00301070
0168720534001612025012917357+40017-105050FM-15+1564KEIK V0209999C000052200059N0160935N5+00395-00705999999ADDGA1005+999999999GD10991+9999999GF100991999999999999999999MA1101635084145REMMET08401/29/25 10:35:02 METAR KEIK 291735Z 00000KT 10SM CLR 04/M07 A3001 RMK AO2 T00391070
0168720534001612025012917557+40017-105050FM-15+1564KEIK V0209999C000052200059N0160935N5+00505-00665999999ADDGA1005+999999999GD10991+9999999GF100991999999999999999999MA1101635084145REMMET08401/29/25 10:55:02 METAR KEIK 291755Z 00000KT 10SM CLR 05/M07 A3001 RMK AO2 T00501066
0168720534001612025012918157+40017-105050FM-15+1564KEIK V0209999C000052200059N0160935N5+00505-00695999999ADDGA1005+999999999GD10991+9999999GF100991999999999999999999MA1101595084115REMMET08401/29/25 11:15:02 METAR KEIK 291815Z 00000KT 10SM CLR 05/M07 A3000 RMK AO2 T00501069
0168720534001612025012918357+40017-105050FM-15+1564KEIK V0201205N001552200059N0160935N5+00585-00555999999ADDGA1005+999999999GD10991+9999999GF100991999999999999999999MA1101565084085REMMET08401/29/25 11:35:02 METAR KEIK 291835Z 12003KT 10SM CLR 06/M05 A2999 RMK AO2 T00581055
0168720534001612025012918557+40017-105050FM-15+1564KEIK V0201405N001552200059N0160935N5+00665-00705999999ADDGA1005+999999999GD10991+9999999GF100991999999999999999999MA1101495084035REMMET08401/29/25 11:55:02 METAR KEIK 291855Z 14003KT 10SM CLR 07/M07 A2997 RMK AO2 T00661070
0168720534001612025012919157+40017-105050FM-15+1564KEIK V0209999V001552200059N0160935N5+00705-00685999999ADDGA1005+999999999GD10991+9999999GF100991999999999999999999MA1101465084005REMMET08401/29/25 12:15:02 METAR KEIK 291915Z VRB03KT 10SM CLR 07/M07 A2996 RMK AO2 T00701068
0168720534001612025012919357+40017-105050FM-15+1564KEIK V0201405N002152200059N0160935N5+00715-00625999999ADDGA1005+999999999GD10991+9999999GF100991999999999999999999MA1101425083975REMMET08401/29/25 12:35:02 METAR KEIK 291935Z 14004KT 10SM CLR 07/M06 A2995 RMK AO2 T00711062
0168720534001612025012919557+40017-105050FM-15+1564KEIK V0201005N003152200059N0160935N5+00745-00655999999ADDGA1005+999999999GD10991+9999999GF100991999999999999999999MA1101395083945REMMET08401/29/25 12:55:02 METAR KEIK 291955Z 10006KT 10SM CLR 07/M07 A2994 RMK AO2 T00741065
0168720534001612025012920157+40017-105050FM-15+1564KEIK V0201105N001552200059N0160935N5+00765-00655999999ADDGA1005+999999999GD10991+9999999GF100991999999999999999999MA1101355083915REMMET08401/29/25 13:15:02 METAR KEIK 292015Z 11003KT 10SM CLR 08/M06 A2993 RMK AO2 T00761065
0168720534001612025012920357+40017-105050FM-15+1564KEIK V0209999C000052200059N0160935N5+00765-00735999999ADDGA1005+999999999GD10991+9999999GF100991999999999999999999MA1101295083855REMMET08401/29/25 13:35:02 METAR KEIK 292035Z 00000KT 10SM CLR 08/M07 A2991 RMK AO2 T00761073
0168720534001612025012920557+40017-105050FM-15+1564KEIK V0200805N002652200059N0160935N5+00805-00635999999ADDGA1005+999999999GD10991+9999999GF100991999999999999999999MA1101295083855REMMET08401/29/25 13:55:02 METAR KEIK 292055Z 08005KT 10SM CLR 08/M06 A2991 RMK AO2 T00801063
0168720534001612025012921157+40017-105050FM-15+1564KEIK V0200805N002152200059N0160935N5+00815-00685999999ADDGA1005+999999999GD10991+9999999GF100991999999999999999999MA1101255083825REMMET08401/29/25 14:15:02 METAR KEIK 292115Z 08004KT 10SM CLR 08/M07 A2990 RMK AO2 T00811068
0168720534001612025012921357+40017-105050FM-15+1564KEIK V0200505N002152200059N0160935N5+00785-00585999999ADDGA1005+999999999GD10991+9999999GF100991999999999999999999MA1101225083795REMMET08401/29/25 14:35:02 METAR KEIK 292135Z 05004KT 10SM CLR 08/M06 A2989 RMK AO2 T00781058
0168720534001612025012921557+40017-105050FM-15+1564KEIK V0209999C000052200059N0160935N5+00855-00635999999ADDGA1005+999999999GD10991+9999999GF100991999999999999999999MA1101225083795REMMET08401/29/25 14:55:02 METAR KEIK 292155Z 00000KT 10SM CLR 08/M06 A2989 RMK AO2 T00851063
0168720534001612025012922157+40017-105050FM-15+1564KEIK V0200805N001552200059N0160935N5+00835-00585999999ADDGA1005+999999999GD10991+9999999GF100991999999999999999999MA1101195083765REMMET08401/29/25 15:15:02 METAR KEIK 292215Z 08003KT 10SM CLR 08/M06 A2988 RMK AO2 T00831058
0168720534001612025012922357+40017-105050FM-15+1564KEIK V0203405N002152200059N0160935N5+00805-00475999999ADDGA1005+999999999GD10991+9999999GF100991999999999999999999MA1101155083735REMMET08401/29/25 15:35:02 METAR KEIK 292235Z 34004KT 10SM CLR 08/M05 A2987 RMK AO2 T00801047
0168720534001612025012922557+40017-105050FM-15+1564KEIK V0203405N002652200059N0160935N5+00675-00255999999ADDGA1005+999999999GD10991+9999999GF100991999999999999999999MA1101155083735REMMET08401/29/25 15:55:02 METAR KEIK 292255Z 34005KT 10SM CLR 07/M02 A2987 RMK AO2 T00671025
0168720534001612025012923157+40017-105050FM-15+1564KEIK V0203405N002152200059N0160935N5+00645-00345999999ADDGA1005+999999999GD10991+9999999GF100991999999999999999999MA1101155083735REMMET08401/29/25 16:15:02 METAR KEIK 292315Z 34004KT 10SM CLR 06/M03 A2987 RMK AO2 T00641034
0168720534001612025012923357+40017-105050FM-15+1564KEIK V0203505N002652200059N0160935N5+00545-00385999999ADDGA1005+999999999GD10991+9999999GF100991999999999999999999MA1101155083735REMMET08401/29/25 16:35:02 METAR KEIK 292335Z 35005KT 10SM CLR 05/M04 A2987 RMK AO2 T00541038
0168720534001612025012923557+40017-105050FM-15+1564KEIK V0200205N001552200059N0160935N5+00445-00415999999ADDGA1005+999999999GD10991+9999999GF100991999999999999999999MA1101155083735REMMET08401/29/25 16:55:02 METAR KEIK 292355Z 02003KT 10SM CLR 04/M04 A2987 RMK AO2 T00441041
0168720534001612025013000157+40017-105050FM-15+1564KEIK V0209999C000052200059N0160935N5+00295-00385999999ADDGA1005+999999999GD10991+9999999GF100991999999999999999999MA1101125083715REMMET08401/29/25 17:15:01 METAR KEIK 300015Z 00000KT 10SM CLR 03/M04 A2986 RMK AO2 T00291038
0168720534001612025013000357+40017-105050FM-15+1564KEIK V0209999C000052200059N0160935N5+00015-00375999999ADDGA1005+999999999GD10991+9999999GF100991999999999999999999MA1101155083735REMMET08401/29/25 17:35:01 METAR KEIK 300035Z 00000KT 10SM CLR 00/M04 A2987 RMK AO2 T00011037
0169720534001612025013000557+40017-105050FM-15+1564KEIK V0209999C000052200059N0160935N5-00095-00405999999ADDGA1005+999999999GD10991+9999999GF100991999999999999999999MA1101155083735REMMET08501/29/25 17:55:01 METAR KEIK 300055Z 00000KT 10SM CLR M01/M04 A2987 RMK AO2 T10091040
0169720534001612025013001157+40017-105050FM-15+1564KEIK V0209999C000052200059N0160935N5-00205-00425999999ADDGA1005+999999999GD10991+9999999GF100991999999999999999999MA1101155083735REMMET08501/29/25 18:15:01 METAR KEIK 300115Z 00000KT 10SM CLR M02/M04 A2987 RMK AO2 T10201042
0169720534001612025013001357+40017-105050FM-15+1564KEIK V0202205N001552200059N0160935N5-00215-00415999999ADDGA1005+999999999GD10991+9999999GF100991999999999999999999MA1101155083735REMMET08501/29/25 18:35:01 METAR KEIK 300135Z 22003KT 10SM CLR M02/M04 A2987 RMK AO2 T10211041
0213720534001612025013001557+40017-105050FM-15+1564KEIK V0209999C000052200059N0160935N5-00145-00405999999ADDGA1045+021345999GD12991+0213459GE19AGL   +99999+99999GF104995999999021341999999MA1101195083765REMMET08801/29/25 18:55:01 METAR KEIK 300155Z 00000KT 10SM SCT070 M01/M04 A2988 RMK AO2 T10141040EQDD01      0ADE726
0194720534001612025013002157+40017-105050FM-15+1564KEIK V0209999C00005021345MN0160935N5-00215-00345999999ADDGA1075+021345999GD13991+0213459GE19AGL   +99999+99999GF199999999999021341999999MA1101195083765REMMET08801/29/25 19:15:01 METAR KEIK 300215Z 00000KT 10SM BKN070 M02/M03 A2988 RMK AO2 T10211034
0194720534001612025013002357+40017-105050FM-15+1564KEIK V0209999C00005019815MN0160935N5-00155-00285999999ADDGA1085+019815999GD14991+0198159GE19AGL   +99999+99999GF199999999999019811999999MA1101195083765REMMET08801/29/25 19:35:01 METAR KEIK 300235Z 00000KT 10SM OVC065 M02/M03 A2988 RMK AO2 T10151028
0194720534001612025013002557+40017-105050FM-15+1564KEIK V0209999C00005019815MN0160935N5-00095-00295999999ADDGA1085+019815999GD14991+0198159GE19AGL   +99999+99999GF199999999999019811999999MA1101195083765REMMET08801/29/25 19:55:01 METAR KEIK 300255Z 00000KT 10SM OVC065 M01/M03 A2988 RMK AO2 T10091029
0194720534001612025013003157+40017-105050FM-15+1564KEIK V0209999C00005019815MN0160935N5-00065-00255999999ADDGA1085+019815999GD14991+0198159GE19AGL   +99999+99999GF199999999999019811999999MA1101195083765REMMET08801/29/25 20:15:01 METAR KEIK 300315Z 00000KT 10SM OVC065 M01/M02 A2988 RMK AO2 T10061025
0194720534001612025013003357+40017-105050FM-15+1564KEIK V0209999C00005019815MN0160935N5-00035-00225999999ADDGA1085+019815999GD14991+0198159GE19AGL   +99999+99999GF199999999999019811999999MA1101195083765REMMET08801/29/25 20:35:01 METAR KEIK 300335Z 00000KT 10SM OVC065 M00/M02 A2988 RMK AO2 T10031022
0194720534001612025013003557+40017-105050FM-15+1564KEIK V0209999C00005019815MN0160935N5-00075-00235999999ADDGA1085+019815999GD14991+0198159GE19AGL   +99999+99999GF199999999999019811999999MA1101195083765REMMET08801/29/25 20:55:01 METAR KEIK 300355Z 00000KT 10SM OVC065 M01/M02 A2988 RMK AO2 T10071023
0194720534001612025013004157+40017-105050FM-15+1564KEIK V0209999C00005019815MN0160935N5-00035-00225999999ADDGA1085+019815999GD14991+0198159GE19AGL   +99999+99999GF199999999999019811999999MA1101155083735REMMET08801/29/25 21:15:01 METAR KEIK 300415Z 00000KT 10SM OVC065 M00/M02 A2987 RMK AO2 T10031022
0194720534001612025013004357+40017-105050FM-15+1564KEIK V0209999C00005019815MN0160935N5-00095-00215999999ADDGA1085+019815999GD14991+0198159GE19AGL   +99999+99999GF199999999999019811999999MA1101155083735REMMET08801/29/25 21:35:01 METAR KEIK 300435Z 00000KT 10SM OVC065 M01/M02 A2987 RMK AO2 T10091021
0194720534001612025013004557+40017-105050FM-15+1564KEIK V0209999C00005019815MN0160935N5-00135-00285999999ADDGA1085+019815999GD14991+0198159GE19AGL   +99999+99999GF199999999999019811999999MA1101125083715REMMET08801/29/25 21:55:01 METAR KEIK 300455Z 00000KT 10SM OVC065 M01/M03 A2986 RMK AO2 T10131028
0232720534001612025013005157+40017-105050FM-15+1564KEIK V0209999C00005025915MN0160935N5-00235-00335999999ADDGA1025+019815999GA2085+025915999GD11991+0198159GD24991+0259159GE19AGL   +99999+99999GF199999999999019811999999MA1101085083685REMMET09501/29/25 22:15:01 METAR KEIK 300515Z 00000KT 10SM FEW065 OVC085 M02/M03 A2985 RMK AO2 T10231033
0213720534001612025013005357+40017-105050FM-15+1564KEIK V0209999C000052200059N0160935N5-00255-00415999999ADDGA1045+025915999GD12991+0259159GE19AGL   +99999+99999GF104995999999025911999999MA1101085083685REMMET08801/29/25 22:35:01 METAR KEIK 300535Z 00000KT 10SM SCT085 M02/M04 A2985 RMK AO2 T10251041EQDD01      0ADE726
0169720534001612025013005557+40017-105050FM-15+1564KEIK V0209999C000052200059N0160935N5-00285-00465999999ADDGA1005+999999999GD10991+9999999GF100991999999999999999999MA1101085083685REMMET08501/29/25 22:55:01 METAR KEIK 300555Z 00000KT 10SM CLR M03/M05 A2985 RMK AO2 T10281046
0169720534001612025013006157+40017-105050FM-15+1564KEIK V0209999C000052200059N0160935N5-00415-00535999999ADDGA1005+999999999GD10991+9999999GF100991999999999999999999MA1101055083655REMMET08501/29/25 23:15:01 METAR KEIK 300615Z 00000KT 10SM CLR M04/M05 A2984 RMK AO2 T10411053
0169720534001612025013006357+40017-105050FM-15+1564KEIK V0209999C000052200059N0160935N5-00415-00525999999ADDGA1005+999999999GD10991+9999999GF100991999999999999999999MA1101025083625REMMET08501/29/25 23:35:01 METAR KEIK 300635Z 00000KT 10SM CLR M04/M05 A2983 RMK AO2 T10411052
0213720534001612025013006557+40017-105050FM-15+1564KEIK V0209999C000052200059N0160935N5-00515-00585999999ADDGA1045+027435999GD12991+0274359GE19AGL   +99999+99999GF104995999999027431999999MA1101025083625REMMET08801/29/25 23:55:01 METAR KEIK 300655Z 00000KT 10SM SCT090 M05/M06 A2983 RMK AO2 T10511058EQDD01      0ADE726
0194720534001612025013007157+40017-105050FM-15+1564KEIK V0209999C00005024385MN0160935N5-00435-00495999999ADDGA1085+024385999GD14991+0243859GE19AGL   +99999+99999GF199999999999024381999999MA1100985083595REMMET08801/30/25 00:15:01 METAR KEIK 300715Z 00000KT 10SM OVC080 M04/M05 A2982 RMK AO2 T10431049
0232720534001612025013007357+40017-105050FM-15+1564KEIK V0209999C00005042675MN0160935N5-00415-00475999999ADDGA1045+024385999GA2085+042675999GD12991+0243859GD24991+0426759GE19AGL   +99999+99999GF199999999999024381999999MA1100955083565REMMET09501/30/25 00:35:01 METAR KEIK 300735Z 00000KT 10SM SCT080 OVC140 M04/M05 A2981 RMK AO2 T10411047
0232720534001612025013007557+40017-105050FM-15+1564KEIK V0209999C00005039625MN0160935N5-00385-00455999999ADDGA1045+022865999GA2085+039625999GD12991+0228659GD24991+0396259GE19AGL   +99999+99999GF199999999999022861999999MA1100955083565REMMET09501/30/25 00:55:01 METAR KEIK 300755Z 00000KT 10SM SCT075 OVC130 M04/M05 A2981 RMK AO2 T10381045
0194720534001612025013008157+40017-105050FM-15+1564KEIK V0209999C00005022865MN0160935N5-00305-00395999999ADDGA1085+022865999GD14991+0228659GE19AGL   +99999+99999GF199999999999022861999999MA1100885083505REMMET08801/30/25 01:15:01 METAR KEIK 300815Z 00000KT 10SM OVC075 M03/M04 A2979 RMK AO2 T10301039
0232720534001612025013008357+40017-105050FM-15+1564KEIK V0201205N00155022865MN0160935N5-00335-00425999999ADDGA1075+022865999GA2085+042675999GD13991+0228659GD24991+0426759GE19AGL   +99999+99999GF199999999999022861999999MA1100885083505REMMET09501/30/25 01:35:01 METAR KEIK 300835Z 12003KT 10SM BKN075 OVC140 M03/M04 A2979 RMK AO2 T10331042
0232720534001612025013008557+40017-105050FM-15+1564KEIK V0209999C00005042675MN0160935N5-00325-00405999999ADDGA1025+022865999GA2075+042675999GD11991+0228659GD23991+0426759GE19AGL   +99999+99999GF199999999999022861999999MA1100855083475REMMET09501/30/25 01:55:01 METAR KEIK 300855Z 00000KT 10SM FEW075 BKN140 M03/M04 A2978 RMK AO2 T10321040
0213720534001612025013009157+40017-105050FM-15+1564KEIK V0209999C000052200059N0160935N5-00375-00445999999ADDGA1045+042675999GD12991+0426759GE19AGL   +99999+99999GF104995999999042671999999MA1100815083445REMMET08801/30/25 02:15:01 METAR KEIK 300915Z 00000KT 10SM SCT140 M04/M04 A2977 RMK AO2 T10371044EQDD01      0ADE726
0251720534001612025013009357+40017-105050FM-15+1564KEIK V0209999C000052200059N0160935N5-00455-00525999999ADDGA1025+027435999GA2045+042675999GD11991+0274359GD22991+0426759GE19AGL   +99999+99999GF104995999999027431999999MA1100815083445REMMET09501/30/25 02:35:01 METAR KEIK 300935Z 00000KT 10SM FEW090 SCT140 M04/M05 A2977 RMK AO2 T10451052EQDD01      0ADE726
0251720534001612025013009557+40017-105050FM-15+1564KEIK V0209999C000052200059N0160935N5-00475-00535999999ADDGA1045+027435999GA2045+045725999GD12991+0274359GD22991+0457259GE19AGL   +99999+99999GF104995999999027431999999MA1100785083425REMMET09501/30/25 02:55:01 METAR KEIK 300955Z 00000KT 10SM SCT090 SCT150 M05/M05 A2976 RMK AO2 T10471053EQDD01      0ADE726
0232720534001612025013010157+40017-105050FM-15+1564KEIK V0209999C00005045725MN0160935N5-00475-00535999999ADDGA1025+024385999GA2075+045725999GD11991+0243859GD23991+0457259GE19AGL   +99999+99999GF199999999999024381999999MA1100755083395REMMET09501/30/25 03:15:01 METAR KEIK 301015Z 00000KT 10SM FEW080 BKN150 M05/M05 A2975 RMK AO2 T10471053
0232720534001612025013010357+40017-105050FM-15+1564KEIK V0209999C00005045725MN0160935N5-00455-00525999999ADDGA1045+024385999GA2075+045725999GD12991+0243859GD23991+0457259GE19AGL   +99999+99999GF199999999999024381999999MA1100755083395REMMET09501/30/25 03:35:01 METAR KEIK 301035Z 00000KT 10SM SCT080 BKN150 M05/M05 A2975 RMK AO2 T10451052
0241720534001612025013010557+40017-105050FM-15+1564KEIK V0209999C000052200059N0160935N5-00495-00555999999ADDAU147000015AW1121GA1045+021345999GD12991+0213459GE19AGL   +99999+99999GF104995999999021341999999MA1100755083395MV1015REMMET09301/30/25 03:55:01 METAR KEIK 301055Z 00000KT 10SM VCTS SCT070 M05/M05 A2975 RMK AO2 T10491055EQDD01      0ADE726
0194720534001612025013011157+40017-105050FM-15+1564KEIK V0209999C00005021345MN0160935N5-00375-00435999999ADDGA1085+021345999GD14991+0213459GE19AGL   +99999+99999GF199999999999021341999999MA1100715083365REMMET08801/30/25 04:15:01 METAR KEIK 301115Z 00000KT 10SM OVC070 M04/M04 A2974 RMK AO2 T10371043
0194720534001612025013011357+40017-105050FM-15+1564KEIK V0209999C00005019815MN0160935N5-00375-00425999999ADDGA1085+019815999GD14991+0198159GE19AGL   +99999+99999GF199999999999019811999999MA1100715083365REMMET08801/30/25 04:35:01 METAR KEIK 301135Z 00000KT 10SM OVC065 M04/M04 A2974 RMK AO2 T10371042
0194720534001612025013011557+40017-105050FM-15+1564KEIK V0209999C00005018295MN0160935N5-00325-00385999999ADDGA1085+018295999GD14991+0182959GE19AGL   +99999+99999GF199999999999018291999999MA1100715083365REMMET08801/30/25 04:55:01 METAR KEIK 301155Z 00000KT 10SM OVC060 M03/M04 A2974 RMK AO2 T10321038
0194720534001612025013012157+40017-105050FM-15+1564KEIK V0203605N00215018295MN0160935N5-00295-00505999999ADDGA1075+018295999GD13991+0182959GE19AGL   +99999+99999GF199999999999018291999999MA1100715083365REMMET08801/30/25 05:15:01 METAR KEIK 301215Z 36004KT 10SM BKN060 M03/M05 A2974 RMK AO2 T10291050
0232720534001612025013012357+40017-105050FM-15+1564KEIK V0209999C00005033535MN0160935N5-00285-00535999999ADDGA1025+019815999GA2075+033535999GD11991+0198159GD23991+0335359GE19AGL   +99999+99999GF199999999999019811999999MA1100715083365REMMET09501/30/25 05:35:01 METAR KEIK 301235Z 00000KT 10SM FEW065 BKN110 M03/M05 A2974 RMK AO2 T10281053
0232720534001612025013012557+40017-105050FM-15+1564KEIK V0209999C00005036585MN0160935N5-00245-00545999999ADDGA1025+016765999GA2085+036585999GD11991+0167659GD24991+0365859GE19AGL   +99999+99999GF199999999999016761999999MA1100715083365REMMET09501/30/25 05:55:01 METAR KEIK 301255Z 00000KT 10SM FEW055 OVC120 M02/M05 A2974 RMK AO2 T10241054
0194720534001612025013013157+40017-105050FM-15+1564KEIK V0209999C00005033535MN0160935N5-00245-00505999999ADDGA1085+033535999GD14991+0335359GE19AGL   +99999+99999GF199999999999033531999999MA1100755083395REMMET08801/30/25 06:15:01 METAR KEIK 301315Z 00000KT 10SM OVC110 M02/M05 A2975 RMK AO2 T10241050
0194720534001612025013013357+40017-105050FM-15+1564KEIK V0200505N00155033535MN0160935N5-00235-00515999999ADDGA1085+033535999GD14991+0335359GE19AGL   +99999+99999GF199999999999033531999999MA1100755083395REMMET08801/30/25 06:35:01 METAR KEIK 301335Z 05003KT 10SM OVC110 M02/M05 A2975 RMK AO2 T10231051
0206720534001612025013013557+40017-105050FM-15+1564KEIK V0209999C00005033535MN0160935N5-00115-00605999999ADDGA1085+033535999GD14991+0335359GE19AGL   +99999+99999GF199999999999033531999999MA1100785083425REMMET10001/30/25 06:55:01 METAR KEIK 301355Z 00000KT 10SM OVC110 M01/M06 A2976 RMK AO2 LTG DSNT NE T10111060
0194720534001612025013014157+40017-105050FM-15+1564KEIK V0209999C00005033535MN0160935N5-00275-00485999999ADDGA1085+033535999GD14991+0335359GE19AGL   +99999+99999GF199999999999033531999999MA1100785083425REMMET08801/30/25 07:15:01 METAR KEIK 301415Z 00000KT 10SM OVC110 M03/M05 A2976 RMK AO2 T10271048
0201720534001612025013014357+40017-105050FM-15+1564KEIK V0201005N00365036585MN0160935N5-00175-00495999999ADDGA1085+036585999GD14991+0365859GE19AGL   +99999+99999GF199999999999036581999999MA1100855083475REMMET09501/30/25 07:35:01 METAR KEIK 301435Z 10007KT 10SM OVC120 M02/M05 A2978 RMK AO2 PRESRR T10171049
0194720534001612025013014557+40017-105050FM-15+1564KEIK V0209999C00005036585MN0160935N5-00095-00455999999ADDGA1085+036585999GD14991+0365859GE19AGL   +99999+99999GF199999999999036581999999MA1100915083535REMMET08801/30/25 07:55:01 METAR KEIK 301455Z 00000KT 10SM OVC120 M01/M04 A2980 RMK AO2 T10091045
0193720534001612025013015157+40017-105050FM-15+1564KEIK V0201605N00215036585MN0160935N5+00025-00665999999ADDGA1085+036585999GD14991+0365859GE19AGL   +99999+99999GF199999999999036581999999MA1100955083565REMMET08701/30/25 08:15:01 METAR KEIK 301515Z 16004KT 10SM OVC120 00/M07 A2981 RMK AO2 T00021066
0193720534001612025013015357+40017-105050FM-15+1564KEIK V0209999V00155036585MN0160935N5+00055-00695999999ADDGA1085+036585999GD14991+0365859GE19AGL   +99999+99999GF199999999999036581999999MA1100955083565REMMET08701/30/25 08:35:01 METAR KEIK 301535Z VRB03KT 10SM OVC120 01/M07 A2981 RMK AO2 T00051069
0243720534001612025013015557+40017-105050FM-15+1564KEIK V0209999V00155036585MN0048285N5+00115-00685999999ADDAA101000021AU100007015AW1051GA1085+036585999GD14991+0365859GE19AGL   +99999+99999GF199999999999036581999999MA1100985083595MW1055REMMET10301/30/25 08:55:01 METAR KEIK 301555Z VRB03KT 3SM HZ OVC120 01/M07 A2982 RMK AO2 SNE1555 P0000 T00111068
0256720534001612025013016157+40017-105050FM-15+1564KEIK V0209999C00005036585MN0160935N5+00335-00755999999ADDAA101000021GA1075+036585999GA2075+042675999GD13991+0365859GD23991+0426759GE19AGL   +99999+99999GF199999999999036581999999MA1100985083595REMMET10801/30/25 09:15:01 METAR KEIK 301615Z 00000KT 10SM BKN120 BKN140 03/M07 A2982 RMK AO2 SNE1555 P0000 T00331075
0218720534001612025013016357+40017-105050FM-15+1564KEIK V0200605N00215036585MN0160935N5+00365-00725999999ADDAA101000021GA1075+036585999GD13991+0365859GE19AGL   +99999+99999GF199999999999036581999999MA1101025083625REMMET10101/30/25 09:35:01 METAR KEIK 301635Z 06004KT 10SM BKN120 04/M07 A2983 RMK AO2 SNE1555 P0000 T00361072
0250720534001612025013016557+40017-105050FM-15+1564KEIK V0201205N003152200059N0160935N5+00405-00625999999ADDGA1025+036585999GA2045+051825999GD11991+0365859GD22991+0518259GE19AGL   +99999+99999GF104995999999036581999999MA1101085083685REMMET09401/30/25 09:55:01 METAR KEIK 301655Z 12006KT 10SM FEW120 SCT170 04/M06 A2985 RMK AO2 T00401062EQDD01      0ADE726
0231720534001612025013017157+40017-105050FM-15+1564KEIK V0200805N00315039625MN0160935N5+00475-00745999999ADDGA1075+039625999GA2075+051825999GD13991+0396259GD23991+0518259GE19AGL   +99999+99999GF199999999999039621999999MA1101125083715REMMET09401/30/25 10:15:01 METAR KEIK 301715Z 08006KT 10SM BKN130 BKN170 05/M07 A2986 RMK AO2 T00471074
0193720534001612025013017357+40017-105050FM-15+1564KEIK V0201405N00365039625MN0160935N5+00355-00645999999ADDGA1085+039625999GD14991+0396259GE19AGL   +99999+99999GF199999999999039621999999MA1101155083735REMMET08701/30/25 10:35:01 METAR KEIK 301735Z 14007KT 10SM OVC130 04/M06 A2987 RMK AO2 T00351064
0193720534001612025013017557+40017-105050FM-15+1564KEIK V0201205N00265039625MN0160935N5+00385-00685999999ADDGA1085+039625999GD14991+0396259GE19AGL   +99999+99999GF199999999999039621999999MA1101155083735REMMET08701/30/25 10:55:01 METAR KEIK 301755Z 12005KT 10SM OVC130 04/M07 A2987 RMK AO2 T00381068
0193720534001612025013018157+40017-105050FM-15+1564KEIK V0201105N00265039625MN0160935N5+00355-00755999999ADDGA1085+039625999GD14991+0396259GE19AGL   +99999+99999GF199999999999039621999999MA1101195083765REMMET08701/30/25 11:15:01 METAR KEIK 301815Z 11005KT 10SM OVC130 03/M07 A2988 RMK AO2 T00351075
0193720534001612025013018357+40017-105050FM-15+1564KEIK V0201305N00265039625MN0160935N5+00375-00745999999ADDGA1075+039625999GD13991+0396259GE19AGL   +99999+99999GF199999999999039621999999MA1101195083765REMMET08701/30/25 11:35:01 METAR KEIK 301835Z 13005KT 10SM BKN130 04/M07 A2988 RMK AO2 T00371074
0250720534001612025013018557+40017-105050FM-15+1564KEIK V0201405N003152200059N0160935N5+00435-00695999999ADDGA1025+039625999GA2045+048775999GD11991+0396259GD22991+0487759GE19AGL   +99999+99999GF104995999999039621999999MA1101155083735REMMET09401/30/25 11:55:01 METAR KEIK 301855Z 14006KT 10SM FEW130 SCT160 04/M07 A2987 RMK AO2 T00431069EQDD01      0ADE726
0212720534001612025013019157+40017-105050FM-15+1564KEIK V0200905N001552200059N0160935N5+00505-00815999999ADDGA1045+048775999GD12991+0487759GE19AGL   +99999+99999GF104995999999048771999999MA1101155083735REMMET08701/30/25 12:15:01 METAR KEIK 301915Z 09003KT 10SM SCT160 05/M08 A2987 RMK AO2 T00501081EQDD01      0ADE726
0212720534001612025013019357+40017-105050FM-15+1564KEIK V0200605N001552200059N0160935N5+00515-00795999999ADDGA1045+048775999GD12991+0487759GE19AGL   +99999+99999GF104995999999048771999999MA1101155083735REMMET08701/30/25 12:35:01 METAR KEIK 301935Z 06003KT 10SM SCT160 05/M08 A2987 RMK AO2 T00511079EQDD01      0ADE726
0212720534001612025013019557+40017-105050FM-15+1564KEIK V0203105N002652200059N0160935N5+00605-00725999999ADDGA1025+048775999GD11991+0487759GE19AGL   +99999+99999GF102995999999048771999999MA1101155083735REMMET08701/30/25 12:55:01 METAR KEIK 301955Z 31005KT 10SM FEW160 06/M07 A2987 RMK AO2 T00601072EQDD01      0ADE726
0212720534001612025013020157+40017-105050FM-15+1564KEIK V0203105N004152200059N0160935N5+00685-00635999999ADDGA1045+039625999GD12991+0396259GE19AGL   +99999+99999GF104995999999039621999999MA1101125083715REMMET08701/30/25 13:15:01 METAR KEIK 302015Z 31008KT 10SM SCT130 07/M06 A2986 RMK AO2 T00681063EQDD01      0ADE726
0212720534001612025013020357+40017-105050FM-15+1564KEIK V0203205N003652200059N0160935N5+00675-00605999999ADDGA1025+042675999GD11991+0426759GE19AGL   +99999+99999GF102995999999042671999999MA1101155083735REMMET08701/30/25 13:35:01 METAR KEIK 302035Z 32007KT 10SM FEW140 07/M06 A2987 RMK AO2 T00671060EQDD01      0ADE726
0168720534001612025013020557+40017-105050FM-15+1564KEIK V0203205N004152200059N0160935N5+00715-00655999999ADDGA1005+999999999GD10991+9999999GF100991999999999999999999MA1101125083715REMMET08401/30/25 13:55:01 METAR KEIK 302055Z 32008KT 10SM CLR 07/M06 A2986 RMK AO2 T00711065
0212720534001612025013021157+40017-105050FM-15+1564KEIK V0203205N004152200059N0160935N5+00735-00655999999ADDGA1025+048775999GD11991+0487759GE19AGL   +99999+99999GF102995999999048771999999MA1101085083685REMMET08701/30/25 14:15:01 METAR KEIK 302115Z 32008KT 10SM FEW160 07/M06 A2985 RMK AO2 T00731065EQDD01      0ADE726
0168720534001612025013021357+40017-105050FM-15+1564KEIK V0203405N004152200059N0160935N5+00825-00685999999ADDGA1005+999999999GD10991+9999999GF100991999999999999999999MA1101125083715REMMET08401/30/25 14:35:01 METAR KEIK 302135Z 34008KT 10SM CLR 08/M07 A2986 RMK AO2 T00821068
0168720534001612025013021557+40017-105050FM-15+1564KEIK V0203405N003652200059N0160935N5+00865-00675999999ADDGA1005+999999999GD10991+9999999GF100991999999999999999999MA1101125083715REMMET08401/30/25 14:55:01 METAR KEIK 302155Z 34007KT 10SM CLR 09/M07 A2986 RMK AO2 T00861067
0168720534001612025013022157+40017-105050FM-15+1564KEIK V0203605N003152200059N0160935N5+00875-00855999999ADDGA1005+999999999GD10991+9999999GF100991999999999999999999MA1101155083735REMMET08401/30/25 15:15:01 METAR KEIK 302215Z 36006KT 10SM CLR 09/M09 A2987 RMK AO2 T00871085
0168720534001612025013022357+40017-105050FM-15+1564KEIK V0203605N004152200059N0160935N5+00855-00855999999ADDGA1005+999999999GD10991+9999999GF100991999999999999999999MA1101195083765REMMET08401/30/25 15:35:01 METAR KEIK 302235Z 36008KT 10SM CLR 09/M09 A2988 RMK AO2 T00851085
0168720534001612025013022557+40017-105050FM-15+1564KEIK V0203605N003152200059N0160935N5+00835-00825999999ADDGA1005+999999999GD10991+9999999GF100991999999999999999999MA1101195083765REMMET08401/30/25 15:55:01 METAR KEIK 302255Z 36006KT 10SM CLR 08/M08 A2988 RMK AO2 T00831082
0125720534001612025013023154+40017-105050FM-15+156499999V0200101N003112200019N016093199+00801-00881999999ADDGF100991999999999999999999MA1101221999999REMMET072METAR KEIK 302315Z AUTO 01006KT 10SM CLR 08/M09 A2989 RMK AO2 T00801088=
0125720534001612025013023354+40017-105050FM-15+156499999V0200101N003112200019N016093199+00791-00991999999ADDGF100991999999999999999999MA1101251999999REMMET072METAR KEIK 302335Z AUTO 01006KT 10SM CLR 08/M10 A2990 RMK AO2 T00791099=
0125720534001612025013023554+40017-105050FM-15+156499999V0200401N001512200019N016093199+00701-00931999999ADDGF100991999999999999999999MA1101251999999REMMET072METAR KEIK 302355Z AUTO 04003KT 10SM CLR 07/M09 A2990 RMK AO2 T00701093=
0168720534001612025013100157+40017-105050FM-15+1564KEIK V0209999C000052200059N0160935N5+00525-00825999999ADDGA1005+999999999GD10991+9999999GF100991999999999999999999MA1101255083825REMMET08401/30/25 17:15:01 METAR KEIK 310015Z 00000KT 10SM CLR 05/M08 A2990 RMK AO2 T00521082
0168720534001612025013100357+40017-105050FM-15+1564KEIK V0209999C000052200059N0160935N5+00245-00755999999ADDGA1005+999999999GD10991+9999999GF100991999999999999999999MA1101295083855REMMET08401/30/25 17:35:01 METAR KEIK 310035Z 00000KT 10SM CLR 02/M07 A2991 RMK AO2 T00241075
0168720534001612025013100557+40017-105050FM-15+1564KEIK V0209999C000052200059N0160935N5+00275-00855999999ADDGA1005+999999999GD10991+9999999GF100991999999999999999999MA1101295083855REMMET08401/30/25 17:55:01 METAR KEIK 310055Z 00000KT 10SM CLR 03/M09 A2991 RMK AO2 T00271085
0168720534001612025013101157+40017-105050FM-15+1564KEIK V0209999C000052200059N0160935N5+00035-00695999999ADDGA1005+999999999GD10991+9999999GF100991999999999999999999MA1101325083885REMMET08401/30/25 18:15:01 METAR KEIK 310115Z 00000KT 10SM CLR 00/M07 A2992 RMK AO2 T00031069
0168720534001612025013101357+40017-105050FM-15+1564KEIK V0202905N001552200059N0160935N5+00315-01025999999ADDGA1005+999999999GD10991+9999999GF100991999999999999999999MA1101325083885REMMET08401/30/25 18:35:01 METAR KEIK 310135Z 29003KT 10SM CLR 03/M10 A2992 RMK AO2 T00311102
0169720534001612025013101557+40017-105050FM-15+1564KEIK V0209999C000052200059N0160935N5-00015-00875999999ADDGA1005+999999999GD10991+9999999GF100991999999999999999999MA1101355083915REMMET08501/30/25 18:55:01 METAR KEIK 310155Z 00000KT 10SM CLR M00/M09 A2993 RMK AO2 T10011087
0169720534001612025013102157+40017-105050FM-15+1564KEIK V0202105N001552200059N0160935N5-00065-00945999999ADDGA1005+999999999GD10991+9999999GF100991999999999999999999MA1101355083915REMMET08501/30/25 19:15:01 METAR KEIK 310215Z 21003KT 10SM CLR M01/M09 A2993 RMK AO2 T10061094
0169720534001612025013102357+40017-105050FM-15+1564KEIK V0209999C000052200059N0160935N5-00205-00805999999ADDGA1005+999999999GD10991+9999999GF100991999999999999999999MA1101395083945REMMET08501/30/25 19:35:01 METAR KEIK 310235Z 00000KT 10SM CLR M02/M08 A2994 RMK AO2 T10201080
0169720534001612025013102557+40017-105050FM-15+1564KEIK V0201705N001552200059N0160935N5-00295-00905999999ADDGA1005+999999999GD10991+9999999GF100991999999999999999999MA1101425083975REMMET08501/30/25 19:55:01 METAR KEIK 310255Z 17003KT 10SM CLR M03/M09 A2995 RMK AO2 T10291090
0169720534001612025013103157+40017-105050FM-15+1564KEIK V0201605N002152200059N0160935N5-00295-00865999999ADDGA1005+999999999GD10991+9999999GF100991999999999999999999MA1101465084005REMMET08501/30/25 20:15:01 METAR KEIK 310315Z 16004KT 10SM CLR M03/M09 A2996 RMK AO2 T10291086
0169720534001612025013103357+40017-105050FM-15+1564KEIK V0201805N001552200059N0160935N5-00235-00935999999ADDGA1005+999999999GD10991+9999999GF100991999999999999999999MA1101465084005REMMET08501/30/25 20:35:01 METAR KEIK 310335Z 18003KT 10SM CLR M02/M09 A2996 RMK AO2 T10231093
0169720534001612025013103557+40017-105050FM-15+1564KEIK V0209999C000052200059N0160935N5-00285-00935999999ADDGA1005+999999999GD10991+9999999GF100991999999999999999999MA1101465084005REMMET08501/30/25 20:55:01 METAR KEIK 310355Z 00000KT 10SM CLR M03/M09 A2996 RMK AO2 T10281093
0169720534001612025013104157+40017-105050FM-15+1564KEIK V0201805N002152200059N0160935N5-00095-00955999999ADDGA1005+999999999GD10991+9999999GF100991999999999999999999MA1101465084005REMMET08501/30/25 21:15:01 METAR KEIK 310415Z 18004KT 10SM CLR M01/M09 A2996 RMK AO2 T10091095
0169720534001612025013104357+40017-105050FM-15+1564KEIK V0201805N002652200059N0160935N5-00035-01035999999ADDGA1005+999999999GD10991+9999999GF100991999999999999999999MA1101495084035REMMET08501/30/25 21:35:01 METAR KEIK 310435Z 18005KT 10SM CLR M00/M10 A2997 RMK AO2 T10031103
0169720534001612025013104557+40017-105050FM-15+1564KEIK V0209999C000052200059N0160935N5-00295-01055999999ADDGA1005+999999999GD10991+9999999GF100991999999999999999999MA1101525084055REMMET08501/30/25 21:55:01 METAR KEIK 310455Z 00000KT 10SM CLR M03/M11 A2998 RMK AO2 T10291105
0169720534001612025013105157+40017-105050FM-15+1564KEIK V0209999C000052200059N0160935N5-00535-00935999999ADDGA1005+999999999GD10991+9999999GF100991999999999999999999MA1101525084055REMMET08501/30/25 22:15:01 METAR KEIK 310515Z 00000KT 10SM CLR M05/M09 A2998 RMK AO2 T10531093
0169720534001612025013105357+40017-105050FM-15+1564KEIK V0209999C000052200059N0160935N5-00585-00955999999ADDGA1005+999999999GD10991+9999999GF100991999999999999999999MA1101565084085REMMET08501/30/25 22:35:01 METAR KEIK 310535Z 00000KT 10SM CLR M06/M09 A2999 RMK AO2 T10581095
0169720534001612025013105557+40017-105050FM-15+1564KEIK V0202205N001552200059N0160935N5-00695-00955999999ADDGA1005+999999999GD10991+9999999GF100991999999999999999999MA1101565084085REMMET08501/30/25 22:55:01 METAR KEIK 310555Z 22003KT 10SM CLR M07/M09 A2999 RMK AO2 T10691095
0169720534001612025013106157+40017-105050FM-15+1564KEIK V0209999C000052200059N0160935N5-00675-00985999999ADDGA1005+999999999GD10991+9999999GF100991999999999999999999MA1101565084085REMMET08501/30/25 23:15:01 METAR KEIK 310615Z 00000KT 10SM CLR M07/M10 A2999 RMK AO2 T10671098
0169720534001612025013106357+40017-105050FM-15+1564KEIK V0209999C000052200059N0160935N5-00715-01025999999ADDGA1005+999999999GD10991+9999999GF100991999999999999999999MA1101595084115REMMET08501/30/25 23:35:01 METAR KEIK 310635Z 00000KT 10SM CLR M07/M10 A3000 RMK AO2 T10711102
0169720534001612025013106557+40017-105050FM-15+1564KEIK V0202005N002152200059N0160935N5-00675-00975999999ADDGA1005+999999999GD10991+9999999GF100991999999999999999999MA1101565084085REMMET08501/30/25 23:55:01 METAR KEIK 310655Z 20004KT 10SM CLR M07/M10 A2999 RMK AO2 T10671097
002772053400161202501310659O+40017-105050SOD  +1564KEIK V020999999999999999999999999999+99999+99999999999ADDAT1AU03TS  5AT2AU08HZ  5
0169720534001612025013107157+40017-105050FM-15+1564KEIK V0209999C000052200059N0160935N5-00665-01055999999ADDGA1005+999999999GD10991+9999999GF100991999999999999999999MA1101565084085REMMET08501/31/25 00:15:01 METAR KEIK 310715Z 00000KT 10SM CLR M07/M11 A2999 RMK AO2 T10661105
0169720534001612025013107357+40017-105050FM-15+1564KEIK V0209999C000052200059N0160935N5-00695-01065999999ADDGA1005+999999999GD10991+9999999GF100991999999999999999999MA1101565084085REMMET08501/31/25 00:35:01 METAR KEIK 310735Z 00000KT 10SM CLR M07/M11 A2999 RMK AO2 T10691106
0169720534001612025013107557+40017-105050FM-15+1564KEIK V0209999C000052200059N0160935N5-00665-01065999999ADDGA1005+999999999GD10991+9999999GF100991999999999999999999MA1101565084085REMMET08501/31/25 00:55:01 METAR KEIK 310755Z 00000KT 10SM CLR M07/M11 A2999 RMK AO2 T10661106
0169720534001612025013108157+40017-105050FM-15+1564KEIK V0209999C000052200059N0160935N5-00735-01085999999ADDGA1005+999999999GD10991+9999999GF100991999999999999999999MA1101565084085REMMET08501/31/25 01:15:01 METAR KEIK 310815Z 00000KT 10SM CLR M07/M11 A2999 RMK AO2 T10731108
0169720534001612025013108357+40017-105050FM-15+1564KEIK V0209999C000052200059N0160935N5-00745-01135999999ADDGA1005+999999999GD10991+9999999GF100991999999999999999999MA1101565084085REMMET08501/31/25 01:35:01 METAR KEIK 310835Z 00000KT 10SM CLR M07/M11 A2999 RMK AO2 T10741113
0169720534001612025013108557+40017-105050FM-15+1564KEIK V0209999C000052200059N0160935N5-00775-01105999999ADDGA1005+999999999GD10991+9999999GF100991999999999999999999MA1101565084085REMMET08501/31/25 01:55:01 METAR KEIK 310855Z 00000KT 10SM CLR M08/M11 A2999 RMK AO2 T10771110
0169720534001612025013109157+40017-105050FM-15+1564KEIK V0209999C000052200059N0160935N5-00695-01035999999ADDGA1005+999999999GD10991+9999999GF100991999999999999999999MA1101595084115REMMET08501/31/25 02:15:01 METAR KEIK 310915Z 00000KT 10SM CLR M07/M10 A3000 RMK AO2 T10691103
0169720534001612025013109357+40017-105050FM-15+1564KEIK V0209999C000052200059N0160935N5-00815-01085999999ADDGA1005+999999999GD10991+9999999GF100991999999999999999999MA1101595084115REMMET08501/31/25 02:35:01 METAR KEIK 310935Z 00000KT 10SM CLR M08/M11 A3000 RMK AO2 T10811108
0169720534001612025013109557+40017-105050FM-15+1564KEIK V0209999C000052200059N0160935N5-00805-01105999999ADDGA1005+999999999GD10991+9999999GF100991999999999999999999MA1101635084145REMMET08501/31/25 02:55:01 METAR KEIK 310955Z 00000KT 10SM CLR M08/M11 A3001 RMK AO2 T10801110
0169720534001612025013110157+40017-105050FM-15+1564KEIK V0209999C000052200059N0160935N5-00805-01115999999ADDGA1005+999999999GD10991+9999999GF100991999999999999999999MA1101635084145REMMET08501/31/25 03:15:01 METAR KEIK 311015Z 00000KT 10SM CLR M08/M11 A3001 RMK AO2 T10801111
0169720534001612025013110357+40017-105050FM-15+1564KEIK V0209999C000052200059N0160935N5-00795-01115999999ADDGA1005+999999999GD10991+9999999GF100991999999999999999999MA1101635084145REMMET08501/31/25 03:35:01 METAR KEIK 311035Z 00000KT 10SM CLR M08/M11 A3001 RMK AO2 T10791111
0169720534001612025013110557+40017-105050FM-15+1564KEIK V0209999C000052200059N0160935N5-00875-01135999999ADDGA1005+999999999GD10991+9999999GF100991999999999999999999MA1101635084145REMMET08501/31/25 03:55:01 METAR KEIK 311055Z 00000KT 10SM CLR M09/M11 A3001 RMK AO2 T10871113
0169720534001612025013111157+40017-105050FM-15+1564KEIK V0209999C000052200059N0160935N5-00785-01125999999ADDGA1005+999999999GD10991+9999999GF100991999999999999999999MA1101665084175REMMET08501/31/25 04:15:01 METAR KEIK 311115Z 00000KT 10SM CLR M08/M11 A3002 RMK AO2 T10781112
0169720534001612025013111357+40017-105050FM-15+1564KEIK V0209999C000052200059N0160935N5-00815-01125999999ADDGA1005+999999999GD10991+9999999GF100991999999999999999999MA1101665084175REMMET08501/31/25 04:35:01 METAR KEIK 311135Z 00000KT 10SM CLR M08/M11 A3002 RMK AO2 T10811112
0169720534001612025013111557+40017-105050FM-15+1564KEIK V0209999C000052200059N0160935N5-00785-01115999999ADDGA1005+999999999GD10991+9999999GF100991999999999999999999MA1101695084205REMMET08501/31/25 04:55:01 METAR KEIK 311155Z 00000KT 10SM CLR M08/M11 A3003 RMK AO2 T10781111
0169720534001612025013112157+40017-105050FM-15+1564KEIK V0209999C000052200059N0160935N5-00865-01135999999ADDGA1005+999999999GD10991+9999999GF100991999999999999999999MA1101695084205REMMET08501/31/25 05:15:01 METAR KEIK 311215Z 00000KT 10SM CLR M09/M11 A3003 RMK AO2 T10861113
0169720534001612025013112357+40017-105050FM-15+1564KEIK V0209999C000052200059N0160935N5-00895-01155999999ADDGA1005+999999999GD10991+9999999GF100991999999999999999999MA1101735084235REMMET08501/31/25 05:35:01 METAR KEIK 311235Z 00000KT 10SM CLR M09/M11 A3004 RMK AO2 T10891115
0169720534001612025013112557+40017-105050FM-15+1564KEIK V0209999C000052200059N0160935N5-00895-01155999999ADDGA1005+999999999GD10991+9999999GF100991999999999999999999MA1101735084235REMMET08501/31/25 05:55:01 METAR KEIK 311255Z 00000KT 10SM CLR M09/M11 A3004 RMK AO2 T10891115
0169720534001612025013113157+40017-105050FM-15+1564KEIK V0209999C000052200059N0160935N5-00815-01145999999ADDGA1005+999999999GD10991+9999999GF100991999999999999999999MA1101735084235REMMET08501/31/25 06:15:01 METAR KEIK 311315Z 00000KT 10SM CLR M08/M11 A3004 RMK AO2 T10811114
0169720534001612025013113357+40017-105050FM-15+1564KEIK V0209999C000052200059N0160935N5-00805-01125999999ADDGA1005+999999999GD10991+9999999GF100991999999999999999999MA1101765084265REMMET08501/31/25 06:35:01 METAR KEIK 311335Z 00000KT 10SM CLR M08/M11 A3005 RMK AO2 T10801112
0168720534001612025013113557+40017-105050FM-15+1564KEIK V0209999C000052200059N0144845N5-00855-01145999999ADDGA1005+999999999GD10991+9999999GF100991999999999999999999MA1101765084265REMMET08401/31/25 06:55:01 METAR KEIK 311355Z 00000KT 9SM CLR M09/M11 A3005 RMK AO2 T10851114
0168720534001612025013114157+40017-105050FM-15+1564KEIK V0209999C000052200059N0144845N5-00765-01115999999ADDGA1005+999999999GD10991+9999999GF100991999999999999999999MA1101795084295REMMET08401/31/25 07:15:01 METAR KEIK 311415Z 00000KT 9SM CLR M08/M11 A3006 RMK AO2 T10761111
0168720534001612025013114357+40017-105050FM-15+1564KEIK V0209999C000052200059N0144845N5-00685-01145999999ADDGA1005+999999999GD10991+9999999GF100991999999999999999999MA1101795084295REMMET08401/31/25 07:35:01 METAR KEIK 311435Z 00000KT 9SM CLR M07/M11 A3006 RMK AO2 T10681114
0168720534001612025013114557+40017-105050FM-15+1564KEIK V0209999C000052200059N0144845N5-00525-00865999999ADDGA1005+999999999GD10991+9999999GF100991999999999999999999MA1101835084325REMMET08401/31/25 07:55:01 METAR KEIK 311455Z 00000KT 9SM CLR M05/M09 A3007 RMK AO2 T10521086
0169720534001612025013115157+40017-105050FM-15+1564KEIK V0201605N003152200059N0160935N5-00145-00945999999ADDGA1005+999999999GD10991+9999999GF100991999999999999999999MA1101835084325REMMET08501/31/25 08:15:01 METAR KEIK 311515Z 16006KT 10SM CLR M01/M09 A3007 RMK AO2 T10141094
0168720534001612025013115357+40017-105050FM-15+1564KEIK V0201705N002152200059N0160935N5+00145-00875999999ADDGA1005+999999999GD10991+9999999GF100991999999999999999999MA1101835084325REMMET08401/31/25 08:35:01 METAR KEIK 311535Z 17004KT 10SM CLR 01/M09 A3007 RMK AO2 T00141087
0168720534001612025013115557+40017-105050FM-15+1564KEIK V0202005N003152200059N0160935N5+00265-00805999999ADDGA1005+999999999GD10991+9999999GF100991999999999999999999MA1101865084345REMMET08401/31/25 08:55:01 METAR KEIK 311555Z 20006KT 10SM CLR 03/M08 A3008 RMK AO2 T00261080
0168720534001612025013116157+40017-105050FM-15+1564KEIK V0209999C000052200059N0160935N5+00435-00815999999ADDGA1005+999999999GD10991+9999999GF100991999999999999999999MA1101865084345REMMET08401/31/25 09:15:01 METAR KEIK 311615Z 00000KT 10SM CLR 04/M08 A3008 RMK AO2 T00431081
0168720534001612025013116357+40017-105050FM-15+1564KEIK V0209999V002152200059N0160935N5+00585-00965999999ADDGA1005+999999999GD10991+9999999GF100991999999999999999999MA1101865084345REMMET08401/31/25 09:35:01 METAR KEIK 311635Z VRB04KT 10SM CLR 06/M10 A3008 RMK AO2 T00581096
0168720534001612025013116557+40017-105050FM-15+1564KEIK V0201905N003152200059N0160935N5+00695-00895999999ADDGA1005+999999999GD10991+9999999GF100991999999999999999999MA1101865084345REMMET08401/31/25 09:55:01 METAR KEIK 311655Z 19006KT 10SM CLR 07/M09 A3008 RMK AO2 T00691089
0168720534001612025013117157+40017-105050FM-15+1564KEIK V0202205N002652200059N0160935N5+00785-00875999999ADDGA1005+999999999GD10991+9999999GF100991999999999999999999MA1101865084345REMMET08401/31/25 10:15:01 METAR KEIK 311715Z 22005KT 10SM CLR 08/M09 A3008 RMK AO2 T00781087
0168720534001612025013117357+40017-105050FM-15+1564KEIK V0201705N003152200059N0160935N5+00905-01155999999ADDGA1005+999999999GD10991+9999999GF100991999999999999999999MA1101865084345REMMET08401/31/25 10:35:01 METAR KEIK 311735Z 17006KT 10SM CLR 09/M12 A3008 RMK AO2 T00901115
0168720534001612025013117557+40017-105050FM-15+1564KEIK V0201905N002652200059N0160935N5+01015-00985999999ADDGA1005+999999999GD10991+9999999GF100991999999999999999999MA1101835084325REMMET08401/31/25 10:55:01 METAR KEIK 311755Z 19005KT 10SM CLR 10/M10 A3007 RMK AO2 T01011098
0168720534001612025013118157+40017-105050FM-15+1564KEIK V0201805N003152200059N0160935N5+01125-01225999999ADDGA1005+999999999GD10991+9999999GF100991999999999999999999MA1101795084295REMMET08401/31/25 11:15:01 METAR KEIK 311815Z 18006KT 10SM CLR 11/M12 A3006 RMK AO2 T01121122
0168720534001612025013118357+40017-105050FM-15+1564KEIK V0209999V002652200059N0160935N5+01165-01135999999ADDGA1005+999999999GD10991+9999999GF100991999999999999999999MA1101795084295REMMET08401/31/25 11:35:01 METAR KEIK 311835Z VRB05KT 10SM CLR 12/M11 A3006 RMK AO2 T01161113
0167720534001612025013118557+40017-105050FM-15+1564KEIK V0203405N002152200059N0144845N5+00885-00425999999ADDGA1005+999999999GD10991+9999999GF100991999999999999999999MA1101765084265REMMET08301/31/25 11:55:01 METAR KEIK 311855Z 34004KT 9SM CLR 09/M04 A3005 RMK AO2 T00881042
0168720534001612025013119157+40017-105050FM-15+1564KEIK V0203205N002152200059N0160935N5+00935-00465999999ADDGA1005+999999999GD10991+9999999GF100991999999999999999999MA1101695084205REMMET08401/31/25 12:15:01 METAR KEIK 311915Z 32004KT 10SM CLR 09/M05 A3003 RMK AO2 T00931046
0168720534001612025013119357+40017-105050FM-15+1564KEIK V0202905N002652200059N0160935N5+01155-00525999999ADDGA1005+999999999GD10991+9999999GF100991999999999999999999MA1101665084175REMMET08401/31/25 12:35:01 METAR KEIK 311935Z 29005KT 10SM CLR 11/M05 A3002 RMK AO2 T01151052
0168720534001612025013119557+40017-105050FM-15+1564KEIK V0203205N002652200059N0160935N5+01055-00355999999ADDGA1005+999999999GD10991+9999999GF100991999999999999999999MA1101635084145REMMET08401/31/25 12:55:01 METAR KEIK 311955Z 32005KT 10SM CLR 10/M04 A3001 RMK AO2 T01051035
0168720534001612025013120157+40017-105050FM-15+1564KEIK V0203605N002652200059N0160935N5+01025-00535999999ADDGA1005+999999999GD10991+9999999GF100991999999999999999999MA1101635084145REMMET08401/31/25 13:15:01 METAR KEIK 312015Z 36005KT 10SM CLR 10/M05 A3001 RMK AO2 T01021053
0168720534001612025013120357+40017-105050FM-15+1564KEIK V0203605N002152200059N0160935N5+01035-00595999999ADDGA1005+999999999GD10991+9999999GF100991999999999999999999MA1101565084085REMMET08401/31/25 13:35:01 METAR KEIK 312035Z 36004KT 10SM CLR 10/M06 A2999 RMK AO2 T01031059
0142720534001612025013120556+40017-105050FM-15+1564KEIK V0203005N004152200059N0160935N5+00925-00445999999ADDGA1005+999999999GD10991+9999999MA1101595084115REMMET08401/31/25 13:55:01 METAR KEIK 312055Z 30008KT 10SM CLR 09/M04 A3000 RMK AO2 T00921044
0184720534001612025013121154+40017-105050FM-15+156499999V0209999V002112200059N016093199+00931-00541999999ADDGD11991+0762019GE19AGL   +99999+99999GF102995999999076201999999MA1101521999999REMMET075METAR KEIK 312115Z AUTO VRB04KT 10SM FEW250 09/M05 A2998 RMK AO2 T00931054=EQDD01      0ADE726
0184720534001612025013121354+40017-105050FM-15+156499999V0209999C000012200059N016093199+00891-00471999999ADDGD11991+0762019GE19AGL   +99999+99999GF102995999999076201999999MA1101521999999REMMET075METAR KEIK 312135Z AUTO 00000KT 10SM FEW250 09/M05 A2998 RMK AO2 T00891047=EQDD01      0ADE726
0184720534001612025013121554+40017-105050FM-15+156499999V0209999C000012200059N016093199+00851-00391999999ADDGD11991+0762019GE19AGL   +99999+99999GF102995999999076201999999MA1101491999999REMMET075METAR KEIK 312155Z AUTO 00000KT 10SM FEW250 09/M04 A2997 RMK AO2 T00851039=EQDD01      0ADE726
0184720534001612025013122154+40017-105050FM-15+156499999V0202501N002112200059N016093199+00871-00461999999ADDGD11991+0762019GE19AGL   +99999+99999GF102995999999076201999999MA1101521999999REMMET075METAR KEIK 312215Z AUTO 25004KT 10SM FEW250 09/M05 A2998 RMK AO2 T00871046=EQDD01      0ADE726
0184720534001612025013122354+40017-105050FM-15+156499999V0209999V001512200059N016093199+00791-00391999999ADDGD11991+0792519GE19AGL   +99999+99999GF102995999999079251999999MA1101491999999REMMET075METAR KEIK 312235Z AUTO VRB03KT 10SM FEW260 08/M04 A2997 RMK AO2 T00791039=EQDD01      0ADE726
0184720534001612025013122554+40017-105050FM-15+156499999V0209999C000012200059N016093199+01001-00521999999ADDGD11991+0792519GE19AGL   +99999+99999GF102995999999079251999999MA1101491999999REMMET075METAR KEIK 312255Z AUTO 00000KT 10SM FEW260 10/M05 A2997 RMK AO2 T01001052=EQDD01      0ADE726
0125720534001612025013123154+40017-105050FM-15+156499999V0209999C000012200019N016093199+00961-00561999999ADDGF100991999999999999999999MA1101491999999REMMET072METAR KEIK 312315Z AUTO 00000KT 10SM CLR 10/M06 A2997 RMK AO2 T00961056=
0125720534001612025013123354+40017-105050FM-15+156499999V0209999C000012200019N016093199+01031-00511999999ADDGF100991999999999999999999MA1101491999999REMMET072METAR KEIK 312335Z AUTO 00000KT 10SM CLR 10/M05 A2997 RMK AO2 T01031051=
0125720534001612025013123554+40017-105050FM-15+156499999V0209999C000012200019N016093199+00791-00501999999ADDGF100991999999999999999999MA1101461999999REMMET072METAR KEIK 312355Z AUTO 00000KT 10SM CLR 08/M05 A2996 RMK AO2 T00791050=
0125720534001612025020100154+40017-105050FM-15+156499999V0209999C000012200019N016093199+00581-00421999999ADDGF100991999999999999999999MA1101461999999REMMET072METAR KEIK 010015Z AUTO 00000KT 10SM CLR 06/M04 A2996 RMK AO2 T00581042=
0125720534001612025020100354+40017-105050FM-15+156499999V0209999C000012200019N016093199+00461-00391999999ADDGF100991999999999999999999MA1101421999999REMMET072METAR KEIK 010035Z AUTO 00000KT 10SM CLR 05/M04 A2995 RMK AO2 T00461039=
0125720534001612025020100554+40017-105050FM-15+156499999V0201601N003612200019N016093199+00711-00601999999ADDGF100991999999999999999999MA1101391999999REMMET072METAR KEIK 010055Z AUTO 16007KT 10SM CLR 07/M06 A2994 RMK AO2 T00711060=
0125720534001612025020101154+40017-105050FM-15+156499999V0202001N002612200019N016093199+00441-00401999999ADDGF100991999999999999999999MA1101391999999REMMET072METAR KEIK 010115Z AUTO 20005KT 10SM CLR 04/M04 A2994 RMK AO2 T00441040=
0125720534001612025020101354+40017-105050FM-15+156499999V0201801N003612200019N016093199+00581-00451999999ADDGF100991999999999999999999MA1101391999999REMMET072METAR KEIK 010135Z AUTO 18007KT 10SM CLR 06/M04 A2994 RMK AO2 T00581045=
0125720534001612025020101554+40017-105050FM-15+156499999V0201901N003112200019N016093199+00511-00521999999ADDGF100991999999999999999999MA1101391999999REMMET072METAR KEIK 010155Z AUTO 19006KT 10SM CLR 05/M05 A2994 RMK AO2 T00511052=
0184720534001612025020102154+40017-105050FM-15+156499999V0202501N002112200059N016093199+00401-00501999999ADDGD11991+0670619GE19AGL   +99999+99999GF102995999999067061999999MA1101391999999REMMET075METAR KEIK 010215Z AUTO 25004KT 10SM FEW220 04/M05 A2994 RMK AO2 T00401050=EQDD01      0ADE726
0165720534001612025020102354+40017-105050FM-15+156499999V0202301N005110670619N016093199+00581-00681999999ADDGD13991+0670699GE19AGL   +99999+99999GF199999999999067061999999MA1101351999999REMMET075METAR KEIK 010235Z AUTO 23010KT 10SM BKN220 06/M07 A2993 RMK AO2 T00581068=
0165720534001612025020102554+40017-105050FM-15+156499999V0201901N004110670619N016093199+00531-00661999999ADDGD13991+0670699GE19AGL   +99999+99999GF199999999999067061999999MA1101291999999REMMET075METAR KEIK 010255Z AUTO 19008KT 10SM BKN220 05/M07 A2991 RMK AO2 T00531066=
0184720534001612025020103154+40017-105050FM-15+156499999V0202401N008212200059N016093199+00661-00911999999ADDGD11991+0670619GE19AGL   +99999+99999GF102995999999067061999999MA1101291999999REMMET075METAR KEIK 010315Z AUTO 24016KT 10SM FEW220 07/M09 A2991 RMK AO2 T00661091=EQDD01      0ADE726
0147720534001612025020103354+40017-105050FM-15+156499999V0202301N006712200019N016093199+01171-01632999999ADDGF100991999999999999999999MA1101251999999OC101081REMMET086METAR KEIK 010335Z AUTO 23013G21KT 10SM CLR 12/M16 A2990 RMK AO2 WSHFT 0312 T01171163=
0125720534001612025020103554+40017-105050FM-15+156499999V0202301N005712200019N016093199+00871-01251999999ADDGF100991999999999999999999MA1101221999999REMMET072METAR KEIK 010355Z AUTO 23011KT 10SM CLR 09/M12 A2989 RMK AO2 T00871125=
0136720534001612025020104154+40017-105050FM-15+156499999V0202201N004612200019N016093199+00961-01341999999ADDGF100991999999999999999999MA1101221999999OC100981REMMET075METAR KEIK 010415Z AUTO 22009G19KT 10SM CLR 10/M13 A2989 RMK AO2 T00961134=
0125720534001612025020104354+40017-105050FM-15+156499999V0202301N004112200019N016093199+00841-01111999999ADDGF100991999999999999999999MA1101181999999REMMET072METAR KEIK 010435Z AUTO 23008KT 10SM CLR 08/M11 A2988 RMK AO2 T00841111=
0125720534001612025020104554+40017-105050FM-15+156499999V0202401N006212200019N016093199+00981-01541999999ADDGF100991999999999999999999MA1101151999999REMMET072METAR KEIK 010455Z AUTO 24012KT 10SM CLR 10/M15 A2987 RMK AO2 T00981154=
0125720534001612025020105154+40017-105050FM-15+156499999V0202101N003112200019N016093199+00951-01551999999ADDGF100991999999999999999999MA1101151999999REMMET072METAR KEIK 010515Z AUTO 21006KT 10SM CLR 09/M15 A2987 RMK AO2 T00951155=
0125720534001612025020105354+40017-105050FM-15+156499999V0209999C000012200019N016093199+00791-01301999999ADDGF100991999999999999999999MA1101121999999REMMET072METAR KEIK 010535Z AUTO 00000KT 10SM CLR 08/M13 A2986 RMK AO2 T00791130=
0125720534001612025020105554+40017-105050FM-15+156499999V0201701N002112200019N016093199+00341-00841999999ADDGF100991999999999999999999MA1101121999999REMMET072METAR KEIK 010555Z AUTO 17004KT 10SM CLR 03/M08 A2986 RMK AO2 T00341084=
0125720534001612025020106154+40017-105050FM-15+156499999V0203501N002112200019N016093199+00201-00701999999ADDGF100991999999999999999999MA1101151999999REMMET072METAR KEIK 010615Z AUTO 35004KT 10SM CLR 02/M07 A2987 RMK AO2 T00201070=
0125720534001612025020106354+40017-105050FM-15+156499999V0201001N002112200019N016093199+00071-00621999999ADDGF100991999999999999999999MA1101121999999REMMET072METAR KEIK 010635Z AUTO 10004KT 10SM CLR 01/M06 A2986 RMK AO2 T00071062=
0126720534001612025020106554+40017-105050FM-15+156499999V0209999V001512200019N016093199-00031-00591999999ADDGF100991999999999999999999MA1101081999999REMMET073METAR KEIK 010655Z AUTO VRB03KT 10SM CLR M00/M06 A2985 RMK AO2 T10031059=
0169720534001612025020107157+40017-105050FM-15+1564KEIK V0200105V003652200059N0160935N5-00055-00595999999ADDGA1005+999999999GD10991+9999999GF100991999999999999999999MA1101085083685REMMET08502/01/25 00:15:01 METAR KEIK 010715Z 01007KT 10SM CLR M01/M06 A2985 RMK AO2 T10051059
0169720534001612025020107357+40017-105050FM-15+1564KEIK V0209999C000052200059N0160935N5-00025-00635999999ADDGA1005+999999999GD10991+9999999GF100991999999999999999999MA1101025083625REMMET08502/01/25 00:35:01 METAR KEIK 010735Z 00000KT 10SM CLR M00/M06 A2983 RMK AO2 T10021063
0169720534001612025020107557+40017-105050FM-15+1564KEIK V0209999C000052200059N0160935N5-00035-00675999999ADDGA1005+999999999GD10991+9999999GF100991999999999999999999MA1101025083625REMMET08502/01/25 00:55:01 METAR KEIK 010755Z 00000KT 10SM CLR M00/M07 A2983 RMK AO2 T10031067
0169720534001612025020108157+40017-105050FM-15+1564KEIK V0209999C000052200059N0160935N5-00065-00685999999ADDGA1005+999999999GD10991+9999999GF100991999999999999999999MA1101055083655REMMET08502/01/25 01:15:01 METAR KEIK 010815Z 00000KT 10SM CLR M01/M07 A2984 RMK AO2 T10061068
0169720534001612025020108357+40017-105050FM-15+1564KEIK V0202405N002152200059N0160935N5-00145-00655999999ADDGA1005+999999999GD10991+9999999GF100991999999999999999999MA1101055083655REMMET08502/01/25 01:35:01 METAR KEIK 010835Z 24004KT 10SM CLR M01/M06 A2984 RMK AO2 T10141065
0168720534001612025020108557+40017-105050FM-15+1564KEIK V0209999C000052200059N0160935N5+00055-00765999999ADDGA1005+999999999GD10991+9999999GF100991999999999999999999MA1101025083625REMMET08402/01/25 01:55:01 METAR KEIK 010855Z 00000KT 10SM CLR 00/M08 A2983 RMK AO2 T00051076
0213720534001612025020109157+40017-105050FM-15+1564KEIK V0201205N002652200059N0160935N5-00225-00675999999ADDGA1025+036585999GD11991+0365859GE19AGL   +99999+99999GF102995999999036581999999MA1101025083625REMMET08802/01/25 02:15:01 METAR KEIK 010915Z 12005KT 10SM FEW120 M02/M07 A2983 RMK AO2 T10221067EQDD01      0ADE726
0213720534001612025020109357+40017-105050FM-15+1564KEIK V0209999C000052200059N0160935N5-00225-00675999999ADDGA1045+039625999GD12991+0396259GE19AGL   +99999+99999GF104995999999039621999999MA1101025083625REMMET08802/01/25 02:35:01 METAR KEIK 010935Z 00000KT 10SM SCT130 M02/M07 A2983 RMK AO2 T10221067EQDD01      0ADE726
0213720534001612025020109557+40017-105050FM-15+1564KEIK V0201205N002152200059N0160935N5-00265-00605999999ADDGA1025+036585999GD11991+0365859GE19AGL   +99999+99999GF102995999999036581999999MA1101025083625REMMET08802/01/25 02:55:01 METAR KEIK 010955Z 12004KT 10SM FEW120 M03/M06 A2983 RMK AO2 T10261060EQDD01      0ADE726
0212720534001612025020110157+40017-105050FM-15+1564KEIK V0209999V001552200059N0160935N5+00155-00735999999ADDGA1025+036585999GD11991+0365859GE19AGL   +99999+99999GF102995999999036581999999MA1100985083595REMMET08702/01/25 03:15:01 METAR KEIK 011015Z VRB03KT 10SM FEW120 02/M07 A2982 RMK AO2 T00151073EQDD01      0ADE726
0213720534001612025020110357+40017-105050FM-15+1564KEIK V0200905N003652200059N0160935N5-00035-00685999999ADDGA1045+036585999GD12991+0365859GE19AGL   +99999+99999GF104995999999036581999999MA1100985083595REMMET08802/01/25 03:35:01 METAR KEIK 011035Z 09007KT 10SM SCT120 M00/M07 A2982 RMK AO2 T10031068EQDD01      0ADE726
0212720534001612025020110557+40017-105050FM-15+1564KEIK V0201005N003152200059N0160935N5+00045-00735999999ADDGA1025+036585999GD11991+0365859GE19AGL   +99999+99999GF102995999999036581999999MA1100985083595REMMET08702/01/25 03:55:01 METAR KEIK 011055Z 10006KT 10SM FEW120 00/M07 A2982 RMK AO2 T00041073EQDD01      0ADE726
0168720534001612025020111157+40017-105050FM-15+1564KEIK V0209999V001552200059N0160935N5+00365-00985999999ADDGA1005+999999999GD10991+9999999GF100991999999999999999999MA1100985083595REMMET08402/01/25 04:15:01 METAR KEIK 011115Z VRB03KT 10SM CLR 04/M10 A2982 RMK AO2 T00361098
0168720534001612025020111357+40017-105050FM-15+1564KEIK V0209999C000052200059N0160935N5+00165-00815999999ADDGA1005+999999999GD10991+9999999GF100991999999999999999999MA1100985083595REMMET08402/01/25 04:35:01 METAR KEIK 011135Z 00000KT 10SM CLR 02/M08 A2982 RMK AO2 T00161081
0168720534001612025020111557+40017-105050FM-15+1564KEIK V0200305N002652200059N0160935N5+00365-00915999999ADDGA1005+999999999GD10991+9999999GF100991999999999999999999MA1101025083625REMMET08402/01/25 04:55:01 METAR KEIK 011155Z 03005KT 10SM CLR 04/M09 A2983 RMK AO2 T00361091
0168720534001612025020112157+40017-105050FM-15+1564KEIK V0209999V002152200059N0160935N5+00485-00995999999ADDGA1005+999999999GD10991+9999999GF100991999999999999999999MA1101025083625REMMET08402/01/25 05:15:01 METAR KEIK 011215Z VRB04KT 10SM CLR 05/M10 A2983 RMK AO2 T00481099
0212720534001612025020112357+40017-105050FM-15+1564KEIK V0200305N002152200059N0160935N5+00595-01065999999ADDGA1025+073155999GD11991+0731559GE19AGL   +99999+99999GF102995999999073151999999MA1101055083655REMMET08702/01/25 05:35:01 METAR KEIK 011235Z 03004KT 10SM FEW240 06/M11 A2984 RMK AO2 T00591106EQDD01      0ADE726
0212720534001612025020112557+40017-105050FM-15+1564KEIK V0200505N004152200059N0160935N5+00505-00935999999ADDGA1025+073155999GD11991+0731559GE19AGL   +99999+99999GF102995999999073151999999MA1101125083715REMMET08702/01/25 05:55:01 METAR KEIK 011255Z 05008KT 10SM FEW240 05/M09 A2986 RMK AO2 T00501093EQDD01      0ADE726
0168720534001612025020113157+40017-105050FM-15+1564KEIK V0201105N001552200059N0160935N5+00285-00855999999ADDGA1005+999999999GD10991+9999999GF100991999999999999999999MA1101155083735REMMET08402/01/25 06:15:01 METAR KEIK 011315Z 11003KT 10SM CLR 03/M09 A2987 RMK AO2 T00281085
0168720534001612025020113357+40017-105050FM-15+1564KEIK V0201605N003152200059N0160935N5+00275-00835999999ADDGA1005+999999999GD10991+9999999GF100991999999999999999999MA1101195083765REMMET08402/01/25 06:35:01 METAR KEIK 011335Z 16006KT 10SM CLR 03/M08 A2988 RMK AO2 T00271083
0168720534001612025020113557+40017-105050FM-15+1564KEIK V0201305N005152200059N0160935N5+00655-01115999999ADDGA1005+999999999GD10991+9999999GF100991999999999999999999MA1101155083735REMMET08402/01/25 06:55:01 METAR KEIK 011355Z 13010KT 10SM CLR 06/M11 A2987 RMK AO2 T00651111
0168720534001612025020114157+40017-105050FM-15+1564KEIK V0209999V003152200059N0160935N5+01075-00675999999ADDGA1005+999999999GD10991+9999999GF100991999999999999999999MA1101125083715REMMET08402/01/25 07:15:01 METAR KEIK 011415Z VRB06KT 10SM CLR 11/M07 A2986 RMK AO2 T01071067
0168720534001612025020114357+40017-105050FM-15+1564KEIK V0209999V002652200059N0160935N5+01015-00605999999ADDGA1005+999999999GD10991+9999999GF100991999999999999999999MA1101125083715REMMET08402/01/25 07:35:01 METAR KEIK 011435Z VRB05KT 10SM CLR 10/M06 A2986 RMK AO2 T01011060
0179720534001612025020114557+40017-105050FM-15+1564KEIK V0202705N007252200059N0160935N5+00885-00525999999ADDGA1005+999999999GD10991+9999999GF100991999999999999999999MA1101085083685OC101035REMMET08702/01/25 07:55:01 METAR KEIK 011455Z 27014G20KT 10SM CLR 09/M05 A2985 RMK AO2 T00881052
0197720534001612025020115157+40017-105050FM-15+1564KEIK V0202705N008252200059N0160935N5+01015-00545999999ADDGA1005+999999999GD10991+9999999GF100991999999999999999999MA1101085083685OC101295REMMET10502/01/25 08:15:01 METAR KEIK 011515Z 27016G25KT 10SM CLR 10/M05 A2985 RMK AO2 PK WND 25028/1459 T01011054
0197720534001612025020115357+40017-105050FM-15+1564KEIK V0202905N006252200059N0160935N5+00825-00555999999ADDGA1005+999999999GD10991+9999999GF100991999999999999999999MA1101125083715OC101085REMMET10502/01/25 08:35:01 METAR KEIK 011535Z 29012G21KT 10SM CLR 08/M05 A2986 RMK AO2 PK WND 25028/1459 T00821055
0179720534001612025020115557+40017-105050FM-15+1564KEIK V0202805N008852200059N0160935N5+00955-00525999999ADDGA1005+999999999GD10991+9999999GF100991999999999999999999MA1101125083715OC101085REMMET08702/01/25 08:55:01 METAR KEIK 011555Z 28017G21KT 10SM CLR 09/M05 A2986 RMK AO2 T00951052
0168720534001612025020116157+40017-105050FM-15+1564KEIK V0201805V004152200059N0160935N5+00945-00625999999ADDGA1005+999999999GD10991+9999999GF100991999999999999999999MA1101125083715REMMET08402/01/25 09:15:01 METAR KEIK 011615Z 18008KT 10SM CLR 09/M06 A2986 RMK AO2 T00941062
0168720534001612025020116357+40017-105050FM-15+1564KEIK V0209999V002152200059N0160935N5+00975-00745999999ADDGA1005+999999999GD10991+9999999GF100991999999999999999999MA1101125083715REMMET08402/01/25 09:35:01 METAR KEIK 011635Z VRB04KT 10SM CLR 10/M07 A2986 RMK AO2 T00971074
0168720534001612025020116557+40017-105050FM-15+1564KEIK V0201705N003652200059N0160935N5+00935-00705999999ADDGA1005+999999999GD10991+9999999GF100991999999999999999999MA1101155083735REMMET08402/01/25 09:55:01 METAR KEIK 011655Z 17007KT 10SM CLR 09/M07 A2987 RMK AO2 T00931070
0168720534001612025020117157+40017-105050FM-15+1564KEIK V0209999V002152200059N0160935N5+00945-00785999999ADDGA1005+999999999GD10991+9999999GF100991999999999999999999MA1101195083765REMMET08402/01/25 10:15:01 METAR KEIK 011715Z VRB04KT 10SM CLR 09/M08 A2988 RMK AO2 T00941078
0179720534001612025020117357+40017-105050FM-15+1564KEIK V0201805N004652200059N0160935N5+01125-00585999999ADDGA1005+999999999GD10991+9999999GF100991999999999999999999MA1101195083765OC100935REMMET08702/01/25 10:35:01 METAR KEIK 011735Z 18009G18KT 10SM CLR 11/M06 A2988 RMK AO2 T01121058
0168720534001612025020117557+40017-105050FM-15+1564KEIK V0201405N003152200059N0160935N5+01005-00735999999ADDGA1005+999999999GD10991+9999999GF100991999999999999999999MA1101155083735REMMET08402/01/25 10:55:01 METAR KEIK 011755Z 14006KT 10SM CLR 10/M07 A2987 RMK AO2 T01001073
0168720534001612025020118157+40017-105050FM-15+1564KEIK V0201405N003652200059N0160935N5+01005-00725999999ADDGA1005+999999999GD10991+9999999GF100991999999999999999999MA1101125083715REMMET08402/01/25 11:15:01 METAR KEIK 011815Z 14007KT 10SM CLR 10/M07 A2986 RMK AO2 T01001072
0168720534001612025020118357+40017-105050FM-15+1564KEIK V0209999V002152200059N0160935N5+00995-00715999999ADDGA1005+999999999GD10991+9999999GF100991999999999999999999MA1101125083715REMMET08402/01/25 11:35:01 METAR KEIK 011835Z VRB04KT 10SM CLR 10/M07 A2986 RMK AO2 T00991071
0168720534001612025020118557+40017-105050FM-15+1564KEIK V0201305N002652200059N0160935N5+01045-00765999999ADDGA1005+999999999GD10991+9999999GF100991999999999999999999MA1101085083685REMMET08402/01/25 11:55:01 METAR KEIK 011855Z 13005KT 10SM CLR 10/M08 A2985 RMK AO2 T01041076
0125720534001612025020119154+40017-105050FM-15+156499999V0201401N001512200019N016093199+01031-00761999999ADDGF100991999999999999999999MA1101081999999REMMET072METAR KEIK 011915Z AUTO 14003KT 10SM CLR 10/M08 A2985 RMK AO2 T01031076=
0125720534001612025020119354+40017-105050FM-15+156499999V0201801N003112200019N016093199+01111-00661999999ADDGF100991999999999999999999MA1101081999999REMMET072METAR KEIK 011935Z AUTO 18006KT 10SM CLR 11/M07 A2985 RMK AO2 T01111066=
0125720534001612025020119554+40017-105050FM-15+156499999V0200301N002612200019N016093199+01151-00681999999ADDGF100991999999999999999999MA1101051999999REMMET072METAR KEIK 011955Z AUTO 03005KT 10SM CLR 12/M07 A2984 RMK AO2 T01151068=
0125720534001612025020120154+40017-105050FM-15+156499999V0209999C000012200019N016093199+01271-00541999999ADDGF100991999999999999999999MA1101021999999REMMET072METAR KEIK 012015Z AUTO 00000KT 10SM CLR 13/M05 A2983 RMK AO2 T01271054=
0125720534001612025020120354+40017-105050FM-15+156499999V0209999V002612200019N016093199+01221-00521999999ADDGF100991999999999999999999MA1100981999999REMMET072METAR KEIK 012035Z AUTO VRB05KT 10SM CLR 12/M05 A2982 RMK AO2 T01221052=
0125720534001612025020120554+40017-105050FM-15+156499999V0209999V002112200019N016093199+01391-00481999999ADDGF100991999999999999999999MA1100951999999REMMET072METAR KEIK 012055Z AUTO VRB04KT 10SM CLR 14/M05 A2981 RMK AO2 T01391048=
0168720534001612025020121157+40017-105050FM-15+1564KEIK V0200605N002652200059N0160935N5+01305-00485999999ADDGA1005+999999999GD10991+9999999GF100991999999999999999999MA1100985083595REMMET08402/01/25 14:15:01 METAR KEIK 012115Z 06005KT 10SM CLR 13/M05 A2982 RMK AO2 T01301048
0212720534001612025020121357+40017-105050FM-15+1564KEIK V0200705N003152200059N0160935N5+01305-00385999999ADDGA1025+030485999GD11991+0304859GE19AGL   +99999+99999GF102995999999030481999999MA1100985083595REMMET08702/01/25 14:35:01 METAR KEIK 012135Z 07006KT 10SM FEW100 13/M04 A2982 RMK AO2 T01301038EQDD01      0ADE726
0212720534001612025020121557+40017-105050FM-15+1564KEIK V0200605N002152200059N0160935N5+01285-00365999999ADDGA1025+030485999GD11991+0304859GE19AGL   +99999+99999GF102995999999030481999999MA1101025083625REMMET08702/01/25 14:55:01 METAR KEIK 012155Z 06004KT 10SM FEW100 13/M04 A2983 RMK AO2 T01281036EQDD01      0ADE726
0212720534001612025020122157+40017-105050FM-15+1564KEIK V0200505N003152200059N0160935N5+01275-00345999999ADDGA1025+030485999GD11991+0304859GE19AGL   +99999+99999GF102995999999030481999999MA1101025083625REMMET08702/01/25 15:15:01 METAR KEIK 012215Z 05006KT 10SM FEW100 13/M03 A2983 RMK AO2 T01271034EQDD01      0ADE726
0212720534001612025020122357+40017-105050FM-15+1564KEIK V0200505N003652200059N0160935N5+01265-00305999999ADDGA1025+030485999GD11991+0304859GE19AGL   +99999+99999GF102995999999030481999999MA1101055083655REMMET08702/01/25 15:35:01 METAR KEIK 012235Z 05007KT 10SM FEW100 13/M03 A2984 RMK AO2 T01261030EQDD01      0ADE726
0193720534001612025020122557+40017-105050FM-15+1564KEIK V0200705N00315030485MN0160935N5+01225-00325999999ADDGA1075+030485999GD13991+0304859GE19AGL   +99999+99999GF199999999999030481999999MA1101055083655REMMET08702/01/25 15:55:01 METAR KEIK 012255Z 07006KT 10SM BKN100 12/M03 A2984 RMK AO2 T01221032
0212720534001612025020123157+40017-105050FM-15+1564KEIK V0203505N004152200059N0160935N5+01215-00345999999ADDGA1045+030485999GD12991+0304859GE19AGL   +99999+99999GF104995999999030481999999MA1101085083685REMMET08702/01/25 16:15:02 METAR KEIK 012315Z 35008KT 10SM SCT100 12/M03 A2985 RMK AO2 T01211034EQDD01      0ADE726
0193720534001612025020123357+40017-105050FM-15+1564KEIK V0203105N00315033535MN0160935N5+01075-00205999999ADDGA1075+033535999GD13991+0335359GE19AGL   +99999+99999GF199999999999033531999999MA1101085083685REMMET08702/01/25 16:35:02 METAR KEIK 012335Z 31006KT 10SM BKN110 11/M02 A2985 RMK AO2 T01071020
0231720534001612025020123557+40017-105050FM-15+1564KEIK V0203105N00515033535MN0160935N5+01055-00335999999ADDGA1075+033535999GA2075+039625999GD13991+0335359GD23991+0396259GE19AGL   +99999+99999GF199999999999033531999999MA1101155083735REMMET09402/01/25 16:55:02 METAR KEIK 012355Z 31010KT 10SM BKN110 BKN130 10/M03 A2987 RMK AO2 T01051033
0231720534001612025020200157+40017-105050FM-15+1564KEIK V0203305V00465036585MN0160935N5+00905-00375999999ADDGA1025+030485999GA2075+036585999GD11991+0304859GD23991+0365859GE19AGL   +99999+99999GF199999999999030481999999MA1101155083735REMMET09402/01/25 17:15:01 METAR KEIK 020015Z 33009KT 10SM FEW100 BKN120 09/M04 A2987 RMK AO2 T00901037
0212720534001612025020200357+40017-105050FM-15+1564KEIK V0203205N005152200059N0160935N5+00805-00385999999ADDGA1025+036585999GD11991+0365859GE19AGL   +99999+99999GF102995999999036581999999MA1101155083735REMMET08702/01/25 17:35:01 METAR KEIK 020035Z 32010KT 10SM FEW120 08/M04 A2987 RMK AO2 T00801038EQDD01      0ADE726
0168720534001612025020200557+40017-105050FM-15+1564KEIK V0203205N002652200059N0160935N5+00865-00445999999ADDGA1005+999999999GD10991+9999999GF100991999999999999999999MA1101195083765REMMET08402/01/25 17:55:01 METAR KEIK 020055Z 32005KT 10SM CLR 09/M04 A2988 RMK AO2 T00861044
0168720534001612025020201157+40017-105050FM-15+1564KEIK V0201405N002152200059N0160935N5+00725-00405999999ADDGA1005+999999999GD10991+9999999GF100991999999999999999999MA1101195083765REMMET08402/01/25 18:15:01 METAR KEIK 020115Z 14004KT 10SM CLR 07/M04 A2988 RMK AO2 T00721040
0168720534001612025020201357+40017-105050FM-15+1564KEIK V0201705N002652200059N0160935N5+00775-00625999999ADDGA1005+999999999GD10991+9999999GF100991999999999999999999MA1101225083795REMMET08402/01/25 18:35:01 METAR KEIK 020135Z 17005KT 10SM CLR 08/M06 A2989 RMK AO2 T00771062
0168720534001612025020201557+40017-105050FM-15+1564KEIK V0201705N002152200059N0160935N5+00625-00555999999ADDGA1005+999999999GD10991+9999999GF100991999999999999999999MA1101225083795REMMET08402/01/25 18:55:01 METAR KEIK 020155Z 17004KT 10SM CLR 06/M05 A2989 RMK AO2 T00621055
0168720534001612025020202157+40017-105050FM-15+1564KEIK V0209999C000052200059N0160935N5+00385-00385999999ADDGA1005+999999999GD10991+9999999GF100991999999999999999999MA1101295083855REMMET08402/01/25 19:15:01 METAR KEIK 020215Z 00000KT 10SM CLR 04/M04 A2991 RMK AO2 T00381038
0168720534001612025020202357+40017-105050FM-15+1564KEIK V0201305N001552200059N0160935N5+00375-00415999999ADDGA1005+999999999GD10991+9999999GF100991999999999999999999MA1101255083825REMMET08402/01/25 19:35:01 METAR KEIK 020235Z 13003KT 10SM CLR 04/M04 A2990 RMK AO2 T00371041
0168720534001612025020202557+40017-105050FM-15+1564KEIK V0209999C000052200059N0160935N5+00285-00385999999ADDGA1005+999999999GD10991+9999999GF100991999999999999999999MA1101255083825REMMET08402/01/25 19:55:01 METAR KEIK 020255Z 00000KT 10SM CLR 03/M04 A2990 RMK AO2 T00281038
0193720534001612025020203157+40017-105050FM-15+1564KEIK V0209999V001552200059N0160935N5+00265-00415999999ADDGA1025+025915999GD11991+0259159GE19AGL   +99999+99999GF199999999999025911999999MA1101255083825REMMET08702/01/25 20:15:01 METAR KEIK 020315Z VRB03KT 10SM FEW085 03/M04 A2990 RMK AO2 T00261041
0168720534001612025020203357+40017-105050FM-15+1564KEIK V0202205N004152200059N0160935N5+00225-00375999999ADDGA1005+999999999GD10991+9999999GF100991999999999999999999MA1101295083855REMMET08402/01/25 20:35:01 METAR KEIK 020335Z 22008KT 10SM CLR 02/M04 A2991 RMK AO2 T00221037
0168720534001612025020203557+40017-105050FM-15+1564KEIK V0202805N006752200059N0160935N5+00775-00375999999ADDGA1005+999999999GD10991+9999999GF100991999999999999999999MA1101255083825REMMET08402/01/25 20:55:01 METAR KEIK 020355Z 28013KT 10SM CLR 08/M04 A2990 RMK AO2 T00771037
0168720534001612025020204157+40017-105050FM-15+1564KEIK V0209999V003152200059N0160935N5+00635-00425999999ADDGA1005+999999999GD10991+9999999GF100991999999999999999999MA1101255083825REMMET08402/01/25 21:15:01 METAR KEIK 020415Z VRB06KT 10SM CLR 06/M04 A2990 RMK AO2 T00631042
0200720534001612025020204357+40017-105050FM-15+1564KEIK V0202805N011352200059N0160935N5+00995-00395999999ADDGA1005+999999999GD10991+9999999GF100991999999999999999999MA1101225083795OD149901331280REMMET10202/01/25 21:35:01 METAR KEIK 020435Z 28022KT 10SM CLR 10/M04 A2989 RMK AO2 PK WND 28026/0434 T00991039
0179720534001612025020204557+40017-105050FM-15+1564KEIK V0202905N009852200059N0160935N5+01065-00455999999ADDGA1005+999999999GD10991+9999999GF100991999999999999999999MA1101295083855OC101495REMMET08702/01/25 21:55:01 METAR KEIK 020455Z 29019G29KT 10SM CLR 11/M04 A2991 RMK AO2 T01061045
0179720534001612025020205157+40017-105050FM-15+1564KEIK V0202705N007252200059N0160935N5+01025-00495999999ADDGA1005+999999999GD10991+9999999GF100991999999999999999999MA1101295083855OC101185REMMET08702/01/25 22:15:01 METAR KEIK 020515Z 27014G23KT 10SM CLR 10/M05 A2991 RMK AO2 T01021049
0168720534001612025020205357+40017-105050FM-15+1564KEIK V0202705N007252200059N0160935N5+01065-00535999999ADDGA1005+999999999GD10991+9999999GF100991999999999999999999MA1101255083825REMMET08402/01/25 22:35:01 METAR KEIK 020535Z 27014KT 10SM CLR 11/M05 A2990 RMK AO2 T01061053
0179720534001612025020205557+40017-105050FM-15+1564KEIK V0202605N006252200059N0160935N5+01105-00565999999ADDGA1005+999999999GD10991+9999999GF100991999999999999999999MA1101295083855OC101245REMMET08702/01/25 22:55:01 METAR KEIK 020555Z 26012G24KT 10SM CLR 11/M06 A2991 RMK AO2 T01101056
0168720534001612025020206157+40017-105050FM-15+1564KEIK V0202605N005152200059N0160935N5+00995-00535999999ADDGA1005+999999999GD10991+9999999GF100991999999999999999999MA1101295083855REMMET08402/01/25 23:15:01 METAR KEIK 020615Z 26010KT 10SM CLR 10/M05 A2991 RMK AO2 T00991053
0168720534001612025020206357+40017-105050FM-15+1564KEIK V0202405N007252200059N0160935N5+01005-00535999999ADDGA1005+999999999GD10991+9999999GF100991999999999999999999MA1101295083855REMMET08402/01/25 23:35:01 METAR KEIK 020635Z 24014KT 10SM CLR 10/M05 A2991 RMK AO2 T01001053
0168720534001612025020206557+40017-105050FM-15+1564KEIK V0202505N005152200059N0160935N5+00885-00505999999ADDGA1005+999999999GD10991+9999999GF100991999999999999999999MA1101295083855REMMET08402/01/25 23:55:01 METAR KEIK 020655Z 25010KT 10SM CLR 09/M05 A2991 RMK AO2 T00881050
0168720534001612025020207157+40017-105050FM-15+1564KEIK V0202405N004652200059N0160935N5+00795-00485999999ADDGA1005+999999999GD10991+9999999GF100991999999999999999999MA1101295083855REMMET08402/02/25 00:15:01 METAR KEIK 020715Z 24009KT 10SM CLR 08/M05 A2991 RMK AO2 T00791048
0168720534001612025020207357+40017-105050FM-15+1564KEIK V0202505N005152200059N0160935N5+00965-00465999999ADDGA1005+999999999GD10991+9999999GF100991999999999999999999MA1101255083825REMMET08402/02/25 00:35:01 METAR KEIK 020735Z 25010KT 10SM CLR 10/M05 A2990 RMK AO2 T00961046
0168720534001612025020207557+40017-105050FM-15+1564KEIK V0202805N006252200059N0160935N5+00985-00425999999ADDGA1005+999999999GD10991+9999999GF100991999999999999999999MA1101225083795REMMET08402/02/25 00:55:01 METAR KEIK 020755Z 28012KT 10SM CLR 10/M04 A2989 RMK AO2 T00981042
0168720534001612025020208157+40017-105050FM-15+1564KEIK V0202105N002152200059N0160935N5+00925-00375999999ADDGA1005+999999999GD10991+9999999GF100991999999999999999999MA1101225083795REMMET08402/02/25 01:15:01 METAR KEIK 020815Z 21004KT 10SM CLR 09/M04 A2989 RMK AO2 T00921037
0168720534001612025020208357+40017-105050FM-15+1564KEIK V0202305N003152200059N0160935N5+00635-00535999999ADDGA1005+999999999GD10991+9999999GF100991999999999999999999MA1101225083795REMMET08402/02/25 01:35:01 METAR KEIK 020835Z 23006KT 10SM CLR 06/M05 A2989 RMK AO2 T00631053
0168720534001612025020208557+40017-105050FM-15+1564KEIK V0201905N002152200059N0160935N5+00435-00485999999ADDGA1005+999999999GD10991+9999999GF100991999999999999999999MA1101195083765REMMET08402/02/25 01:55:01 METAR KEIK 020855Z 19004KT 10SM CLR 04/M05 A2988 RMK AO2 T00431048
0168720534001612025020209157+40017-105050FM-15+1564KEIK V0201905N002152200059N0160935N5+00465-00505999999ADDGA1005+999999999GD10991+9999999GF100991999999999999999999MA1101125083715REMMET08402/02/25 02:15:01 METAR KEIK 020915Z 19004KT 10SM CLR 05/M05 A2986 RMK AO2 T00461050
0168720534001612025020209357+40017-105050FM-15+1564KEIK V0202005N002652200059N0160935N5+00505-00535999999ADDGA1005+999999999GD10991+9999999GF100991999999999999999999MA1101195083765REMMET08402/02/25 02:35:01 METAR KEIK 020935Z 20005KT 10SM CLR 05/M05 A2988 RMK AO2 T00501053
0193720534001612025020209557+40017-105050FM-15+1564KEIK V0209999C000052200059N0160935N5+00405-00525999999ADDGA1025+027435999GD11991+0274359GE19AGL   +99999+99999GF199999999999027431999999MA1101125083715REMMET08702/02/25 02:55:01 METAR KEIK 020955Z 00000KT 10SM FEW090 04/M05 A2986 RMK AO2 T00401052
0168720534001612025020210157+40017-105050FM-15+1564KEIK V0202205N003652200059N0160935N5+00225-00485999999ADDGA1005+999999999GD10991+9999999GF100991999999999999999999MA1101155083735REMMET08402/02/25 03:15:01 METAR KEIK 021015Z 22007KT 10SM CLR 02/M05 A2987 RMK AO2 T00221048
0168720534001612025020210357+40017-105050FM-15+1564KEIK V0202005N003652200059N0160935N5+00245-00515999999ADDGA1005+999999999GD10991+9999999GF100991999999999999999999MA1101155083735REMMET08402/02/25 03:35:01 METAR KEIK 021035Z 20007KT 10SM CLR 02/M05 A2987 RMK AO2 T00241051
0168720534001612025020210557+40017-105050FM-15+1564KEIK V0201505N003652200059N0160935N5+00475-00585999999ADDGA1005+999999999GD10991+9999999GF100991999999999999999999MA1101085083685REMMET08402/02/25 03:55:01 METAR KEIK 021055Z 15007KT 10SM CLR 05/M06 A2985 RMK AO2 T00471058
0168720534001612025020211157+40017-105050FM-15+1564KEIK V0201605N001552200059N0160935N5+00385-00575999999ADDGA1005+999999999GD10991+9999999GF100991999999999999999999MA1101125083715REMMET08402/02/25 04:15:01 METAR KEIK 021115Z 16003KT 10SM CLR 04/M06 A2986 RMK AO2 T00381057
0193720534001612025020211357+40017-105050FM-15+1564KEIK V0209999C000052200059N0160935N5+00195-00495999999ADDGA1025+027435999GD11991+0274359GE19AGL   +99999+99999GF199999999999027431999999MA1101125083715REMMET08702/02/25 04:35:01 METAR KEIK 021135Z 00000KT 10SM FEW090 02/M05 A2986 RMK AO2 T00191049
0168720534001612025020211557+40017-105050FM-15+1564KEIK V0201705N002152200059N0160935N5+00165-00515999999ADDGA1005+999999999GD10991+9999999GF100991999999999999999999MA1101125083715REMMET08402/02/25 04:55:01 METAR KEIK 021155Z 17004KT 10SM CLR 02/M05 A2986 RMK AO2 T00161051
0168720534001612025020212157+40017-105050FM-15+1564KEIK V0201005N002652200059N0160935N5+00045-00475999999ADDGA1005+999999999GD10991+9999999GF100991999999999999999999MA1101055083655REMMET08402/02/25 05:15:01 METAR KEIK 021215Z 10005KT 10SM CLR 00/M05 A2984 RMK AO2 T00041047
0168720534001612025020212357+40017-105050FM-15+1564KEIK V0202405N002152200059N0160935N5+00015-00425999999ADDGA1005+999999999GD10991+9999999GF100991999999999999999999MA1101085083685REMMET08402/02/25 05:35:01 METAR KEIK 021235Z 24004KT 10SM CLR 00/M04 A2985 RMK AO2 T00011042
0168720534001612025020212557+40017-105050FM-15+1564KEIK V0209999C000052200059N0160935N5+00055-00475999999ADDGA1005+999999999GD10991+9999999GF100991999999999999999999MA1101085083685REMMET08402/02/25 05:55:01 METAR KEIK 021255Z 00000KT 10SM CLR 00/M05 A2985 RMK AO2 T00051047
0179720534001612025020213157+40017-105050FM-15+1564KEIK V0201205V004152200059N0160935N5+00535-00515999999ADDGA1005+999999999GD10991+9999999GF100991999999999999999999MA1101055083655OC100775REMMET08702/02/25 06:15:01 METAR KEIK 021315Z 12008G15KT 10SM CLR 05/M05 A2984 RMK AO2 T00531051
0179720534001612025020213357+40017-105050FM-15+1564KEIK V0201005N007752200059N0160935N5+00755-00535999999ADDGA1005+999999999GD10991+9999999GF100991999999999999999999MA1100985083595OC101135REMMET08702/02/25 06:35:01 METAR KEIK 021335Z 10015G22KT 10SM CLR 07/M05 A2982 RMK AO2 T00751053
0179720534001612025020213557+40017-105050FM-15+1564KEIK V0202905N004652200059N0160935N5+00575-00485999999ADDGA1005+999999999GD10991+9999999GF100991999999999999999999MA1101025083625OC100725REMMET08702/02/25 06:55:01 METAR KEIK 021355Z 29009G14KT 10SM CLR 06/M05 A2983 RMK AO2 T00571048
0168720534001612025020214157+40017-105050FM-15+1564KEIK V0202905N003152200059N0160935N5+00135-00415999999ADDGA1005+999999999GD10991+9999999GF100991999999999999999999MA1101125083715REMMET08402/02/25 07:15:01 METAR KEIK 021415Z 29006KT 10SM CLR 01/M04 A2986 RMK AO2 T00131041
0168720534001612025020214357+40017-105050FM-15+1564KEIK V0209999C000052200059N0160935N5+00015-00375999999ADDGA1005+999999999GD10991+9999999GF100991999999999999999999MA1101055083655REMMET08402/02/25 07:35:01 METAR KEIK 021435Z 00000KT 10SM CLR 00/M04 A2984 RMK AO2 T00011037
0168720534001612025020214557+40017-105050FM-15+1564KEIK V0202905N003152200059N0160935N5+00075-00325999999ADDGA1005+999999999GD10991+9999999GF100991999999999999999999MA1101125083715REMMET08402/02/25 07:55:01 METAR KEIK 021455Z 29006KT 10SM CLR 01/M03 A2986 RMK AO2 T00071032
0193720534001612025020215157+40017-105050FM-15+1564KEIK V0201905N002152200059N0160935N5+00195-00325999999ADDGA1025+051825999GD11991+0518259GE19AGL   +99999+99999GF199999999999051821999999MA1101055083655REMMET08702/02/25 08:15:01 METAR KEIK 021515Z 19004KT 10SM FEW170 02/M03 A2984 RMK AO2 T00191032
0168720534001612025020215357+40017-105050FM-15+1564KEIK V0209999V001552200059N0160935N5+00215-00325999999ADDGA1005+999999999GD10991+9999999GF100991999999999999999999MA1101125083715REMMET08402/02/25 08:35:01 METAR KEIK 021535Z VRB03KT 10SM CLR 02/M03 A2986 RMK AO2 T00211032
0168720534001612025020215557+40017-105050FM-15+1564KEIK V0201105N002152200059N0160935N5+00295-00315999999ADDGA1005+999999999GD10991+9999999GF100991999999999999999999MA1101055083655REMMET08402/02/25 08:55:01 METAR KEIK 021555Z 11004KT 10SM CLR 03/M03 A2984 RMK AO2 T00291031
0168720534001612025020216157+40017-105050FM-15+1564KEIK V0202705N003152200059N0160935N5+00535-00285999999ADDGA1005+999999999GD10991+9999999GF100991999999999999999999MA1101025083625REMMET08402/02/25 09:15:01 METAR KEIK 021615Z 27006KT 10SM CLR 05/M03 A2983 RMK AO2 T00531028
0168720534001612025020216357+40017-105050FM-15+1564KEIK V0200705N003652200059N0160935N5+00555-00295999999ADDGA1005+999999999GD10991+9999999GF100991999999999999999999MA1100985083595REMMET08402/02/25 09:35:01 METAR KEIK 021635Z 07007KT 10SM CLR 05/M03 A2982 RMK AO2 T00551029
0168720534001612025020216557+40017-105050FM-15+1564KEIK V0209999C000052200059N0160935N5+00745-00355999999ADDGA1005+999999999GD10991+9999999GF100991999999999999999999MA1100985083595REMMET08402/02/25 09:55:01 METAR KEIK 021655Z 00000KT 10SM CLR 07/M04 A2982 RMK AO2 T00741035
0168720534001612025020217157+40017-105050FM-15+1564KEIK V0202905N002652200059N0160935N5+00755-00295999999ADDGA1005+999999999GD10991+9999999GF100991999999999999999999MA1101055083655REMMET08402/02/25 10:15:01 METAR KEIK 021715Z 29005KT 10SM CLR 07/M03 A2984 RMK AO2 T00751029
0168720534001612025020217357+40017-105050FM-15+1564KEIK V0209999V001552200059N0160935N5+00755-00285999999ADDGA1005+999999999GD10991+9999999GF100991999999999999999999MA1101025083625REMMET08402/02/25 10:35:01 METAR KEIK 021735Z VRB03KT 10SM CLR 07/M03 A2983 RMK AO2 T00751028
0168720534001612025020217557+40017-105050FM-15+1564KEIK V0209999V002152200059N0160935N5+00825-00275999999ADDGA1005+999999999GD10991+9999999GF100991999999999999999999MA1101025083625REMMET08402/02/25 10:55:01 METAR KEIK 021755Z VRB04KT 10SM CLR 08/M03 A2983 RMK AO2 T00821027
0193720534001612025020218157+40017-105050FM-15+1564KEIK V0209999V002652200059N0160935N5+00905-00205999999ADDGA1025+030485999GD11991+0304859GE19AGL   +99999+99999GF199999999999030481999999MA1100985083595REMMET08702/02/25 11:15:01 METAR KEIK 021815Z VRB05KT 10SM FEW100 09/M02 A2982 RMK AO2 T00901020
0193720534001612025020218357+40017-105050FM-15+1564KEIK V0201205N003652200059N0160935N5+01045-00175999999ADDGA1025+030485999GD11991+0304859GE19AGL   +99999+99999GF199999999999030481999999MA1100885083505REMMET08702/02/25 11:35:01 METAR KEIK 021835Z 12007KT 10SM FEW100 10/M02 A2979 RMK AO2 T01041017
0179720534001612025020218557+40017-105050FM-15+1564KEIK V0201305V002652200059N0160935N5+01355-00135999999ADDGA1005+999999999GD10991+9999999GF100991999999999999999999MA1100885083505OC100725REMMET08702/02/25 11:55:01 METAR KEIK 021855Z 13005G14KT 10SM CLR 13/M01 A2979 RMK AO2 T01351013
0168720534001612025020219157+40017-105050FM-15+1564KEIK V0200805N004152200059N0160935N5+01505-00125999999ADDGA1005+999999999GD10991+9999999GF100991999999999999999999MA1100855083475REMMET08402/02/25 12:15:01 METAR KEIK 021915Z 08008KT 10SM CLR 15/M01 A2978 RMK AO2 T01501012
0168720534001612025020219357+40017-105050FM-15+1564KEIK V0209999C000052200059N0160935N5+01655-00095999999ADDGA1005+999999999GD10991+9999999GF100991999999999999999999MA1100815083445REMMET08402/02/25 12:35:01 METAR KEIK 021935Z 00000KT 10SM CLR 17/M01 A2977 RMK AO2 T01651009
0193720534001612025020219557+40017-105050FM-15+1564KEIK V0209999V002152200059N0160935N5+01775-00265999999ADDGA1025+033535999GD11991+0335359GE19AGL   +99999+99999GF199999999999033531999999MA1100755083395REMMET08702/02/25 12:55:01 METAR KEIK 021955Z VRB04KT 10SM FEW110 18/M03 A2975 RMK AO2 T01771026
0179720534001612025020220157+40017-105050FM-15+1564KEIK V0202905V003652200059N0160935N5+01805-00355999999ADDGA1005+999999999GD10991+9999999GF100991999999999999999999MA1100715083365OC100985REMMET08702/02/25 13:15:01 METAR KEIK 022015Z 29007G19KT 10SM CLR 18/M03 A2974 RMK AO2 T01801035
0179720534001612025020220357+40017-105050FM-15+1564KEIK V0200105V003152200059N0160935N5+01735-00315999999ADDGA1005+999999999GD10991+9999999GF100991999999999999999999MA1100685083335OC101135REMMET08702/02/25 13:35:01 METAR KEIK 022035Z 01006G22KT 10SM CLR 17/M03 A2973 RMK AO2 T01731031
0211720534001612025020220557+40017-105050FM-15+1564KEIK V0202905V008252200059N0160935N5+01825-00345999999ADDGA1005+999999999GD10991+9999999GF100991999999999999999999MA1100685083335OC101395OD149901391270REMMET10502/02/25 13:55:01 METAR KEIK 022055Z 29016G27KT 10SM CLR 18/M03 A2973 RMK AO2 PK WND 27027/2053 T01821034
0211720534001612025020221157+40017-105050FM-15+1564KEIK V0203305V004152200059N0160935N5+01785-00295999999ADDGA1005+999999999GD10991+9999999GF100991999999999999999999MA1100645083305OC100935OD149901391270REMMET10502/02/25 14:15:01 METAR KEIK 022115Z 33008G18KT 10SM CLR 18/M03 A2972 RMK AO2 PK WND 27027/2053 T01781029
0197720534001612025020221357+40017-105050FM-15+1564KEIK V0202805N004652200059N0160935N5+01885-00445999999ADDGA1005+999999999GD10991+9999999GF100991999999999999999999MA1100645083305OC101135REMMET10502/02/25 14:35:01 METAR KEIK 022135Z 28009G22KT 10SM CLR 19/M04 A2972 RMK AO2 PK WND 27027/2053 T01881044
0179720534001612025020221557+40017-105050FM-15+1564KEIK V0202405N007752200059N0160935N5+01995-00365999999ADDGA1005+999999999GD10991+9999999GF100991999999999999999999MA1100645083305OC101185REMMET08702/02/25 14:55:01 METAR KEIK 022155Z 24015G23KT 10SM CLR 20/M04 A2972 RMK AO2 T01991036
0208720534001612025020222157+40017-105050FM-15+1564KEIK V0202705N006752200059N0160935N5+01975-00395999999ADDGA1005+999999999GD10991+9999999GF100991999999999999999999MA1100645083305OC101395REMMET11602/02/25 15:15:01 METAR KEIK 022215Z 27013G27KT 10SM CLR 20/M04 A2972 RMK AO2 PK WND 27028/2203 WSHFT 2155 T01971039
0208720534001612025020222357+40017-105050FM-15+1564KEIK V0202705N008852200059N0160935N5+01905-00395999999ADDGA1005+999999999GD10991+9999999GF100991999999999999999999MA1100645083305OC101295REMMET11602/02/25 15:35:01 METAR KEIK 022235Z 27017G25KT 10SM CLR 19/M04 A2972 RMK AO2 PK WND 25030/2220 WSHFT 2155 T01901039
0197720534001612025020222557+40017-105050FM-15+1564KEIK V0202905N011352200059N0160935N5+01875-00415999999ADDGA1005+999999999GD10991+9999999GF100991999999999999999999MA1100685083335OC101855REMMET10502/02/25 15:55:01 METAR KEIK 022255Z 29022G36KT 10SM CLR 19/M04 A2973 RMK AO2 PK WND 30036/2254 T01871041
0211720534001612025020223157+40017-105050FM-15+1564KEIK V0202605V006752200059N0160935N5+01785-00405999999ADDGA1005+999999999GD10991+9999999GF100991999999999999999999MA1100685083335OC101035OD149901851300REMMET10502/02/25 16:15:02 METAR KEIK 022315Z 26013G20KT 10SM CLR 18/M04 A2973 RMK AO2 PK WND 30036/2254 T01781040
0200720534001612025020223357+40017-105050FM-15+1564KEIK V0202505N007752200059N0160935N5+01795-00505999999ADDGA1005+999999999GD10991+9999999GF100991999999999999999999MA1100685083335OD149901851300REMMET10202/02/25 16:35:02 METAR KEIK 022335Z 25015KT 10SM CLR 18/M05 A2973 RMK AO2 PK WND 30036/2254 T01791050
0179720534001612025020223557+40017-105050FM-15+1564KEIK V0202705N006252200059N0160935N5+01775-00545999999ADDGA1005+999999999GD10991+9999999GF100991999999999999999999MA1100715083365OC101135REMMET08702/02/25 16:55:02 METAR KEIK 022355Z 27012G22KT 10SM CLR 18/M05 A2974 RMK AO2 T01771054
0197720534001612025020300157+40017-105050FM-15+1564KEIK V0202705N009352200059N0160935N5+01775-00575999999ADDGA1005+999999999GD10991+9999999GF100991999999999999999999MA1100685083335OC101345REMMET10502/02/25 17:15:01 METAR KEIK 030015Z 27018G26KT 10SM CLR 18/M06 A2973 RMK AO2 PK WND 27026/0012 T01771057
0197720534001612025020300357+40017-105050FM-15+1564KEIK V0202605N011352200059N0160935N5+01805-00555999999ADDGA1005+999999999GD10991+9999999GF100991999999999999999999MA1100685083335OC101805REMMET10502/02/25 17:35:01 METAR KEIK 030035Z 26022G35KT 10SM CLR 18/M05 A2973 RMK AO2 PK WND 23037/0019 T01801055
0179720534001612025020300557+40017-105050FM-15+1564KEIK V0202205N007252200059N0160935N5+01695-00465999999ADDGA1005+999999999GD10991+9999999GF100991999999999999999999MA1100755083395OC101035REMMET08702/02/25 17:55:01 METAR KEIK 030055Z 22014G20KT 10SM CLR 17/M05 A2975 RMK AO2 T01691046
0179720534001612025020301157+40017-105050FM-15+1564KEIK V0202605N008852200059N0160935N5+01755-00565999999ADDGA1005+999999999GD10991+9999999GF100991999999999999999999MA1100715083365OC101085REMMET08702/02/25 18:15:01 METAR KEIK 030115Z 26017G21KT 10SM CLR 18/M06 A2974 RMK AO2 T01751056
0197720534001612025020301357+40017-105050FM-15+1564KEIK V0202705N010852200059N0160935N5+01745-00545999999ADDGA1005+999999999GD10991+9999999GF100991999999999999999999MA1100715083365OC101495REMMET10502/02/25 18:35:01 METAR KEIK 030135Z 27021G29KT 10SM CLR 17/M05 A2974 RMK AO2 PK WND 27029/0134 T01741054
0179720534001612025020301557+40017-105050FM-15+1564KEIK V0202505N005152200059N0160935N5+01685-00515999999ADDGA1005+999999999GD10991+9999999GF100991999999999999999999MA1100715083365OC101085REMMET08702/02/25 18:55:01 METAR KEIK 030155Z 25010G21KT 10SM CLR 17/M05 A2974 RMK AO2 T01681051
0179720534001612025020302157+40017-105050FM-15+1564KEIK V0202605N007752200059N0160935N5+01725-00545999999ADDGA1005+999999999GD10991+9999999GF100991999999999999999999MA1100715083365OC101135REMMET08702/02/25 19:15:01 METAR KEIK 030215Z 26015G22KT 10SM CLR 17/M05 A2974 RMK AO2 T01721054
0179720534001612025020302357+40017-105050FM-15+1564KEIK V0202405N007752200059N0160935N5+01745-00525999999ADDGA1005+999999999GD10991+9999999GF100991999999999999999999MA1100755083395OC101295REMMET08702/02/25 19:35:01 METAR KEIK 030235Z 24015G25KT 10SM CLR 17/M05 A2975 RMK AO2 T01741052
0168720534001612025020302557+40017-105050FM-15+1564KEIK V0202605N005752200059N0160935N5+01645-00505999999ADDGA1005+999999999GD10991+9999999GF100991999999999999999999MA1100785083425REMMET08402/02/25 19:55:01 METAR KEIK 030255Z 26011KT 10SM CLR 16/M05 A2976 RMK AO2 T01641050
0168720534001612025020303157+40017-105050FM-15+1564KEIK V0202605N004152200059N0160935N5+01535-00465999999ADDGA1005+999999999GD10991+9999999GF100991999999999999999999MA1100815083445REMMET08402/02/25 20:15:01 METAR KEIK 030315Z 26008KT 10SM CLR 15/M05 A2977 RMK AO2 T01531046
0179720534001612025020303357+40017-105050FM-15+1564KEIK V0202805N005752200059N0160935N5+01725-00555999999ADDGA1005+999999999GD10991+9999999GF100991999999999999999999MA1100855083475OC101085REMMET08702/02/25 20:35:01 METAR KEIK 030335Z 28011G21KT 10SM CLR 17/M06 A2978 RMK AO2 T01721055
0168720534001612025020303557+40017-105050FM-15+1564KEIK V0202605N002152200059N0160935N5+01515-00535999999ADDGA1005+999999999GD10991+9999999GF100991999999999999999999MA1100815083445REMMET08402/02/25 20:55:01 METAR KEIK 030355Z 26004KT 10SM CLR 15/M05 A2977 RMK AO2 T01511053
0168720534001612025020304157+40017-105050FM-15+1564KEIK V0209999V001552200059N0160935N5+01675-00625999999ADDGA1005+999999999GD10991+9999999GF100991999999999999999999MA1100785083425REMMET08402/02/25 21:15:01 METAR KEIK 030415Z VRB03KT 10SM CLR 17/M06 A2976 RMK AO2 T01671062
0168720534001612025020304357+40017-105050FM-15+1564KEIK V0209999C000052200059N0160935N5+01575-00585999999ADDGA1005+999999999GD10991+9999999GF100991999999999999999999MA1100815083445REMMET08402/02/25 21:35:01 METAR KEIK 030435Z 00000KT 10SM CLR 16/M06 A2977 RMK AO2 T01571058
0193720534001612025020304557+40017-105050FM-15+1564KEIK V0202205N003152200059N0160935N5+01565-00585999999ADDGA1025+085345999GD11991+0853459GE19AGL   +99999+99999GF199999999999085341999999MA1100815083445REMMET08702/02/25 21:55:01 METAR KEIK 030455Z 22006KT 10SM FEW280 16/M06 A2977 RMK AO2 T01561058
0193720534001612025020305157+40017-105050FM-15+1564KEIK V0203105N001552200059N0160935N5+01625-00635999999ADDGA1025+085345999GD11991+0853459GE19AGL   +99999+99999GF199999999999085341999999MA1100855083475REMMET08702/02/25 22:15:01 METAR KEIK 030515Z 31003KT 10SM FEW280 16/M06 A2978 RMK AO2 T01621063
0168720534001612025020305357+40017-105050FM-15+1564KEIK V0202605N002652200059N0160935N5+01505-00645999999ADDGA1005+999999999GD10991+9999999GF100991999999999999999999MA1100855083475REMMET08402/02/25 22:35:01 METAR KEIK 030535Z 26005KT 10SM CLR 15/M06 A2978 RMK AO2 T01501064
0179720534001612025020305557+40017-105050FM-15+1564KEIK V0202405V005752200059N0160935N5+01615-00685999999ADDGA1005+999999999GD10991+9999999GF100991999999999999999999MA1100885083505OC100825REMMET08702/02/25 22:55:01 METAR KEIK 030555Z 24011G16KT 10SM CLR 16/M07 A2979 RMK AO2 T01611068
0168720534001612025020306157+40017-105050FM-15+1564KEIK V0202605N005752200059N0160935N5+01665-00735999999ADDGA1005+999999999GD10991+9999999GF100991999999999999999999MA1100815083445REMMET08402/02/25 23:15:01 METAR KEIK 030615Z 26011KT 10SM CLR 17/M07 A2977 RMK AO2 T01661073
0168720534001612025020306357+40017-105050FM-15+1564KEIK V0202605N004152200059N0160935N5+01555-00725999999ADDGA1005+999999999GD10991+9999999GF100991999999999999999999MA1100855083475REMMET08402/02/25 23:35:01 METAR KEIK 030635Z 26008KT 10SM CLR 15/M07 A2978 RMK AO2 T01551072
0179720534001612025020306557+40017-105050FM-15+1564KEIK V0202805N007752200059N0160935N5+01685-00895999999ADDGA1005+999999999GD10991+9999999GF100991999999999999999999MA1100855083475OC101035REMMET08702/02/25 23:55:01 METAR KEIK 030655Z 28015G20KT 10SM CLR 17/M09 A2978 RMK AO2 T01681089
0168720534001612025020307157+40017-105050FM-15+1564KEIK V0202705N005752200059N0160935N5+01575-00835999999ADDGA1005+999999999GD10991+9999999GF100991999999999999999999MA1100885083505REMMET08402/03/25 00:15:01 METAR KEIK 030715Z 27011KT 10SM CLR 16/M08 A2979 RMK AO2 T01571083
0179720534001612025020307357+40017-105050FM-15+1564KEIK V0202805N006252200059N0160935N5+01605-00825999999ADDGA1005+999999999GD10991+9999999GF100991999999999999999999MA1100885083505OC100935REMMET08702/03/25 00:35:01 METAR KEIK 030735Z 28012G18KT 10SM CLR 16/M08 A2979 RMK AO2 T01601082
0168720534001612025020307557+40017-105050FM-15+1564KEIK V0202805N005152200059N0160935N5+01575-00775999999ADDGA1005+999999999GD10991+9999999GF100991999999999999999999MA1100885083505REMMET08402/03/25 00:55:01 METAR KEIK 030755Z 28010KT 10SM CLR 16/M08 A2979 RMK AO2 T01571077
0179720534001612025020308157+40017-105050FM-15+1564KEIK V0202805V005152200059N0160935N5+01615-00825999999ADDGA1005+999999999GD10991+9999999GF100991999999999999999999MA1100855083475OC100985REMMET08702/03/25 01:15:01 METAR KEIK 030815Z 28010G19KT 10SM CLR 16/M08 A2978 RMK AO2 T01611082
0179720534001612025020308357+40017-105050FM-15+1564KEIK V0202705N005752200059N0160935N5+01655-00825999999ADDGA1005+999999999GD10991+9999999GF100991999999999999999999MA1100885083505OC101035REMMET08702/03/25 01:35:01 METAR KEIK 030835Z 27011G20KT 10SM CLR 17/M08 A2979 RMK AO2 T01651082
0168720534001612025020308557+40017-105050FM-15+1564KEIK V0202805N005152200059N0160935N5+01485-00725999999ADDGA1005+999999999GD10991+9999999GF100991999999999999999999MA1100885083505REMMET08402/03/25 01:55:01 METAR KEIK 030855Z 28010KT 10SM CLR 15/M07 A2979 RMK AO2 T01481072
0179720534001612025020309157+40017-105050FM-15+1564KEIK V0203005N006252200059N0160935N5+01595-00825999999ADDGA1005+999999999GD10991+9999999GF100991999999999999999999MA1100885083505OC100985REMMET08702/03/25 02:15:01 METAR KEIK 030915Z 30012G19KT 10SM CLR 16/M08 A2979 RMK AO2 T01591082
0168720534001612025020309357+40017-105050FM-15+1564KEIK V0202605N006752200059N0160935N5+01525-00785999999ADDGA1005+999999999GD10991+9999999GF100991999999999999999999MA1100885083505REMMET08402/03/25 02:35:01 METAR KEIK 030935Z 26013KT 10SM CLR 15/M08 A2979 RMK AO2 T01521078
0179720534001612025020309557+40017-105050FM-15+1564KEIK V0202805N005752200059N0160935N5+01535-00775999999ADDGA1005+999999999GD10991+9999999GF100991999999999999999999MA1100915083535OC101035REMMET08702/03/25 02:55:01 METAR KEIK 030955Z 28011G20KT 10SM CLR 15/M08 A2980 RMK AO2 T01531077
0168720534001612025020310157+40017-105050FM-15+1564KEIK V0202905N005752200059N0160935N5+01385-00675999999ADDGA1005+999999999GD10991+9999999GF100991999999999999999999MA1100955083565REMMET08402/03/25 03:15:01 METAR KEIK 031015Z 29011KT 10SM CLR 14/M07 A2981 RMK AO2 T01381067
0179720534001612025020310357+40017-105050FM-15+1564KEIK V0203005N006752200059N0160935N5+01485-00715999999ADDGA1005+999999999GD10991+9999999GF100991999999999999999999MA1100915083535OC101135REMMET08702/03/25 03:35:01 METAR KEIK 031035Z 30013G22KT 10SM CLR 15/M07 A2980 RMK AO2 T01481071
0179720534001612025020310557+40017-105050FM-15+1564KEIK V0202905N006252200059N0160935N5+01385-00665999999ADDGA1005+999999999GD10991+9999999GF100991999999999999999999MA1100955083565OC101085REMMET08702/03/25 03:55:01 METAR KEIK 031055Z 29012G21KT 10SM CLR 14/M07 A2981 RMK AO2 T01381066
0168720534001612025020311157+40017-105050FM-15+1564KEIK V0202905N006252200059N0160935N5+01345-00645999999ADDGA1005+999999999GD10991+9999999GF100991999999999999999999MA1100985083595REMMET08402/03/25 04:15:01 METAR KEIK 031115Z 29012KT 10SM CLR 13/M06 A2982 RMK AO2 T01341064
0168720534001612025020311357+40017-105050FM-15+1564KEIK V0202905N004152200059N0160935N5+01325-00655999999ADDGA1005+999999999GD10991+9999999GF100991999999999999999999MA1100985083595REMMET08402/03/25 04:35:01 METAR KEIK 031135Z 29008KT 10SM CLR 13/M07 A2982 RMK AO2 T01321065
0168720534001612025020311557+40017-105050FM-15+1564KEIK V0203005N005152200059N0160935N5+01335-00615999999ADDGA1005+999999999GD10991+9999999GF100991999999999999999999MA1101025083625REMMET08402/03/25 04:55:01 METAR KEIK 031155Z 30010KT 10SM CLR 13/M06 A2983 RMK AO2 T01331061
0168720534001612025020312157+40017-105050FM-15+1564KEIK V0202905N004652200059N0160935N5+01205-00555999999ADDGA1005+999999999GD10991+9999999GF100991999999999999999999MA1101025083625REMMET08402/03/25 05:15:01 METAR KEIK 031215Z 29009KT 10SM CLR 12/M05 A2983 RMK AO2 T01201055
0168720534001612025020312357+40017-105050FM-15+1564KEIK V0203105N005752200059N0160935N5+01355-00615999999ADDGA1005+999999999GD10991+9999999GF100991999999999999999999MA1101055083655REMMET08402/03/25 05:35:01 METAR KEIK 031235Z 31011KT 10SM CLR 14/M06 A2984 RMK AO2 T01351061
0168720534001612025020312557+40017-105050FM-15+1564KEIK V0203105N005752200059N0160935N5+01285-00565999999ADDGA1005+999999999GD10991+9999999GF100991999999999999999999MA1101055083655REMMET08402/03/25 05:55:01 METAR KEIK 031255Z 31011KT 10SM CLR 13/M06 A2984 RMK AO2 T01281056
0168720534001612025020313157+40017-105050FM-15+1564KEIK V0203005N005152200059N0160935N5+01305-00565999999ADDGA1005+999999999GD10991+9999999GF100991999999999999999999MA1101055083655REMMET08402/03/25 06:15:01 METAR KEIK 031315Z 30010KT 10SM CLR 13/M06 A2984 RMK AO2 T01301056
0168720534001612025020313357+40017-105050FM-15+1564KEIK V0203105N004652200059N0160935N5+01215-00555999999ADDGA1005+999999999GD10991+9999999GF100991999999999999999999MA1101085083685REMMET08402/03/25 06:35:01 METAR KEIK 031335Z 31009KT 10SM CLR 12/M06 A2985 RMK AO2 T01211055
0168720534001612025020313557+40017-105050FM-15+1564KEIK V0203305N003652200059N0160935N5+01355-00605999999ADDGA1005+999999999GD10991+9999999GF100991999999999999999999MA1101125083715REMMET08402/03/25 06:55:01 METAR KEIK 031355Z 33007KT 10SM CLR 13/M06 A2986 RMK AO2 T01351060
0168720534001612025020314157+40017-105050FM-15+1564KEIK V0203305N005152200059N0160935N5+01205-00515999999ADDGA1005+999999999GD10991+9999999GF100991999999999999999999MA1101155083735REMMET08402/03/25 07:15:01 METAR KEIK 031415Z 33010KT 10SM CLR 12/M05 A2987 RMK AO2 T01201051
0168720534001612025020314357+40017-105050FM-15+1564KEIK V0203205N003652200059N0160935N5+01215-00545999999ADDGA1005+999999999GD10991+9999999GF100991999999999999999999MA1101155083735REMMET08402/03/25 07:35:01 METAR KEIK 031435Z 32007KT 10SM CLR 12/M05 A2987 RMK AO2 T01211054
0168720534001612025020314557+40017-105050FM-15+1564KEIK V0203305N005752200059N0160935N5+01475-00565999999ADDGA1005+999999999GD10991+9999999GF100991999999999999999999MA1101195083765REMMET08402/03/25 07:55:01 METAR KEIK 031455Z 33011KT 10SM CLR 15/M06 A2988 RMK AO2 T01471056
0168720534001612025020315157+40017-105050FM-15+1564KEIK V0203105N004152200059N0160935N5+01545-00575999999ADDGA1005+999999999GD10991+9999999GF100991999999999999999999MA1101155083735REMMET08402/03/25 08:15:01 METAR KEIK 031515Z 31008KT 10SM CLR 15/M06 A2987 RMK AO2 T01541057
0168720534001612025020315357+40017-105050FM-15+1564KEIK V0202805N003152200059N0160935N5+01815-00595999999ADDGA1005+999999999GD10991+9999999GF100991999999999999999999MA1101225083795REMMET08402/03/25 08:35:01 METAR KEIK 031535Z 28006KT 10SM CLR 18/M06 A2989 RMK AO2 T01811059
0168720534001612025020315557+40017-105050FM-15+1564KEIK V0202905N003652200059N0160935N5+01995-00665999999ADDGA1005+999999999GD10991+9999999GF100991999999999999999999MA1101225083795REMMET08402/03/25 08:55:01 METAR KEIK 031555Z 29007KT 10SM CLR 20/M07 A2989 RMK AO2 T01991066
0168720534001612025020316157+40017-105050FM-15+1564KEIK V0203105N003152200059N0160935N5+01945-00715999999ADDGA1005+999999999GD10991+9999999GF100991999999999999999999MA1101255083825REMMET08402/03/25 09:15:01 METAR KEIK 031615Z 31006KT 10SM CLR 19/M07 A2990 RMK AO2 T01941071
0168720534001612025020316357+40017-105050FM-15+1564KEIK V0203005N003152200059N0160935N5+01985-00645999999ADDGA1005+999999999GD10991+9999999GF100991999999999999999999MA1101295083855REMMET08402/03/25 09:35:01 METAR KEIK 031635Z 30006KT 10SM CLR 20/M06 A2991 RMK AO2 T01981064
0179720534001612025020316557+40017-105050FM-15+1564KEIK V0203005V005752200059N0160935N5+02055-00695999999ADDGA1005+999999999GD10991+9999999GF100991999999999999999999MA1101255083825OC100885REMMET08702/03/25 09:55:01 METAR KEIK 031655Z 30011G17KT 10SM CLR 20/M07 A2990 RMK AO2 T02051069
0168720534001612025020317157+40017-105050FM-15+1564KEIK V0209999C000052200059N0160935N5+02085-00665999999ADDGA1005+999999999GD10991+9999999GF100991999999999999999999MA1101295083855REMMET08402/03/25 10:15:01 METAR KEIK 031715Z 00000KT 10SM CLR 21/M07 A2991 RMK AO2 T02081066
0168720534001612025020317357+40017-105050FM-15+1564KEIK V0201105N004152200059N0160935N5+01965-00415999999ADDGA1005+999999999GD10991+9999999GF100991999999999999999999MA1101295083855REMMET08402/03/25 10:35:01 METAR KEIK 031735Z 11008KT 10SM CLR 20/M04 A2991 RMK AO2 T01961041
0168720534001612025020317557+40017-105050FM-15+1564KEIK V0201005N007752200059N0160935N5+01955-00595999999ADDGA1005+999999999GD10991+9999999GF100991999999999999999999MA1101295083855REMMET08402/03/25 10:55:01 METAR KEIK 031755Z 10015KT 10SM CLR 20/M06 A2991 RMK AO2 T01951059
0168720534001612025020318157+40017-105050FM-15+1564KEIK V0201005N006752200059N0160935N5+02025-00605999999ADDGA1005+999999999GD10991+9999999GF100991999999999999999999MA1101325083885REMMET08402/03/25 11:15:01 METAR KEIK 031815Z 10013KT 10SM CLR 20/M06 A2992 RMK AO2 T02021060
0168720534001612025020318357+40017-105050FM-15+1564KEIK V0201105N005152200059N0160935N5+02035-00565999999ADDGA1005+999999999GD10991+9999999GF100991999999999999999999MA1101325083885REMMET08402/03/25 11:35:01 METAR KEIK 031835Z 11010KT 10SM CLR 20/M06 A2992 RMK AO2 T02031056
0168720534001612025020318557+40017-105050FM-15+1564KEIK V0201005N004652200059N0160935N5+02025-00575999999ADDGA1005+999999999GD10991+9999999GF100991999999999999999999MA1101295083855REMMET08402/03/25 11:55:01 METAR KEIK 031855Z 10009KT 10SM CLR 20/M06 A2991 RMK AO2 T02021057
0168720534001612025020319157+40017-105050FM-15+1564KEIK V0200705N002652200059N0160935N5+01965-00605999999ADDGA1005+999999999GD10991+9999999GF100991999999999999999999MA1101295083855REMMET08402/03/25 12:15:01 METAR KEIK 031915Z 07005KT 10SM CLR 20/M06 A2991 RMK AO2 T01961060
0179720534001612025020319357+40017-105050FM-15+1564KEIK V0200605N006752200059N0160935N5+01215-00135999999ADDGA1005+999999999GD10991+9999999GF100991999999999999999999MA1101325083885OC100985REMMET08702/03/25 12:35:01 METAR KEIK 031935Z 06013G19KT 10SM CLR 12/M01 A2992 RMK AO2 T01211013
0204720534001612025020319557+40017-105050FM-15+1564KEIK V0200705N003652200059N0160935N5+00885-00185999999ADDGA1025+103635999GD11991+1036359GE19AGL   +99999+99999GF199999999999103631999999MA1101355083915OC100935REMMET09002/03/25 12:55:01 METAR KEIK 031955Z 07007G18KT 10SM FEW340 09/M02 A2993 RMK AO2 T00881018
0167720534001612025020320157+40017-105050FM-15+1564KEIK V0200705N005152200059N0144845N5+00825-00205999999ADDGA1005+999999999GD10991+9999999GF100991999999999999999999MA1101395083945REMMET08302/03/25 13:15:01 METAR KEIK 032015Z 07010KT 9SM CLR 08/M02 A2994 RMK AO2 T00821020
0168720534001612025020320357+40017-105050FM-15+1564KEIK V0200605N005752200059N0160935N5+00755-00205999999ADDGA1005+999999999GD10991+9999999GF100991999999999999999999MA1101355083915REMMET08402/03/25 13:35:01 METAR KEIK 032035Z 06011KT 10SM CLR 08/M02 A2993 RMK AO2 T00751020
0168720534001612025020320557+40017-105050FM-15+1564KEIK V0200605N005152200059N0160935N5+00785-00205999999ADDGA1005+999999999GD10991+9999999GF100991999999999999999999MA1101425083975REMMET08402/03/25 13:55:01 METAR KEIK 032055Z 06010KT 10SM CLR 08/M02 A2995 RMK AO2 T00781020
0168720534001612025020321157+40017-105050FM-15+1564KEIK V0200605N004652200059N0160935N5+00675-00215999999ADDGA1005+999999999GD10991+9999999GF100991999999999999999999MA1101465084005REMMET08402/03/25 14:15:01 METAR KEIK 032115Z 06009KT 10SM CLR 07/M02 A2996 RMK AO2 T00671021
0168720534001612025020321357+40017-105050FM-15+1564KEIK V0200505N003152200059N0160935N5+00575-00245999999ADDGA1005+999999999GD10991+9999999GF100991999999999999999999MA1101495084035REMMET08402/03/25 14:35:01 METAR KEIK 032135Z 05006KT 10SM CLR 06/M02 A2997 RMK AO2 T00571024
0168720534001612025020321557+40017-105050FM-15+1564KEIK V0200505N004152200059N0160935N5+00565-00255999999ADDGA1005+999999999GD10991+9999999GF100991999999999999999999MA1101525084055REMMET08402/03/25 14:55:01 METAR KEIK 032155Z 05008KT 10SM CLR 06/M02 A2998 RMK AO2 T00561025
0168720534001612025020322157+40017-105050FM-15+1564KEIK V0200405N004152200059N0160935N5+00515-00265999999ADDGA1005+999999999GD10991+9999999GF100991999999999999999999MA1101565084085REMMET08402/03/25 15:15:01 METAR KEIK 032215Z 04008KT 10SM CLR 05/M03 A2999 RMK AO2 T00511026
0168720534001612025020322357+40017-105050FM-15+1564KEIK V0200405N004152200059N0160935N5+00495-00265999999ADDGA1005+999999999GD10991+9999999GF100991999999999999999999MA1101595084115REMMET08402/03/25 15:35:01 METAR KEIK 032235Z 04008KT 10SM CLR 05/M03 A3000 RMK AO2 T00491026
0168720534001612025020322557+40017-105050FM-15+1564KEIK V0200605N003652200059N0160935N5+00425-00275999999ADDGA1005+999999999GD10991+9999999GF100991999999999999999999MA1101635084145REMMET08402/03/25 15:55:01 METAR KEIK 032255Z 06007KT 10SM CLR 04/M03 A3001 RMK AO2 T00421027
0168720534001612025020323157+40017-105050FM-15+1564KEIK V0200605N004152200059N0160935N5+00395-00275999999ADDGA1005+999999999GD10991+9999999GF100991999999999999999999MA1101665084175REMMET08402/03/25 16:15:02 METAR KEIK 032315Z 06008KT 10SM CLR 04/M03 A3002 RMK AO2 T00391027
0168720534001612025020323357+40017-105050FM-15+1564KEIK V0200805N004152200059N0160935N5+00345-00295999999ADDGA1005+999999999GD10991+9999999GF100991999999999999999999MA1101665084175REMMET08402/03/25 16:35:02 METAR KEIK 032335Z 08008KT 10SM CLR 03/M03 A3002 RMK AO2 T00341029
0167720534001612025020323557+40017-105050FM-15+1564KEIK V0200605N002652200059N0144845N5+00255-00305999999ADDGA1005+999999999GD10991+9999999GF100991999999999999999999MA1101695084205REMMET08302/03/25 16:55:02 METAR KEIK 032355Z 06005KT 9SM CLR 02/M03 A3003 RMK AO2 T00251030
0167720534001612025020400157+40017-105050FM-15+1564KEIK V0200705N003652200059N0144845N5+00155-00315999999ADDGA1005+999999999GD10991+9999999GF100991999999999999999999MA1101695084205REMMET08302/03/25 17:15:01 METAR KEIK 040015Z 07007KT 9SM CLR 02/M03 A3003 RMK AO2 T00151031
0167720534001612025020400357+40017-105050FM-15+1564KEIK V0200605N003152200059N0144845N5+00065-00365999999ADDGA1005+999999999GD10991+9999999GF100991999999999999999999MA1101765084265REMMET08302/03/25 17:35:01 METAR KEIK 040035Z 06006KT 9SM CLR 01/M04 A3005 RMK AO2 T00061036
0169720534001612025020400557+40017-105050FM-15+1564KEIK V0200805N003652200059N0160935N5-00015-00385999999ADDGA1005+999999999GD10991+9999999GF100991999999999999999999MA1101795084295REMMET08502/03/25 17:55:01 METAR KEIK 040055Z 08007KT 10SM CLR M00/M04 A3006 RMK AO2 T10011038
0169720534001612025020401157+40017-105050FM-15+1564KEIK V0200905N004152200059N0160935N5-00095-00405999999ADDGA1005+999999999GD10991+9999999GF100991999999999999999999MA1101865084345REMMET08502/03/25 18:15:01 METAR KEIK 040115Z 09008KT 10SM CLR M01/M04 A3008 RMK AO2 T10091040
0169720534001612025020401357+40017-105050FM-15+1564KEIK V0200905N003652200059N0160935N5-00155-00445999999ADDGA1005+999999999GD10991+9999999GF100991999999999999999999MA1101865084345REMMET08502/03/25 18:35:01 METAR KEIK 040135Z 09007KT 10SM CLR M01/M04 A3008 RMK AO2 T10151044
0169720534001612025020401557+40017-105050FM-15+1564KEIK V0201205N002152200059N0160935N5-00205-00465999999ADDGA1005+999999999GD10991+9999999GF100991999999999999999999MA1101935084405REMMET08502/03/25 18:55:01 METAR KEIK 040155Z 12004KT 10SM CLR M02/M05 A3010 RMK AO2 T10201046
0169720534001612025020402157+40017-105050FM-15+1564KEIK V0200905N003152200059N0160935N5-00255-00485999999ADDGA1005+999999999GD10991+9999999GF100991999999999999999999MA1101935084405REMMET08502/03/25 19:15:01 METAR KEIK 040215Z 09006KT 10SM CLR M03/M05 A3010 RMK AO2 T10251048
0169720534001612025020402357+40017-105050FM-15+1564KEIK V0200905N003152200059N0160935N5-00285-00495999999ADDGA1005+999999999GD10991+9999999GF100991999999999999999999MA1101935084405REMMET08502/03/25 19:35:01 METAR KEIK 040235Z 09006KT 10SM CLR M03/M05 A3010 RMK AO2 T10281049
0169720534001612025020402557+40017-105050FM-15+1564KEIK V0200905N001552200059N0160935N5-00345-00535999999ADDGA1005+999999999GD10991+9999999GF100991999999999999999999MA1101965084435REMMET08502/03/25 19:55:01 METAR KEIK 040255Z 09003KT 10SM CLR M03/M05 A3011 RMK AO2 T10341053
0169720534001612025020403157+40017-105050FM-15+1564KEIK V0209999C000052200059N0160935N5-00345-00525999999ADDGA1005+999999999GD10991+9999999GF100991999999999999999999MA1101965084435REMMET08502/03/25 20:15:01 METAR KEIK 040315Z 00000KT 10SM CLR M03/M05 A3011 RMK AO2 T10341052
0169720534001612025020403357+40017-105050FM-15+1564KEIK V0209999C000052200059N0160935N5-00325-00525999999ADDGA1005+999999999GD10991+9999999GF100991999999999999999999MA1102005084465REMMET08502/03/25 20:35:01 METAR KEIK 040335Z 00000KT 10SM CLR M03/M05 A3012 RMK AO2 T10321052
0169720534001612025020403557+40017-105050FM-15+1564KEIK V0209999C000052200059N0160935N5-00385-00565999999ADDGA1005+999999999GD10991+9999999GF100991999999999999999999MA1102005084465REMMET08502/03/25 20:55:01 METAR KEIK 040355Z 00000KT 10SM CLR M04/M06 A3012 RMK AO2 T10381056
0169720534001612025020404157+40017-105050FM-15+1564KEIK V0201205N001552200059N0160935N5-00425-00575999999ADDGA1005+999999999GD10991+9999999GF100991999999999999999999MA1102005084465REMMET08502/03/25 21:15:01 METAR KEIK 040415Z 12003KT 10SM CLR M04/M06 A3012 RMK AO2 T10421057
0194720534001612025020404357+40017-105050FM-15+1564KEIK V0200605N001552200059N0160935N5-00325-00555999999ADDGA1045+005495999GD12991+0054959GE19AGL   +99999+99999GF199999999999005491999999MA1101965084435REMMET08802/03/25 21:35:01 METAR KEIK 040435Z 06003KT 10SM SCT018 M03/M05 A3011 RMK AO2 T10321055
0194720534001612025020404557+40017-105050FM-15+1564KEIK V0200505N00215005185MN0160935N5-00365-00555999999ADDGA1085+005185999GD14991+0051859GE19AGL   +99999+99999GF199999999999005181999999MA1101965084435REMMET08802/03/25 21:55:01 METAR KEIK 040455Z 05004KT 10SM OVC017 M04/M05 A3011 RMK AO2 T10361055
0194720534001612025020405157+40017-105050FM-15+1564KEIK V0200405N00215005495MN0160935N5-00365-00545999999ADDGA1085+005495999GD14991+0054959GE19AGL   +99999+99999GF199999999999005491999999MA1102005084465REMMET08802/03/25 22:15:01 METAR KEIK 040515Z 04004KT 10SM OVC018 M04/M05 A3012 RMK AO2 T10361054
0194720534001612025020405357+40017-105050FM-15+1564KEIK V0200405N00215005185MN0160935N5-00445-00645999999ADDGA1085+005185999GD14991+0051859GE19AGL   +99999+99999GF199999999999005181999999MA1102005084465REMMET08802/03/25 22:35:01 METAR KEIK 040535Z 04004KT 10SM OVC017 M04/M06 A3012 RMK AO2 T10441064
0194720534001612025020405557+40017-105050FM-15+1564KEIK V0200405N00265004885MN0160935N5-00485-00715999999ADDGA1085+004885999GD14991+0048859GE19AGL   +99999+99999GF199999999999004881999999MA1102005084465REMMET08802/03/25 22:55:01 METAR KEIK 040555Z 04005KT 10SM OVC016 M05/M07 A3012 RMK AO2 T10481071
0194720534001612025020406157+40017-105050FM-15+1564KEIK V0200605N00265004885MN0160935N5-00525-00745999999ADDGA1085+004885999GD14991+0048859GE19AGL   +99999+99999GF199999999999004881999999MA1102005084465REMMET08802/03/25 23:15:01 METAR KEIK 040615Z 06005KT 10SM OVC016 M05/M07 A3012 RMK AO2 T10521074
0194720534001612025020406357+40017-105050FM-15+1564KEIK V0200505N00265004575MN0160935N5-00575-00785999999ADDGA1085+004575999GD14991+0045759GE19AGL   +99999+99999GF199999999999004571999999MA1101965084435REMMET08802/03/25 23:35:01 METAR KEIK 040635Z 05005KT 10SM OVC015 M06/M08 A3011 RMK AO2 T10571078
0194720534001612025020406557+40017-105050FM-15+1564KEIK V0200505N00365004275MN0160935N5-00595-00795999999ADDGA1085+004275999GD14991+0042759GE19AGL   +99999+99999GF199999999999004271999999MA1101965084435REMMET08802/03/25 23:55:01 METAR KEIK 040655Z 05007KT 10SM OVC014 M06/M08 A3011 RMK AO2 T10591079
0194720534001612025020407157+40017-105050FM-15+1564KEIK V0200505N00265004275MN0160935N5-00625-00815999999ADDGA1085+004275999GD14991+0042759GE19AGL   +99999+99999GF199999999999004271999999MA1101965084435REMMET08802/04/25 00:15:01 METAR KEIK 040715Z 05005KT 10SM OVC014 M06/M08 A3011 RMK AO2 T10621081
0194720534001612025020407357+40017-105050FM-15+1564KEIK V0200505N00215003965MN0160935N5-00635-00825999999ADDGA1085+003965999GD14991+0039659GE19AGL   +99999+99999GF199999999999003961999999MA1101935084405REMMET08802/04/25 00:35:01 METAR KEIK 040735Z 05004KT 10SM OVC013 M06/M08 A3010 RMK AO2 T10631082
0193720534001612025020407557+40017-105050FM-15+1564KEIK V0201105N00215003965MN0144845N5-00645-00835999999ADDGA1085+003965999GD14991+0039659GE19AGL   +99999+99999GF199999999999003961999999MA1101935084405REMMET08702/04/25 00:55:01 METAR KEIK 040755Z 11004KT 9SM OVC013 M06/M08 A3010 RMK AO2 T10641083
0194720534001612025020408157+40017-105050FM-15+1564KEIK V0200905N00155003665MN0160935N5-00665-00845999999ADDGA1085+003665999GD14991+0036659GE19AGL   +99999+99999GF199999999999003661999999MA1101905084375REMMET08802/04/25 01:15:01 METAR KEIK 040815Z 09003KT 10SM OVC012 M07/M08 A3009 RMK AO2 T10661084
0194720534001612025020408357+40017-105050FM-15+1564KEIK V0209999C00005003665MN0160935N5-00655-00845999999ADDGA1085+003665999GD14991+0036659GE19AGL   +99999+99999GF199999999999003661999999MA1101865084345REMMET08802/04/25 01:35:01 METAR KEIK 040835Z 00000KT 10SM OVC012 M07/M08 A3008 RMK AO2 T10651084
0193720534001612025020408557+40017-105050FM-15+1564KEIK V0209999C00005003665MN0144845N5-00665-00845999999ADDGA1085+003665999GD14991+0036659GE19AGL   +99999+99999GF199999999999003661999999MA1101865084345REMMET08702/04/25 01:55:01 METAR KEIK 040855Z 00000KT 9SM OVC012 M07/M08 A3008 RMK AO2 T10661084
0194720534001612025020409157+40017-105050FM-15+1564KEIK V0200605N00155003355MN0160935N5-00655-00815999999ADDGA1085+003355999GD14991+0033559GE19AGL   +99999+99999GF199999999999003351999999MA1101865084345REMMET08802/04/25 02:15:01 METAR KEIK 040915Z 06003KT 10SM OVC011 M06/M08 A3008 RMK AO2 T10651081
0194720534001612025020409357+40017-105050FM-15+1564KEIK V0200605N00155003355MN0160935N5-00665-00835999999ADDGA1085+003355999GD14991+0033559GE19AGL   +99999+99999GF199999999999003351999999MA1101835084325REMMET08802/04/25 02:35:01 METAR KEIK 040935Z 06003KT 10SM OVC011 M07/M08 A3007 RMK AO2 T10661083
0193720534001612025020409557+40017-105050FM-15+1564KEIK V0209999C00005003355MN0144845N5-00655-00815999999ADDGA1085+003355999GD14991+0033559GE19AGL   +99999+99999GF199999999999003351999999MA1101835084325REMMET08702/04/25 02:55:01 METAR KEIK 040955Z 00000KT 9SM OVC011 M07/M08 A3007 RMK AO2 T10651081
0193720534001612025020410157+40017-105050FM-15+1564KEIK V0200505N00155003355MN0144845N5-00675-00825999999ADDGA1085+003355999GD14991+0033559GE19AGL   +99999+99999GF199999999999003351999999MA1101795084295REMMET08702/04/25 03:15:01 METAR KEIK 041015Z 05003KT 9SM OVC011 M07/M08 A3006 RMK AO2 T10671082
0206720534001612025020410357+40017-105050FM-15+1564KEIK V0209999C00005003055MN0160935N5-00665-00825999999ADDGA1085+003055999GD14991+0030551GE19AGL   +99999+99999GF199999999999003051999999MA1101765084265REMMET10002/04/25 03:35:01 METAR KEIK 041035Z 00000KT 10SM OVC010 M07/M08 A3005 RMK AO2 CIG 009V012 T10661082
0205720534001612025020410557+40017-105050FM-15+1564KEIK V0209999C00005003055MN0144845N5-00675-00825999999ADDGA1085+003055999GD14991+0030551GE19AGL   +99999+99999GF199999999999003051999999MA1101735084235REMMET09902/04/25 03:55:01 METAR KEIK 041055Z 00000KT 9SM OVC010 M07/M08 A3004 RMK AO2 CIG 009V011 T10671082
0205720534001612025020411157+40017-105050FM-15+1564KEIK V0203405N00155002445MN0144845N5-00675-00815999999ADDGA1085+002445999GD14991+0024451GE19AGL   +99999+99999GF199999999999002441999999MA1101735084235REMMET09902/04/25 04:15:01 METAR KEIK 041115Z 34003KT 9SM OVC008 M07/M08 A3004 RMK AO2 CIG 007V011 T10671081
0205720534001612025020411357+40017-105050FM-15+1564KEIK V0200105N00155002445MN0128755N5-00665-00785999999ADDGA1085+002445999GD14991+0024451GE19AGL   +99999+99999GF199999999999002441999999MA1101695084205REMMET09902/04/25 04:35:01 METAR KEIK 041135Z 01003KT 8SM OVC008 M07/M08 A3003 RMK AO2 CIG 006V010 T10661078
0205720534001612025020411557+40017-105050FM-15+1564KEIK V0203605N00155002445MN0128755N5-00675-00785999999ADDGA1085+002445999GD14991+0024451GE19AGL   +99999+99999GF199999999999002441999999MA1101735084235REMMET09902/04/25 04:55:01 METAR KEIK 041155Z 36003KT 8SM OVC008 M07/M08 A3004 RMK AO2 CIG 007V009 T10671078
0205720534001612025020412157+40017-105050FM-15+1564KEIK V0209999C00005002445MN0128755N5-00675-00775999999ADDGA1085+002445999GD14991+0024451GE19AGL   +99999+99999GF199999999999002441999999MA1101695084205REMMET09902/04/25 05:15:01 METAR KEIK 041215Z 00000KT 8SM OVC008 M07/M08 A3003 RMK AO2 CIG 007V009 T10671077
0205720534001612025020412357+40017-105050FM-15+1564KEIK V0200105N00155002445MN0128755N5-00695-00775999999ADDGA1085+002445999GD14991+0024451GE19AGL   +99999+99999GF199999999999002441999999MA1101695084205REMMET09902/04/25 05:35:01 METAR KEIK 041235Z 01003KT 8SM OVC008 M07/M08 A3003 RMK AO2 CIG 007V009 T10691077
0205720534001612025020412557+40017-105050FM-15+1564KEIK V0209999C00005002135MN0128755N5-00685-00785999999ADDGA1085+002135999GD14991+0021351GE19AGL   +99999+99999GF199999999999002131999999MA1101665084175REMMET09902/04/25 05:55:01 METAR KEIK 041255Z 00000KT 8SM OVC007 M07/M08 A3002 RMK AO2 CIG 006V008 T10681078
0205720534001612025020413157+40017-105050FM-15+1564KEIK V0200705N00215002135MN0128755N5-00695-00785999999ADDGA1085+002135999GD14991+0021351GE19AGL   +99999+99999GF199999999999002131999999MA1101665084175REMMET09902/04/25 06:15:01 METAR KEIK 041315Z 07004KT 8SM OVC007 M07/M08 A3002 RMK AO2 CIG 006V008 T10691078
0205720534001612025020413357+40017-105050FM-15+1564KEIK V0200505N00155001835MN0112655N5-00705-00775999999ADDGA1085+001835999GD14991+0018351GE19AGL   +99999+99999GF199999999999001831999999MA1101695084205REMMET09902/04/25 06:35:01 METAR KEIK 041335Z 05003KT 7SM OVC006 M07/M08 A3003 RMK AO2 CIG 005V008 T10701077
0205720534001612025020413557+40017-105050FM-15+1564KEIK V0200305N00215002135MN0112655N5-00715-00795999999ADDGA1085+002135999GD14991+0021351GE19AGL   +99999+99999GF199999999999002131999999MA1101735084235REMMET09902/04/25 06:55:01 METAR KEIK 041355Z 03004KT 7SM OVC007 M07/M08 A3004 RMK AO2 CIG 005V008 T10711079
0213720534001612025020414157+40017-105050FM-15+1564KEIK V0203405N00155002135MN0096565N5-00715-00805999999ADDAU100001015AW1105GA1085+002135999GD14991+0021359GE19AGL   +99999+99999GF199999999999002131999999MA1101735084235REMMET09002/04/25 07:15:01 METAR KEIK 041415Z 34003KT 6SM BR OVC007 M07/M08 A3004 RMK AO2 T10711080
0225720534001612025020414357+40017-105050FM-15+1564KEIK V0209999C00005002135MN0096565N5-00695-00765999999ADDAU100001015AW1105GA1085+002135999GD14991+0021351GE19AGL   +99999+99999GF199999999999002131999999MA1101735084235REMMET10202/04/25 07:35:01 METAR KEIK 041435Z 00000KT 6SM BR OVC007 M07/M08 A3004 RMK AO2 CIG 006V008 T10691076
0225720534001612025020414557+40017-105050FM-15+1564KEIK V0203205N00215001835MN0080475N5-00695-00755999999ADDAU100001015AW1105GA1085+001835999GD14991+0018351GE19AGL   +99999+99999GF199999999999001831999999MA1101735084235REMMET10202/04/25 07:55:01 METAR KEIK 041455Z 32004KT 5SM BR OVC006 M07/M08 A3004 RMK AO2 CIG 005V007 T10691075
0225720534001612025020415157+40017-105050FM-15+1564KEIK V0209999V00155001835MN0096565N5-00705-00755999999ADDAU100001015AW1105GA1085+001835999GD14991+0018351GE19AGL   +99999+99999GF199999999999001831999999MA1101765084265REMMET10202/04/25 08:15:01 METAR KEIK 041515Z VRB03KT 6SM BR OVC006 M07/M08 A3005 RMK AO2 CIG 004V007 T10701075
0213720534001612025020415357+40017-105050FM-15+1564KEIK V0203605N00155002135MN0080475N5-00675-00755999999ADDAU100001015AW1105GA1085+002135999GD14991+0021359GE19AGL   +99999+99999GF199999999999002131999999MA1101765084265REMMET09002/04/25 08:35:01 METAR KEIK 041535Z 36003KT 5SM BR OVC007 M07/M07 A3005 RMK AO2 T10671075
0213720534001612025020415557+40017-105050FM-15+1564KEIK V0203405N00215001835MN0080475N5-00685-00755999999ADDAU100001015AW1105GA1085+001835999GD14991+0018359GE19AGL   +99999+99999GF199999999999001831999999MA1101765084265REMMET09002/04/25 08:55:01 METAR KEIK 041555Z 34004KT 5SM BR OVC006 M07/M08 A3005 RMK AO2 T10681075
0213720534001612025020416157+40017-105050FM-15+1564KEIK V0209999C00005001835MN0080475N5-00685-00755999999ADDAU100001015AW1105GA1085+001835999GD14991+0018359GE19AGL   +99999+99999GF199999999999001831999999MA1101735084235REMMET09002/04/25 09:15:01 METAR KEIK 041615Z 00000KT 5SM BR OVC006 M07/M08 A3004 RMK AO2 T10681075
0213720534001612025020416357+40017-105050FM-15+1564KEIK V0209999C00005001835MN0080475N5-00685-00755999999ADDAU100001015AW1105GA1085+001835999GD14991+0018359GE19AGL   +99999+99999GF199999999999001831999999MA1101735084235REMMET09002/04/25 09:35:01 METAR KEIK 041635Z 00000KT 5SM BR OVC006 M07/M08 A3004 RMK AO2 T10681075
0213720534001612025020416557+40017-105050FM-15+1564KEIK V0209999C00005001835MN0096565N5-00665-00745999999ADDAU100001015AW1105GA1085+001835999GD14991+0018359GE19AGL   +99999+99999GF199999999999001831999999MA1101735084235REMMET09002/04/25 09:55:01 METAR KEIK 041655Z 00000KT 6SM BR OVC006 M07/M07 A3004 RMK AO2 T10661074
0225720534001612025020417157+40017-105050FM-15+1564KEIK V0203405N00265002135MN0096565N5-00635-00745999999ADDAU100001015AW1105GA1085+002135999GD14991+0021351GE19AGL   +99999+99999GF199999999999002131999999MA1101735084235REMMET10202/04/25 10:15:01 METAR KEIK 041715Z 34005KT 6SM BR OVC007 M06/M07 A3004 RMK AO2 CIG 006V008 T10631074
0193720534001612025020417357+40017-105050FM-15+1564KEIK V0200205N00155002445MN0112655N5-00605-00745999999ADDGA1085+002445999GD14991+0024459GE19AGL   +99999+99999GF199999999999002441999999MA1101735084235REMMET08702/04/25 10:35:01 METAR KEIK 041735Z 02003KT 7SM OVC008 M06/M07 A3004 RMK AO2 T10601074
0145720534001612025020417556+40017-105050FM-15+1564KEIK V0209999C00005002445MN0112655N5-00595-00735999999ADDGA1085+002445999GD14991+0024459MA1101695084205REMMET08702/04/25 10:55:01 METAR KEIK 041755Z 00000KT 7SM OVC008 M06/M07 A3003 RMK AO2 T10591073
0157720534001612025020418156+40017-105050FM-15+1564KEIK V0209999C00005002745MN0144845N5-00495-00705999999ADDGA1085+002745999GD14991+0027459MA1101635084145REMMET09902/04/25 11:15:01 METAR KEIK 041815Z 00000KT 9SM OVC009 M05/M07 A3001 RMK AO2 CIG 008V011 T10491070
0145720534001612025020418356+40017-105050FM-15+1564KEIK V0209999V001552200059N0128755N5-00455-00685999999ADDGA1045+002745999GD12991+0027459MA1101595084115REMMET08702/04/25 11:35:01 METAR KEIK 041835Z VRB03KT 8SM SCT009 M04/M07 A3000 RMK AO2 T10451068
0145720534001612025020418556+40017-105050FM-15+1564KEIK V0209999C000052200059N0128755N5-00425-00695999999ADDGA1025+003665999GD11991+0036659MA1101595084115REMMET08702/04/25 11:55:01 METAR KEIK 041855Z 00000KT 8SM FEW012 M04/M07 A3000 RMK AO2 T10421069
0145720534001612025020419156+40017-105050FM-15+1564KEIK V0209999C000052200059N0144845N5-00335-00685999999ADDGA1025+106685999GD11991+1066859MA1101565084085REMMET08702/04/25 12:15:01 METAR KEIK 041915Z 00000KT 9SM FEW350 M03/M07 A2999 RMK AO2 T10331068
0142720534001612025020419356+40017-105050FM-15+1564KEIK V0209999C000052200059N0144845N5-00335-00675999999ADDGA1005+999999999GD10991+9999999MA1101495084035REMMET08402/04/25 12:35:01 METAR KEIK 041935Z 00000KT 9SM CLR M03/M07 A2997 RMK AO2 T10331067
0145720534001612025020419556+40017-105050FM-15+1564KEIK V0209999C000052200059N0144845N5-00255-00645999999ADDGA1025+112785999GD11991+1127859MA1101465084005REMMET08702/04/25 12:55:01 METAR KEIK 041955Z 00000KT 9SM FEW370 M03/M06 A2996 RMK AO2 T10251064
0183720534001612025020420156+40017-105050FM-15+1564KEIK V0200405N001552200059N0128755N5-00215-00635999999ADDGA1025+064015999GA2045+112785999GD11991+0640159GD22991+1127859MA1101395083945REMMET09402/04/25 13:15:01 METAR KEIK 042015Z 04003KT 8SM FEW210 SCT370 M02/M06 A2994 RMK AO2 T10211063
0145720534001612025020420356+40017-105050FM-15+1564KEIK V0209999C000052200059N0128755N5-00145-00615999999ADDGA1025+064015999GD11991+0640159MA1101395083945REMMET08702/04/25 13:35:01 METAR KEIK 042035Z 00000KT 8SM FEW210 M01/M06 A2994 RMK AO2 T10141061
0142720534001612025020420556+40017-105050FM-15+1564KEIK V0201005N002152200059N0128755N5-00105-00605999999ADDGA1005+999999999GD10991+9999999MA1101355083915REMMET08402/04/25 13:55:01 METAR KEIK 042055Z 10004KT 8SM CLR M01/M06 A2993 RMK AO2 T10101060
0142720534001612025020421156+40017-105050FM-15+1564KEIK V0200605N001552200059N0128755N5-00105-00615999999ADDGA1005+999999999GD10991+9999999MA1101355083915REMMET08402/04/25 14:15:02 METAR KEIK 042115Z 06003KT 8SM CLR M01/M06 A2993 RMK AO2 T10101061
0142720534001612025020421356+40017-105050FM-15+1564KEIK V0200805N002152200059N0128755N5-00035-00595999999ADDGA1005+999999999GD10991+9999999MA1101355083915REMMET08402/04/25 14:35:02 METAR KEIK 042135Z 08004KT 8SM CLR M00/M06 A2993 RMK AO2 T10031059
0144720534001612025020421556+40017-105050FM-15+1564KEIK V0209999C000052200059N0144845N5+00055-00595999999ADDGA1025+112785999GD11991+1127859MA1101325083885REMMET08602/04/25 14:55:02 METAR KEIK 042155Z 00000KT 9SM FEW370 00/M06 A2992 RMK AO2 T00051059
0141720534001612025020422156+40017-105050FM-15+1564KEIK V0209999C000052200059N0144845N5+00025-00575999999ADDGA1005+999999999GD10991+9999999MA1101325083885REMMET08302/04/25 15:15:02 METAR KEIK 042215Z 00000KT 9SM CLR 00/M06 A2992 RMK AO2 T00021057
0141720534001612025020422356+40017-105050FM-15+1564KEIK V0201005N001552200059N0144845N5+00075-00585999999ADDGA1005+999999999GD10991+9999999MA1101295083855REMMET08302/04/25 15:35:02 METAR KEIK 042235Z 10003KT 9SM CLR 01/M06 A2991 RMK AO2 T00071058
0141720534001612025020422556+40017-105050FM-15+1564KEIK V0201205N002152200059N0128755N5+00145-00545999999ADDGA1005+999999999GD10991+9999999MA1101295083855REMMET08302/04/25 15:55:02 METAR KEIK 042255Z 12004KT 8SM CLR 01/M05 A2991 RMK AO2 T00141054
0141720534001612025020423156+40017-105050FM-15+1564KEIK V0201005N002652200059N0112655N5+00125-00555999999ADDGA1005+999999999GD10991+9999999MA1101255083825REMMET08302/04/25 16:15:02 METAR KEIK 042315Z 10005KT 7SM CLR 01/M06 A2990 RMK AO2 T00121055
0141720534001612025020423356+40017-105050FM-15+1564KEIK V0209999C000052200059N0128755N5+00145-00545999999ADDGA1005+999999999GD10991+9999999MA1101295083855REMMET08302/04/25 16:35:02 METAR KEIK 042335Z 00000KT 8SM CLR 01/M05 A2991 RMK AO2 T00141054
0141720534001612025020423556+40017-105050FM-15+1564KEIK V0209999C000052200059N0112655N5+00145-00555999999ADDGA1005+999999999GD10991+9999999MA1101295083855REMMET08302/04/25 16:55:02 METAR KEIK 042355Z 00000KT 7SM CLR 01/M05 A2991 RMK AO2 T00141055
0141720534001612025020500156+40017-105050FM-15+1564KEIK V0200605N002152200059N0128755N5+00085-00535999999ADDGA1005+999999999GD10991+9999999MA1101255083825REMMET08302/04/25 17:15:01 METAR KEIK 050015Z 06004KT 8SM CLR 01/M05 A2990 RMK AO2 T00081053
0141720534001612025020500356+40017-105050FM-15+1564KEIK V0200405N002152200059N0112655N5+00045-00505999999ADDGA1005+999999999GD10991+9999999MA1101295083855REMMET08302/04/25 17:35:01 METAR KEIK 050035Z 04004KT 7SM CLR 00/M05 A2991 RMK AO2 T00041050
0142720534001612025020500556+40017-105050FM-15+1564KEIK V0203305N002152200059N0128755N5-00055-00515999999ADDGA1005+999999999GD10991+9999999MA1101325083885REMMET08402/04/25 17:55:01 METAR KEIK 050055Z 33004KT 8SM CLR M01/M05 A2992 RMK AO2 T10051051
0142720534001612025020501156+40017-105050FM-15+1564KEIK V0203405N001552200059N0128755N5-00125-00555999999ADDGA1005+999999999GD10991+9999999MA1101325083885REMMET08402/04/25 18:15:01 METAR KEIK 050115Z 34003KT 8SM CLR M01/M05 A2992 RMK AO2 T10121055
0145720534001612025020501356+40017-105050FM-15+1564KEIK V0209999C000052200059N0128755N5-00155-00565999999ADDGA1025+064015999GD11991+0640159MA1101325083885REMMET08702/04/25 18:35:01 METAR KEIK 050135Z 00000KT 8SM FEW210 M01/M06 A2992 RMK AO2 T10151056
0145720534001612025020501556+40017-105050FM-15+1564KEIK V0203405N001552200059N0144845N5-00165-00565999999ADDGA1025+064015999GD11991+0640159MA1101325083885REMMET08702/04/25 18:55:01 METAR KEIK 050155Z 34003KT 9SM FEW210 M02/M06 A2992 RMK AO2 T10161056
0145720534001612025020502156+40017-105050FM-15+1564KEIK V0209999C000052200059N0128755N5-00225-00545999999ADDGA1025+064015999GD11991+0640159MA1101325083885REMMET08702/04/25 19:15:01 METAR KEIK 050215Z 00000KT 8SM FEW210 M02/M05 A2992 RMK AO2 T10221054
0142720534001612025020502356+40017-105050FM-15+1564KEIK V0209999C000052200059N0128755N5-00235-00505999999ADDGA1005+999999999GD10991+9999999MA1101325083885REMMET08402/04/25 19:35:01 METAR KEIK 050235Z 00000KT 8SM CLR M02/M05 A2992 RMK AO2 T10231050
0142720534001612025020502556+40017-105050FM-15+1564KEIK V0209999C000052200059N0128755N5-00285-00515999999ADDGA1005+999999999GD10991+9999999MA1101325083885REMMET08402/04/25 19:55:01 METAR KEIK 050255Z 00000KT 8SM CLR M03/M05 A2992 RMK AO2 T10281051
0142720534001612025020503156+40017-105050FM-15+1564KEIK V0209999C000052200059N0128755N5-00425-00575999999ADDGA1005+999999999GD10991+9999999MA1101295083855REMMET08402/04/25 20:15:01 METAR KEIK 050315Z 00000KT 8SM CLR M04/M06 A2991 RMK AO2 T10421057
0142720534001612025020503356+40017-105050FM-15+1564KEIK V0203505N001552200059N0128755N5-00385-00545999999ADDGA1005+999999999GD10991+9999999MA1101325083885REMMET08402/04/25 20:35:01 METAR KEIK 050335Z 35003KT 8SM CLR M04/M05 A2992 RMK AO2 T10381054
0142720534001612025020503556+40017-105050FM-15+1564KEIK V0209999C000052200059N0128755N5-00375-00565999999ADDGA1005+999999999GD10991+9999999MA1101295083855REMMET08402/04/25 20:55:01 METAR KEIK 050355Z 00000KT 8SM CLR M04/M06 A2991 RMK AO2 T10371056
0142720534001612025020504156+40017-105050FM-15+1564KEIK V0209999C000052200059N0128755N5-00515-00605999999ADDGA1005+999999999GD10991+9999999MA1101295083855REMMET08402/04/25 21:15:01 METAR KEIK 050415Z 00000KT 8SM CLR M05/M06 A2991 RMK AO2 T10511060
0142720534001612025020504356+40017-105050FM-15+1564KEIK V0209999C000052200059N0128755N5-00485-00585999999ADDGA1005+999999999GD10991+9999999MA1101255083825REMMET08402/04/25 21:35:01 METAR KEIK 050435Z 00000KT 8SM CLR M05/M06 A2990 RMK AO2 T10481058
0142720534001612025020504556+40017-105050FM-15+1564KEIK V0209999C000052200059N0128755N5-00565-00625999999ADDGA1005+999999999GD10991+9999999MA1101255083825REMMET08402/04/25 21:55:01 METAR KEIK 050455Z 00000KT 8SM CLR M06/M06 A2990 RMK AO2 T10561062
0142720534001612025020505156+40017-105050FM-15+1564KEIK V0209999C000052200059N0128755N5-00535-00615999999ADDGA1005+999999999GD10991+9999999MA1101225083795REMMET08402/04/25 22:15:01 METAR KEIK 050515Z 00000KT 8SM CLR M05/M06 A2989 RMK AO2 T10531061
0142720534001612025020505356+40017-105050FM-15+1564KEIK V0209999C000052200059N0128755N5-00575-00645999999ADDGA1005+999999999GD10991+9999999MA1101225083795REMMET08402/04/25 22:35:01 METAR KEIK 050535Z 00000KT 8SM CLR M06/M06 A2989 RMK AO2 T10571064
0142720534001612025020505556+40017-105050FM-15+1564KEIK V0209999C000052200059N0128755N5-00585-00665999999ADDGA1005+999999999GD10991+9999999MA1101195083765REMMET08402/04/25 22:55:01 METAR KEIK 050555Z 00000KT 8SM CLR M06/M07 A2988 RMK AO2 T10581066
0142720534001612025020506156+40017-105050FM-15+1564KEIK V0209999C000052200059N0112655N5-00625-00695999999ADDGA1005+999999999GD10991+9999999MA1101195083765REMMET08402/04/25 23:15:01 METAR KEIK 050615Z 00000KT 7SM CLR M06/M07 A2988 RMK AO2 T10621069
0142720534001612025020506356+40017-105050FM-15+1564KEIK V0209999C000052200059N0128755N5-00595-00675999999ADDGA1005+999999999GD10991+9999999MA1101155083735REMMET08402/04/25 23:35:01 METAR KEIK 050635Z 00000KT 8SM CLR M06/M07 A2987 RMK AO2 T10591067
0142720534001612025020506556+40017-105050FM-15+1564KEIK V0209999C000052200059N0112655N5-00605-00705999999ADDGA1005+999999999GD10991+9999999MA1101155083735REMMET08402/04/25 23:55:01 METAR KEIK 050655Z 00000KT 7SM CLR M06/M07 A2987 RMK AO2 T10601070
001572053400161202502050659O+40017-105050SOD  +1564KEIK V020999999999999999999999999999+99999+99999999999ADDAT1AU13BR  5
